name,lat,lng,address,province,city,area,uid,tag1,tag2
连云区图书馆,34.747934136662735,119.347256,连云港市连云区阅海路连云港市海州湾小学北侧约50米,江苏省,连云港市,连云区,449a78d90b4116d6fc0eb0ff,教育培训,图书馆
图书馆藏,34.54477324411274,119.385074,连云港市连云区东方中路东辛农场中心小学(东方路)南侧,江苏省,连云港市,连云区,fcf2c74386da52ba1b94c617,购物,商铺
东海县少儿图书馆,34.52640970229579,118.769777,江苏省连云港市东海县利民东路12号,江苏省,连云港市,东海县,dffd4642aa9b99b23c9a5ed3,教育培训,图书馆
樊氏图书馆,34.52275868242234,118.712523,东海县牛山街道湖西村,江苏省,连云港市,东海县,368137b14a81f6c0d22dd688,教育培训,图书馆
邓演达文献馆,34.52246234962678,118.712552,江苏省东海县牛山街道湖西村白石岭,江苏省,连云港市,东海县,77e161656bd00121f703b853,教育培训,图书馆
东海县公共图书馆(山左口分馆),34.59594332876785,118.49339,连云港市东海县光明路东海县山左口乡人民政府东南侧约90米,江苏省,连云港市,东海县,0fd8a0ebc2cc98d22fb96d1c,教育培训,图书馆
24小时青少年自助图书馆,34.60441620331302,118.68448,连云港市东海县广场东路温泉镇政府东南侧约210米,江苏省,连云港市,东海县,719021d75d8047b0354aae53,教育培训,图书馆
灌南县图书馆(桥东分馆),34.09194296160144,119.363415,江苏省连云港市灌南县新东南路10号,江苏省,连云港市,灌南县,43bf92a3717fda362fe67bb3,教育培训,图书馆
贺龙国公共图书馆,34.22307466174196,119.572682,连云港市灌南县烟沪线灌南县田楼镇第一卫生院西南侧约230米,江苏省,连云港市,灌南县,eebe2cae72fc25b878f79694,教育培训,图书馆
连云港市图书馆,34.62034305405077,119.220524,江苏省连云港市海州区科苑中路6号,江苏省,连云港市,海州区,118b9b22409064ac32f71d52,教育培训,图书馆
海州区图书馆,34.545278928531474,119.211632,江苏省连云港市海州区迎宾大道海州规划展示馆,江苏省,连云港市,海州区,a9d3dd6cfc60e27c03ff2d2e,教育培训,图书馆
24小时自助图书馆,34.60667374822106,119.185209,江苏省连云港市海州区民主中路131号,江苏省,连云港市,海州区,b21f8169b60570d1d23ce3fa,教育培训,图书馆
连云港市少儿图书馆,34.60627637384274,119.185288,海州区市化路37号(九龙大酒店北侧),江苏省,连云港市,海州区,c7eca12b6188fc37e115f9d8,教育培训,图书馆
江苏海洋大学-图书馆,34.60530449357023,119.226777,苍梧路59号江苏海洋大学,江苏省,连云港市,海州区,341c35de9787e7bfe6073836,教育培训,图书馆
淮海工学院(通灌校区)图书馆,34.58899298052282,119.198833,新南街道通灌南路108号,江苏省,连云港市,海州区,41572e0014f045c9b55f1eb2,教育培训,图书馆
玉带社区-图书阅览室,34.57958436143577,119.189915,江苏省连云港市海州区海昌南路327号附近,江苏省,连云港市,海州区,c8aeb36f36b2e934b9df8fef,教育培训,图书馆
赣榆区图书馆,34.838697139829016,119.178519,青口镇黄海东路300号,江苏省,连云港市,赣榆区,7d5f3a0a67ff79352cb90859,教育培训,图书馆
灌云县图书馆,34.28612436501092,119.24915,建设中路6,江苏省,连云港市,灌云县,0a3acd5d72014ca92bb97c7a,教育培训,图书馆
蓓蕾公益图书馆,34.31478935265983,119.460584,连云港市灌云县农苏路与杨陡线交叉路口往南约180米,江苏省,连云港市,灌云县,b4aec1eace5cb334ca09f0ad,教育培训,图书馆
南通市图书馆,31.97940079807698,120.904037,南通市崇川区崇文路2号,江苏省,南通市,崇川区,718bca00149bb64c5fd4fecf,教育培训,图书馆
通州区图书馆,32.06721550317693,121.08397,南通市通州区朝霞路86号,江苏省,南通市,通州区,36e41551c52ad711c356ac54,教育培训,图书馆
如皋市图书馆,32.3737513436374,120.576466,南通市如皋市解放路如皋市人民政府西侧约170米,江苏省,南通市,如皋市,101bc61b21c636a3c42ba1dd,教育培训,图书馆
启东市图书馆,31.812535045353112,121.670928,江苏省南通市启东市民乐中路512号,江苏省,南通市,启东市,08fc93df0a5a35919b68b408,教育培训,图书馆
海安市图书馆,32.53460262684891,120.471693,江苏省南通市海安市中坝南路17号,江苏省,南通市,海安市,d7112e6d3f9999639122e0a8,教育培训,图书馆
如东县新图书馆,32.33606088131942,121.205611,南通市如东县解放路体育馆西南侧约290米,江苏省,南通市,如东县,69ccaca5e83b07f711882478,教育培训,图书馆
海门图书馆,31.89587930802587,121.182339,解放中路668号,江苏省,南通市,海门区,68e93579d06ae56215a190ec,教育培训,图书馆
南通市崇川区图书馆,32.00588494536133,120.904206,江苏省南通市崇川区外环东路26号,江苏省,南通市,崇川区,95c1fcde127fa3d10bb93a1d,教育培训,图书馆
南通市少儿图书馆大楼,31.979336036447627,120.904142,崇文路2号(市政府大楼南侧),江苏省,南通市,崇川区,4fa057b579be09876f4760b0,教育培训,图书馆
海门区文化中心图书馆,31.865197560534,121.192179,高新区长江路江海文化公园对面南通三建项目部,江苏省,南通市,海门区,4b2a048ebc7e271edb13189c,教育培训,图书馆
24小时自助图书馆,32.039298185819234,120.840556,南通市崇川区深南路南通万达华府,江苏省,南通市,崇川区,3142728c5cf1992b8bf15d4b,教育培训,图书馆
南通市少年儿童图书馆,31.97941200105403,120.903748,南通市崇川区江宁路南通国际贸易中心西北侧约270米,江苏省,南通市,崇川区,33f207083ea92b7d32870a84,教育培训,图书馆
泛书房,32.55490269295127,120.505089,迎宾路136号,江苏省,南通市,海安市,c917345207ba8ad4373a719b,教育培训,图书馆
南通大学图书馆,31.976057346737665,120.91534,啬园路9号南通大学,江苏省,南通市,崇川区,b9e5d0b8efe410bc81a12ec5,教育培训,图书馆
24小时自助图书馆,32.389161423071606,120.571117,南通市如皋市福成路安定广场,江苏省,南通市,如皋市,8185a3357670fad931f71d2c,教育培训,图书馆
享时尚图书馆,32.006150822027216,120.867576,青年中路173号回复文化生活空间内二楼(蓝天宾馆南),江苏省,南通市,崇川区,817b67bd8ebec32ca8f0cd9a,教育培训,图书馆
如皋市少年儿童图书馆,32.39278023714997,120.572133,中山路307号,江苏省,南通市,如皋市,3c05b939f80078762ad7ab48,教育培训,图书馆
南通大学(钟秀校区)-图书馆,32.020239445694735,120.911895,南通市崇川区通京大道南通大学(钟秀校区),江苏省,南通市,崇川区,48eb005829d5bfad2fe67bc7,教育培训,图书馆
南通大学启秀校区图书馆,32.01114396258469,120.877419,启秀路19号南通大学(启秀校区北区)内,江苏省,南通市,崇川区,850815e1459804e543e192d5,教育培训,图书馆
图书馆驿站(滨河广场店),31.896265304187683,121.169093,滨河廉政文化广场,江苏省,南通市,海门区,e65ad454fd41a0929222e083,教育培训,图书馆
华侨图书馆,32.0349502788038,120.907403,南通市崇川区钟秀中路128号淘宝城1号楼5F,江苏省,南通市,崇川区,bc78d1712b2289de306212aa,教育培训,图书馆
神奇世界儿童图书借阅(世茂新纪元广场店),31.922127192669805,120.957699,新河路世茂广场6号楼304室,江苏省,南通市,崇川区,f6bc743af7f13ff22ce67bca,教育培训,图书馆
资料室,31.793766696823422,121.664911,民胜南路与牡丹江中路交汇处启东市公共卫生大楼1层,江苏省,南通市,启东市,4b4ad3841e155a32f4eafc7f,教育培训,图书馆
南通科技职业学院-图书馆,32.0068371623965,120.900342,江苏省南通市崇川区青年东路148南通科技职业技术学院内,江苏省,南通市,崇川区,8ab0dfc41d605268d8ecedc5,教育培训,图书馆
南通大学启东校区图书馆,31.905858852510644,121.862908,南通市启东市南通大学(启东校区),江苏省,南通市,启东市,916a4ec829cf539ffa0cadf4,教育培训,图书馆
江苏省南通市景林阅览室,31.9222080510096,120.950293,南通市崇川区星湖街利群时代(南通开发区店)东侧约120米,江苏省,南通市,崇川区,3487ef632e3eb39203ff2d08,教育培训,图书馆
如东县图书馆河口分馆(河口分馆),32.49367411948901,120.840148,江苏省南通市如东县图书馆河口分馆河口镇文化活动中心,江苏省,南通市,如东县,7fa89b209de50ab483a00c45,教育培训,图书馆
少儿图书馆树仁教育星瀚音乐艺术中心,32.53432355472579,120.471343,江苏省南通市海安市海安镇中坝南路17号少儿图书馆树仁教育星瀚音乐艺术中心,江苏省,南通市,海安市,31efc89a5d6de8439f09f79f,教育培训,其他
如东县图书馆(大豫分馆),32.271047966793795,121.304416,南通市如东县通海路中国农业银行(如东兵房支行)西北侧约250米,江苏省,南通市,如东县,268752dd9d1ebfe9843304c7,教育培训,图书馆
如皋市图书馆(文化馆)丁堰分馆,32.36763758214935,120.726117,南通市如皋市光明路华盛广场,江苏省,南通市,如皋市,016ff2d734c91a121fe9995f,教育培训,图书馆
图书阅览室(五洲国际广场店),32.0354226416097,120.869615,南通市崇川区钟秀中路98号五洲国际广场F1,江苏省,南通市,崇川区,ef9bd1fd3010d01888db73ea,教育培训,其他
人才公寓图书室,32.363113432768756,120.601009,南通市如皋市万寿南路人才公寓,江苏省,南通市,如皋市,1e25c957bd93bbe7ea12e465,教育培训,图书馆
学才图书楼,32.23099339671602,121.160867,江苏省南通市如东县曹埠镇下漫饮泉线饮泉小学,江苏省,南通市,如东县,e652710fb2ab7d3db6f42f74,教育培训,图书馆
高新区(城南街道)新华社区电子阅览室,32.32167457797542,120.660105,南通市如皋市新华路与新民路交叉路口往东南约80米,江苏省,南通市,如皋市,4a0ad829ac26fd965e0d0271,教育培训,图书馆
约读书房,31.982678317638655,120.893417,恒隆国际C座1606-1607号,江苏省,南通市,崇川区,14ab9b76fca8e1f48605bf8d,教育培训,其他
美芽书室,31.999998449725304,120.897463,江苏省南通市崇川区五一路,江苏省,南通市,崇川区,924ebe3e31667c426f3e1b62,教育培训,培训机构
如东县新图书馆,32.33606088131942,121.205611,南通市如东县解放路体育馆西南侧约290米,江苏省,南通市,如东县,69ccaca5e83b07f711882478,教育培训,图书馆
学才图书楼,32.23099339671602,121.160867,江苏省南通市如东县曹埠镇下漫饮泉线饮泉小学,江苏省,南通市,如东县,e652710fb2ab7d3db6f42f74,教育培训,图书馆
如东县图书馆河口分馆(河口分馆),32.49367411948901,120.840148,江苏省南通市如东县图书馆河口分馆河口镇文化活动中心,江苏省,南通市,如东县,7fa89b209de50ab483a00c45,教育培训,图书馆
如东县图书馆(大豫分馆),32.271047966793795,121.304416,南通市如东县通海路中国农业银行(如东兵房支行)西北侧约250米,江苏省,南通市,如东县,268752dd9d1ebfe9843304c7,教育培训,图书馆
南通市图书馆,31.97940079807698,120.904037,南通市崇川区崇文路2号,江苏省,南通市,崇川区,718bca00149bb64c5fd4fecf,教育培训,图书馆
通州区图书馆,32.06721550317693,121.08397,南通市通州区朝霞路86号,江苏省,南通市,通州区,36e41551c52ad711c356ac54,教育培训,图书馆
如皋市图书馆,32.3737513436374,120.576466,南通市如皋市解放路如皋市人民政府西侧约170米,江苏省,南通市,如皋市,101bc61b21c636a3c42ba1dd,教育培训,图书馆
启东市图书馆,31.812535045353112,121.670928,江苏省南通市启东市民乐中路512号,江苏省,南通市,启东市,08fc93df0a5a35919b68b408,教育培训,图书馆
海安市图书馆,32.53460262684891,120.471693,江苏省南通市海安市中坝南路17号,江苏省,南通市,海安市,d7112e6d3f9999639122e0a8,教育培训,图书馆
如东县新图书馆,32.33606088131942,121.205611,南通市如东县解放路体育馆西南侧约290米,江苏省,南通市,如东县,69ccaca5e83b07f711882478,教育培训,图书馆
海门图书馆,31.89587930802587,121.182339,解放中路668号,江苏省,南通市,海门区,68e93579d06ae56215a190ec,教育培训,图书馆
南通市崇川区图书馆,32.00588494536133,120.904206,江苏省南通市崇川区外环东路26号,江苏省,南通市,崇川区,95c1fcde127fa3d10bb93a1d,教育培训,图书馆
南通市少儿图书馆大楼,31.979336036447627,120.904142,崇文路2号(市政府大楼南侧),江苏省,南通市,崇川区,4fa057b579be09876f4760b0,教育培训,图书馆
海门区文化中心图书馆,31.865197560534,121.192179,高新区长江路江海文化公园对面南通三建项目部,江苏省,南通市,海门区,4b2a048ebc7e271edb13189c,教育培训,图书馆
24小时自助图书馆,32.039298185819234,120.840556,南通市崇川区深南路南通万达华府,江苏省,南通市,崇川区,3142728c5cf1992b8bf15d4b,教育培训,图书馆
南通市少年儿童图书馆,31.97941200105403,120.903748,南通市崇川区江宁路南通国际贸易中心西北侧约270米,江苏省,南通市,崇川区,33f207083ea92b7d32870a84,教育培训,图书馆
泛书房,32.55490269295127,120.505089,迎宾路136号,江苏省,南通市,海安市,c917345207ba8ad4373a719b,教育培训,图书馆
南通大学图书馆,31.976057346737665,120.91534,啬园路9号南通大学,江苏省,南通市,崇川区,b9e5d0b8efe410bc81a12ec5,教育培训,图书馆
24小时自助图书馆,32.389161423071606,120.571117,南通市如皋市福成路安定广场,江苏省,南通市,如皋市,8185a3357670fad931f71d2c,教育培训,图书馆
享时尚图书馆,32.006150822027216,120.867576,青年中路173号回复文化生活空间内二楼(蓝天宾馆南),江苏省,南通市,崇川区,817b67bd8ebec32ca8f0cd9a,教育培训,图书馆
如皋市少年儿童图书馆,32.39278023714997,120.572133,中山路307号,江苏省,南通市,如皋市,3c05b939f80078762ad7ab48,教育培训,图书馆
南通大学(钟秀校区)-图书馆,32.020239445694735,120.911895,南通市崇川区通京大道南通大学(钟秀校区),江苏省,南通市,崇川区,48eb005829d5bfad2fe67bc7,教育培训,图书馆
南通大学启秀校区图书馆,32.01114396258469,120.877419,启秀路19号南通大学(启秀校区北区)内,江苏省,南通市,崇川区,850815e1459804e543e192d5,教育培训,图书馆
图书馆驿站(滨河广场店),31.896265304187683,121.169093,滨河廉政文化广场,江苏省,南通市,海门区,e65ad454fd41a0929222e083,教育培训,图书馆
华侨图书馆,32.0349502788038,120.907403,南通市崇川区钟秀中路128号淘宝城1号楼5F,江苏省,南通市,崇川区,bc78d1712b2289de306212aa,教育培训,图书馆
神奇世界儿童图书借阅(世茂新纪元广场店),31.922127192669805,120.957699,新河路世茂广场6号楼304室,江苏省,南通市,崇川区,f6bc743af7f13ff22ce67bca,教育培训,图书馆
资料室,31.793766696823422,121.664911,民胜南路与牡丹江中路交汇处启东市公共卫生大楼1层,江苏省,南通市,启东市,4b4ad3841e155a32f4eafc7f,教育培训,图书馆
南通科技职业学院-图书馆,32.0068371623965,120.900342,江苏省南通市崇川区青年东路148南通科技职业技术学院内,江苏省,南通市,崇川区,8ab0dfc41d605268d8ecedc5,教育培训,图书馆
南通大学启东校区图书馆,31.905858852510644,121.862908,南通市启东市南通大学(启东校区),江苏省,南通市,启东市,916a4ec829cf539ffa0cadf4,教育培训,图书馆
江苏省南通市景林阅览室,31.9222080510096,120.950293,南通市崇川区星湖街利群时代(南通开发区店)东侧约120米,江苏省,南通市,崇川区,3487ef632e3eb39203ff2d08,教育培训,图书馆
如东县图书馆河口分馆(河口分馆),32.49367411948901,120.840148,江苏省南通市如东县图书馆河口分馆河口镇文化活动中心,江苏省,南通市,如东县,7fa89b209de50ab483a00c45,教育培训,图书馆
少儿图书馆树仁教育星瀚音乐艺术中心,32.53432355472579,120.471343,江苏省南通市海安市海安镇中坝南路17号少儿图书馆树仁教育星瀚音乐艺术中心,江苏省,南通市,海安市,31efc89a5d6de8439f09f79f,教育培训,其他
如东县图书馆(大豫分馆),32.271047966793795,121.304416,南通市如东县通海路中国农业银行(如东兵房支行)西北侧约250米,江苏省,南通市,如东县,268752dd9d1ebfe9843304c7,教育培训,图书馆
如皋市图书馆(文化馆)丁堰分馆,32.36763758214935,120.726117,南通市如皋市光明路华盛广场,江苏省,南通市,如皋市,016ff2d734c91a121fe9995f,教育培训,图书馆
图书阅览室(五洲国际广场店),32.0354226416097,120.869615,南通市崇川区钟秀中路98号五洲国际广场F1,江苏省,南通市,崇川区,ef9bd1fd3010d01888db73ea,教育培训,其他
人才公寓图书室,32.363113432768756,120.601009,南通市如皋市万寿南路人才公寓,江苏省,南通市,如皋市,1e25c957bd93bbe7ea12e465,教育培训,图书馆
学才图书楼,32.23099339671602,121.160867,江苏省南通市如东县曹埠镇下漫饮泉线饮泉小学,江苏省,南通市,如东县,e652710fb2ab7d3db6f42f74,教育培训,图书馆
高新区(城南街道)新华社区电子阅览室,32.32167457797542,120.660105,南通市如皋市新华路与新民路交叉路口往东南约80米,江苏省,南通市,如皋市,4a0ad829ac26fd965e0d0271,教育培训,图书馆
约读书房,31.982678317638655,120.893417,恒隆国际C座1606-1607号,江苏省,南通市,崇川区,14ab9b76fca8e1f48605bf8d,教育培训,其他
美芽书室,31.999998449725304,120.897463,江苏省南通市崇川区五一路,江苏省,南通市,崇川区,924ebe3e31667c426f3e1b62,教育培训,培训机构
启东市图书馆,31.812535045353112,121.670928,江苏省南通市启东市民乐中路512号,江苏省,南通市,启东市,08fc93df0a5a35919b68b408,教育培训,图书馆
资料室,31.793766696823422,121.664911,民胜南路与牡丹江中路交汇处启东市公共卫生大楼1层,江苏省,南通市,启东市,4b4ad3841e155a32f4eafc7f,教育培训,图书馆
南通大学启东校区图书馆,31.905858852510644,121.862908,南通市启东市南通大学(启东校区),江苏省,南通市,启东市,916a4ec829cf539ffa0cadf4,教育培训,图书馆
通州区图书馆,32.06721550317693,121.08397,南通市通州区朝霞路86号,江苏省,南通市,通州区,36e41551c52ad711c356ac54,教育培训,图书馆
南通市图书馆,31.97940079807698,120.904037,南通市崇川区崇文路2号,江苏省,南通市,崇川区,718bca00149bb64c5fd4fecf,教育培训,图书馆
通州区图书馆,32.06721550317693,121.08397,南通市通州区朝霞路86号,江苏省,南通市,通州区,36e41551c52ad711c356ac54,教育培训,图书馆
如皋市图书馆,32.3737513436374,120.576466,南通市如皋市解放路如皋市人民政府西侧约170米,江苏省,南通市,如皋市,101bc61b21c636a3c42ba1dd,教育培训,图书馆
启东市图书馆,31.812535045353112,121.670928,江苏省南通市启东市民乐中路512号,江苏省,南通市,启东市,08fc93df0a5a35919b68b408,教育培训,图书馆
海安市图书馆,32.53460262684891,120.471693,江苏省南通市海安市中坝南路17号,江苏省,南通市,海安市,d7112e6d3f9999639122e0a8,教育培训,图书馆
如东县新图书馆,32.33606088131942,121.205611,南通市如东县解放路体育馆西南侧约290米,江苏省,南通市,如东县,69ccaca5e83b07f711882478,教育培训,图书馆
海门图书馆,31.89587930802587,121.182339,解放中路668号,江苏省,南通市,海门区,68e93579d06ae56215a190ec,教育培训,图书馆
南通市崇川区图书馆,32.00588494536133,120.904206,江苏省南通市崇川区外环东路26号,江苏省,南通市,崇川区,95c1fcde127fa3d10bb93a1d,教育培训,图书馆
南通市少儿图书馆大楼,31.979336036447627,120.904142,崇文路2号(市政府大楼南侧),江苏省,南通市,崇川区,4fa057b579be09876f4760b0,教育培训,图书馆
海门区文化中心图书馆,31.865197560534,121.192179,高新区长江路江海文化公园对面南通三建项目部,江苏省,南通市,海门区,4b2a048ebc7e271edb13189c,教育培训,图书馆
24小时自助图书馆,32.039298185819234,120.840556,南通市崇川区深南路南通万达华府,江苏省,南通市,崇川区,3142728c5cf1992b8bf15d4b,教育培训,图书馆
南通市少年儿童图书馆,31.97941200105403,120.903748,南通市崇川区江宁路南通国际贸易中心西北侧约270米,江苏省,南通市,崇川区,33f207083ea92b7d32870a84,教育培训,图书馆
泛书房,32.55490269295127,120.505089,迎宾路136号,江苏省,南通市,海安市,c917345207ba8ad4373a719b,教育培训,图书馆
南通大学图书馆,31.976057346737665,120.91534,啬园路9号南通大学,江苏省,南通市,崇川区,b9e5d0b8efe410bc81a12ec5,教育培训,图书馆
24小时自助图书馆,32.389161423071606,120.571117,南通市如皋市福成路安定广场,江苏省,南通市,如皋市,8185a3357670fad931f71d2c,教育培训,图书馆
享时尚图书馆,32.006150822027216,120.867576,青年中路173号回复文化生活空间内二楼(蓝天宾馆南),江苏省,南通市,崇川区,817b67bd8ebec32ca8f0cd9a,教育培训,图书馆
如皋市少年儿童图书馆,32.39278023714997,120.572133,中山路307号,江苏省,南通市,如皋市,3c05b939f80078762ad7ab48,教育培训,图书馆
南通大学(钟秀校区)-图书馆,32.020239445694735,120.911895,南通市崇川区通京大道南通大学(钟秀校区),江苏省,南通市,崇川区,48eb005829d5bfad2fe67bc7,教育培训,图书馆
南通大学启秀校区图书馆,32.01114396258469,120.877419,启秀路19号南通大学(启秀校区北区)内,江苏省,南通市,崇川区,850815e1459804e543e192d5,教育培训,图书馆
图书馆驿站(滨河广场店),31.896265304187683,121.169093,滨河廉政文化广场,江苏省,南通市,海门区,e65ad454fd41a0929222e083,教育培训,图书馆
华侨图书馆,32.0349502788038,120.907403,南通市崇川区钟秀中路128号淘宝城1号楼5F,江苏省,南通市,崇川区,bc78d1712b2289de306212aa,教育培训,图书馆
神奇世界儿童图书借阅(世茂新纪元广场店),31.922127192669805,120.957699,新河路世茂广场6号楼304室,江苏省,南通市,崇川区,f6bc743af7f13ff22ce67bca,教育培训,图书馆
资料室,31.793766696823422,121.664911,民胜南路与牡丹江中路交汇处启东市公共卫生大楼1层,江苏省,南通市,启东市,4b4ad3841e155a32f4eafc7f,教育培训,图书馆
南通科技职业学院-图书馆,32.0068371623965,120.900342,江苏省南通市崇川区青年东路148南通科技职业技术学院内,江苏省,南通市,崇川区,8ab0dfc41d605268d8ecedc5,教育培训,图书馆
南通大学启东校区图书馆,31.905858852510644,121.862908,南通市启东市南通大学(启东校区),江苏省,南通市,启东市,916a4ec829cf539ffa0cadf4,教育培训,图书馆
江苏省南通市景林阅览室,31.9222080510096,120.950293,南通市崇川区星湖街利群时代(南通开发区店)东侧约120米,江苏省,南通市,崇川区,3487ef632e3eb39203ff2d08,教育培训,图书馆
如东县图书馆河口分馆(河口分馆),32.49367411948901,120.840148,江苏省南通市如东县图书馆河口分馆河口镇文化活动中心,江苏省,南通市,如东县,7fa89b209de50ab483a00c45,教育培训,图书馆
少儿图书馆树仁教育星瀚音乐艺术中心,32.53432355472579,120.471343,江苏省南通市海安市海安镇中坝南路17号少儿图书馆树仁教育星瀚音乐艺术中心,江苏省,南通市,海安市,31efc89a5d6de8439f09f79f,教育培训,其他
如东县图书馆(大豫分馆),32.271047966793795,121.304416,南通市如东县通海路中国农业银行(如东兵房支行)西北侧约250米,江苏省,南通市,如东县,268752dd9d1ebfe9843304c7,教育培训,图书馆
如皋市图书馆(文化馆)丁堰分馆,32.36763758214935,120.726117,南通市如皋市光明路华盛广场,江苏省,南通市,如皋市,016ff2d734c91a121fe9995f,教育培训,图书馆
图书阅览室(五洲国际广场店),32.0354226416097,120.869615,南通市崇川区钟秀中路98号五洲国际广场F1,江苏省,南通市,崇川区,ef9bd1fd3010d01888db73ea,教育培训,其他
人才公寓图书室,32.363113432768756,120.601009,南通市如皋市万寿南路人才公寓,江苏省,南通市,如皋市,1e25c957bd93bbe7ea12e465,教育培训,图书馆
学才图书楼,32.23099339671602,121.160867,江苏省南通市如东县曹埠镇下漫饮泉线饮泉小学,江苏省,南通市,如东县,e652710fb2ab7d3db6f42f74,教育培训,图书馆
高新区(城南街道)新华社区电子阅览室,32.32167457797542,120.660105,南通市如皋市新华路与新民路交叉路口往东南约80米,江苏省,南通市,如皋市,4a0ad829ac26fd965e0d0271,教育培训,图书馆
约读书房,31.982678317638655,120.893417,恒隆国际C座1606-1607号,江苏省,南通市,崇川区,14ab9b76fca8e1f48605bf8d,教育培训,其他
美芽书室,31.999998449725304,120.897463,江苏省南通市崇川区五一路,江苏省,南通市,崇川区,924ebe3e31667c426f3e1b62,教育培训,培训机构
如皋市图书馆,32.3737513436374,120.576466,南通市如皋市解放路如皋市人民政府西侧约170米,江苏省,南通市,如皋市,101bc61b21c636a3c42ba1dd,教育培训,图书馆
24小时自助图书馆,32.389161423071606,120.571117,南通市如皋市福成路安定广场,江苏省,南通市,如皋市,8185a3357670fad931f71d2c,教育培训,图书馆
如皋市少年儿童图书馆,32.39278023714997,120.572133,中山路307号,江苏省,南通市,如皋市,3c05b939f80078762ad7ab48,教育培训,图书馆
人才公寓图书室,32.363113432768756,120.601009,南通市如皋市万寿南路人才公寓,江苏省,南通市,如皋市,1e25c957bd93bbe7ea12e465,教育培训,图书馆
如皋市图书馆(文化馆)丁堰分馆,32.36763758214935,120.726117,南通市如皋市光明路华盛广场,江苏省,南通市,如皋市,016ff2d734c91a121fe9995f,教育培训,图书馆
高新区(城南街道)新华社区电子阅览室,32.32167457797542,120.660105,南通市如皋市新华路与新民路交叉路口往东南约80米,江苏省,南通市,如皋市,4a0ad829ac26fd965e0d0271,教育培训,图书馆
金湖图书馆,33.02103390941111,119.018645,金湖县健康西路8号,江苏省,淮安市,金湖县,14076deefe92c4f402294f0a,教育培训,图书馆
城市书房,33.02110020692078,119.018397,黎城镇健康西路3号,江苏省,淮安市,金湖县,e9a4f1f3f9eb332576e5b6ea,教育培训,图书馆
金湖县第二中学图书馆,33.0070889425205,119.047665,淮安市金湖县神华东路金湖县第二中学,江苏省,淮安市,金湖县,a5ed82ae1efd9433714b8757,教育培训,图书馆
淮安市淮阴区图书馆,33.62059122956161,119.031646,淮安市淮阴区新街3号,江苏省,淮安市,淮阴区,cc0849a04115c95094031971,教育培训,图书馆
淮阴师范学院图书馆,33.64366538101627,119.014496,江苏省淮安市淮阴区长江西路111号,江苏省,淮安市,淮阴区,a3f21eee6464c5392eb17eb9,教育培训,图书馆
淮安市第一人民医院图书馆,33.62682657838697,119.023136,王营镇北京西路6号,江苏省,淮安市,淮阴区,1146f2f4b8e7da23e6e9655f,教育培训,图书馆
盱眙县图书馆,32.98299402010831,118.540211,盱眙县东方大道3号,江苏省,淮安市,盱眙县,596c20f57bfc88befbdc851b,教育培训,图书馆
洪泽图书馆,33.29185180542049,118.881998,江苏省淮安市洪泽区幸福大道5文化中心3楼,江苏省,淮安市,洪泽区,9e433e04504228d3af045769,教育培训,图书馆
涟水县图书馆,33.744887732886966,119.210008,淮安市涟水县机场路淮阴中学滨河高级中学西南侧约50米,江苏省,淮安市,涟水县,75f0244fed90c67aeee4a514,教育培训,图书馆
图书馆,33.777942707430576,119.257594,淮安市涟水县淮河路涟水县幸福里实验小学,江苏省,淮安市,涟水县,d409babfa5ab63756c47608e,教育培训,图书馆
海澜图书馆,33.798598817952325,119.26459,江苏省淮安市涟水县漪河路江苏省涟水中学(南门)附近,江苏省,淮安市,涟水县,7f98b2323652e030fa42b29b,教育培训,图书馆
淮安市图书馆,33.55207357698687,119.113196,江苏省淮安市生态文旅区翔宇南道17号,江苏省,淮安市,淮安区,ad7c3f8b32c2bd5df90cad4e,教育培训,图书馆
淮安市儿童流动图书馆,33.50042779755069,119.147429,西长街31号,江苏省,淮安市,淮安区,161a0ed23b374e2d5dd4febe,教育培训,图书馆
儿童图书室,33.50684358410102,119.147893,淮安市淮安区西长街粮食大楼(镇淮楼西路)东南侧约40米,江苏省,淮安市,淮安区,0e4dccb309eaeba1c5f0254e,教育培训,图书馆
悠贝亲子图书馆,33.507410246462,119.158112,淮安市淮安区东长街九升国际广场,江苏省,淮安市,淮安区,ed905aeb34fca386c5f02542,教育培训,其他
滨海县图书馆,34.00202775311778,119.849685,阜东中路187号,江苏省,盐城市,滨海县,373cf757326b926f4354d71e,教育培训,图书馆
海阅书馆,33.993418189228734,119.824075,盐城市滨海县港城路城市港湾,江苏省,盐城市,滨海县,c1262e7fa1a52a8b5fbe86e3,教育培训,其他
五汛中学(图书楼),33.95604336585915,120.103177,江苏省盐城市滨海县五汛东路五汛中学校园内五汛中学综合楼东侧楼,江苏省,盐城市,滨海县,63886a16967f38687069d3b9,教育培训,中学
射阳胰图书馆新坍分馆,33.65589291757337,120.103051,江苏省盐城市射阳县新坍镇惠民路新坍文化大楼,江苏省,盐城市,射阳县,7193848c4858ba8af32d83dd,教育培训,图书馆
阜宁图书馆,33.76797546007804,119.798468,徐州路279号,江苏省,盐城市,阜宁县,dc0f0adcc7cde45ff92213ac,教育培训,图书馆
阜城街道向阳社区图书阅览室,33.790312458428915,119.799905,汶河路104,江苏省,盐城市,阜宁县,f2e5a4494458c5cc2b201a03,教育培训,图书馆
宏玮大酒店-图书阅览室,33.77595943663647,119.804718,射河南路351号,江苏省,盐城市,阜宁县,d30fef0366fb74408bdb7337,教育培训,图书馆
建湖县图书馆,33.44309134381771,119.796513,湖中南路文化艺术中心B座,江苏省,盐城市,建湖县,7dd6bc7370807929bfa82270,教育培训,图书馆
千水教育图书馆(东校区),33.53461702517098,120.033785,盐城市建湖县港口大道幸福家园西南侧,江苏省,盐城市,建湖县,e546c9690ee13f0ff90cad27,教育培训,图书馆
盐城市图书馆,33.34686573956708,120.169042,盐城市盐都区府西路6号,江苏省,盐城市,盐都区,1058ad6d3d829d1eeb12e422,教育培训,图书馆
盐都区图书馆,33.33746906804054,120.166215,新都街道(城南新区)盐渎明城西门1号楼,江苏省,盐城市,盐都区,944c21325c8e3fc96e20b923,教育培训,图书馆
盐城市图书馆24小时自助图书馆,33.34649107858557,120.169104,府南路与府西路交叉口南150米,江苏省,盐城市,盐都区,19cd59983adc72f9b6f42ffc,教育培训,图书馆
盐渎书城,33.324048850367625,120.154666,江苏省盐城市盐都区神州路39号,江苏省,盐城市,盐都区,418bae43b148e9bba1a934d1,教育培训,图书馆
美术书房馆,33.332573820440494,120.169033,盐城市盐都区福裕路盐城市日月路小学北侧约40米,江苏省,盐城市,盐都区,ccad041940f34bceab175a08,教育培训,图书馆
东台市图书馆,32.85963085483124,120.315324,金海中路41号,江苏省,盐城市,东台市,4edf9fbf1d702494cc06a462,教育培训,图书馆
东台市新图书馆,32.87174010746249,120.32903,北海中路2号东台市人民法院北侧,江苏省,盐城市,东台市,e903e68a0fcd9653d81318aa,教育培训,图书馆
东台市富东图书馆,32.71827169377898,120.564523,江苏省盐城市东台市东升路87,江苏省,盐城市,东台市,c6f43d675fbf8f64a1a93498,教育培训,图书馆
响水少年儿童图书馆,34.19999203980019,119.584981,双园路419号2楼,江苏省,盐城市,响水县,61f634f636602e786b49f3d0,教育培训,图书馆
盐城市亭湖区图书馆,33.40167605800194,120.219474,江苏省盐城市亭湖区东亭路10号,江苏省,盐城市,亭湖区,c5ade223c93488d7b9df8f3f,教育培训,图书馆
盐城市少儿图书馆,33.393199019854045,120.153892,盐城市亭湖区毓龙路旭日家园西北侧约160米,江苏省,盐城市,亭湖区,f82aba3e35ce91544f3a5953,教育培训,图书馆
盐城工学院-图书馆,33.38247734717693,120.206289,希望大道中路1号,江苏省,盐城市,亭湖区,b2aea82b6fc6102c8a2fb55d,教育培训,图书馆
盐城师范学院(新长校区)-图书馆,33.377568479497654,120.210965,江苏省盐城市亭湖区希望大道南路2号,江苏省,盐城市,亭湖区,c86b4da6c04840ded22dd6ce,教育培训,图书馆
盐城工学院(建军路校区)-图书馆,33.401439733060876,120.183479,江苏省盐城市亭湖区建军东路211号,江苏省,盐城市,亭湖区,69fcd6df5b13b652ca2915c9,教育培训,图书馆
盐城技师学院文港北路校区图书馆,33.38683158668615,120.169957,盐城市亭湖区文港中路江苏省盐城技师学院,江苏省,盐城市,亭湖区,5549a050a063dfe409a8d4a6,教育培训,图书馆
盐城生物工程高等职业技术学校-图书馆,33.42295328693356,120.246248,亭湖大道学府路1号,江苏省,盐城市,亭湖区,58cc116a9023e9554054d7de,教育培训,图书馆
北城路社区图书阅览室,33.38553471912932,120.133767,北城根北巷26,江苏省,盐城市,亭湖区,ec680e8067e2888f704b87c1,教育培训,图书馆
盐城市图书馆红果假期文化少儿培训分部,33.35523332357709,120.154596,解放南路188号缤纷亚洲2楼,江苏省,盐城市,亭湖区,936854171014ba68d8d8918a,教育培训,培训机构
华图教育(书之苑书店),33.38560742740457,120.159646,江苏省盐城市亭湖区开放大道50-5号,江苏省,盐城市,亭湖区,a6ad3414f702b917f8dc8579,教育培训,培训机构
大丰城东新区图书馆,33.20373879314194,120.502902,江苏省盐城市大丰区城东新区环湖南路6号,江苏省,盐城市,大丰区,23309e3874dd7b1ec2f1cf99,教育培训,图书馆
万孚教育图书馆(城西分馆),33.20096647508424,120.453291,盐城市大丰区健康西路新词大酒店,江苏省,盐城市,大丰区,b9e4c77306450a3c22f0174e,教育培训,图书馆
思维导图记忆馆,33.187221522481906,120.45516,盐城市大丰区常新南路上海花园,江苏省,盐城市,大丰区,4497afe1dd836cc2d618b700,教育培训,培训机构
扬州市图书馆(广陵新城分馆),32.391629606468875,119.512489,江苏省扬州市广陵区新城信息大道1号江苏信息服务产业基地(扬州)1期内,江苏省,扬州市,广陵区,11df193d79b2f6e9e856faf2,教育培训,图书馆
扬州市图书馆24小时自助图书馆,32.39485707283986,119.440964,扬州市广陵区汶河南路金鹰国际购物中心(汶河南路店)东南侧约110米,江苏省,扬州市,广陵区,9572b2d98750953f4d2fdfc1,教育培训,图书馆
曲江城市书房,32.404474005836995,119.477103,中海玺园北门旁,江苏省,扬州市,广陵区,4ec5ccee748693b1a3acc429,教育培训,图书馆
万科城市之光24小时城市书房,32.36790604645149,119.463617,江苏省扬州市广陵区联谊路99号,江苏省,扬州市,广陵区,ea69ee52aaf850f8901fc91b,教育培训,图书馆
生态科技新城图书馆,32.42401858844024,119.531118,扬州市广陵区凤凰岛路与老万福路交叉路口往西南约220米,江苏省,扬州市,广陵区,68da805d764564049c09f73b,教育培训,图书馆
城市书房,32.39486933602714,119.500756,扬州市广陵区秦邮路与文昌东路交叉路口往东南约220米,江苏省,扬州市,广陵区,ab39d038dc6c5add841541e8,教育培训,图书馆
城市书房,32.39912623576366,119.450462,扬州市广陵区马坊巷茂业百货(文昌店)西北侧约230米,江苏省,扬州市,广陵区,0b1fdca52e120efd774ff1fd,教育培训,图书馆
七里河城市书房,32.37388506846627,119.455032,渡江南路江南左岸底商,江苏省,扬州市,广陵区,4cdf9b07a2df60887369d31b,教育培训,图书馆
扬州市图书馆个园社区分馆,32.40206486582564,119.453628,扬州市广陵区盐阜西路准提寺民间收藏品市场东南侧约130米,江苏省,扬州市,广陵区,6f8982ad79a1075858f6be8b,教育培训,图书馆
玉蜻蜓雅致酒店-图书馆,32.40090970635923,119.440137,汶河北路42号玉蜻蜓雅致酒店3层,江苏省,扬州市,广陵区,1f9e4b64980d756102294f0f,教育培训,图书馆
萃园城市酒店-书吧,32.39583638543074,119.444212,江苏省扬州市广陵区文昌中路459号萃园城市酒店,江苏省,扬州市,广陵区,d4f7d611e9484ad452e5c545,教育培训,图书馆
安妮花阅读馆,32.390373276573875,119.440398,汶河南路35号空中花园2层西侧,江苏省,扬州市,广陵区,c5591a19bc5075aaf50e77ca,教育培训,培训机构
扬州市汶河小学-正谊书院,32.39782951553475,119.445384,扬州市广陵区北柳巷扬州市汶河小学(北柳巷校区),江苏省,扬州市,广陵区,435c4c43bb6d6b05f4b91685,教育培训,其他
扬州蓝天大厦-电子阅览室,32.40090970635923,119.440137,汶河北路42号玉蜻蜓雅致酒店1层,江苏省,扬州市,广陵区,fa8f98118df08c37970319c2,教育培训,其他
宝应县图书馆,33.23865575392645,119.320106,江苏省扬州市宝应县安宜北路2号(老体育场内),江苏省,扬州市,宝应县,7086f5036af384a517b54b7a,教育培训,图书馆
城市书房,33.23141171467481,119.340875,白田南路47号,江苏省,扬州市,宝应县,c5bfaafb74af77f0606858f6,教育培训,图书馆
城市书房(学超公园馆),33.239040177328086,119.36836,扬州市宝应县东阳中路宝应县人民政府东南侧约140米,江苏省,扬州市,宝应县,3ba6819c8636ab60744ff1f7,教育培训,图书馆
江都图书馆,32.426638551982606,119.564709,江苏省扬州市江都区工农路37号,江苏省,扬州市,江都区,44207646a6cf8e6bdfee8bba,教育培训,图书馆
白沙莱茵城邦城市书房,32.363121288945365,119.710883,扬州市江都区新城路扬州市江都区大桥中心小学(新城路)东北侧约50米,江苏省,扬州市,江都区,712751fd31779620902ca317,教育培训,图书馆
江都中等专业学院-职教集团图书馆,32.38760447904352,119.604755,江苏省扬州市江都区336省道江苏电大江都学院,江苏省,扬州市,江都区,e65e5c0497e83f04c909f0a3,教育培训,图书馆
江都区丁沟镇图书馆,32.56010864576755,119.682492,扬州市江都区三阳大道与三阳大街交叉路口往北约200米,江苏省,扬州市,江都区,91b80606d538068ad8eced24,教育培训,图书馆
高邮市图书馆新馆,32.782552360608385,119.500876,江苏省扬州市高邮市绿扬路,江苏省,扬州市,高邮市,89f2912fb50c4c07a8f0cd40,教育培训,图书馆
扬州市图书馆,32.394464959062866,119.378538,扬州市邗江区新城西区文昌西路466号,江苏省,扬州市,邗江区,2470d958c31ab170306212bb,教育培训,图书馆
鉴真图书馆,32.425446622962916,119.418903,江苏省扬州市邗江区鉴真路1号大明寺院内,江苏省,扬州市,邗江区,bff8fa7d6f739bddc8213d00,教育培训,图书馆
扬州市图书馆(分馆),32.39318096132714,119.416428,江苏省扬州市邗江区维扬路351号,江苏省,扬州市,邗江区,0cf3199dac3f32d36b49f34a,教育培训,图书馆
扬州市邗江区图书馆,32.387749542893665,119.404893,邗江区邗江中路553号(山姆月城对面),江苏省,扬州市,邗江区,72e57fd7f17298aff8dc857d,教育培训,图书馆
扬州市图书馆(智谷分馆),32.360330421638636,119.424965,江苏省扬州市邗江区扬子江中路180号,江苏省,扬州市,邗江区,3c6fab2d4e99f6d732870ae0,教育培训,图书馆
扬州大学(荷花池校区)-逸夫图书馆,32.38657939205715,119.431666,江苏省扬州市邗江区大学南路88号扬州大学荷花池校区内,江苏省,扬州市,邗江区,764672e5acb4d2ad94ec847d,教育培训,图书馆
邗江区城市书房,32.38759078664075,119.404781,邗江中路巴黎春天底商(邗江文化馆楼下),江苏省,扬州市,邗江区,5a23a3737df5c5eb2b06ce26,教育培训,图书馆
24小时城市书房,32.37748750001271,119.417971,江苏省扬州市邗江区维扬路112号,江苏省,扬州市,邗江区,00f120b2f31884e5c61b75cb,教育培训,图书馆
城市书房(四望亭路分馆),32.399419781036144,119.418055,扬州市邗江区任庄巷弘扬花园南侧约70米,江苏省,扬州市,邗江区,4e6384a9cfc42a290869d959,教育培训,图书馆
扬州大学(瘦西湖校区)-敬文图书馆,32.402002564582475,119.430294,邗江区四望亭路180号(扬大师院)扬州大学瘦西湖校区敬文图书馆,江苏省,扬州市,邗江区,e2fdb672890bf261f23cba6f,教育培训,图书馆
扬州职业大学-图书馆,32.39675313381914,119.385622,江苏省扬州市邗江区文昌西路458号扬州市职业大学内,江苏省,扬州市,邗江区,9218def1378a910ac5effb8b,教育培训,图书馆
江海职业技术学院-图书馆,32.32781817142136,119.440153,扬子江南路5号,江苏省,扬州市,邗江区,e34384d8dcf951c143ab9af8,教育培训,图书馆
城市书房,32.4037976180951,119.437125,扬州市邗江区大虹桥路扬州大学-附属中学东北侧约150米,江苏省,扬州市,邗江区,b831c8129527612a3c9a5ef3,教育培训,图书馆
半岛公园城市书房,32.37502874474904,119.392515,扬州市邗江区兴城西路金水桥花园西南侧约210米,江苏省,扬州市,邗江区,e26262755bdd9d59deee8b61,教育培训,图书馆
扬州市少儿图书馆,32.393086278761565,119.416354,江苏省扬州市邗江区维扬路351号,江苏省,扬州市,邗江区,3f19af86904d58a009a8d47a,教育培训,图书馆
扬州市无障碍图书馆,32.39428633302178,119.378522,扬州市邗江区新城西区文昌西路466号,江苏省,扬州市,邗江区,a24b0bf8766715e2c4f0255e,教育培训,图书馆
图书馆,32.38431609748963,119.401707,邗江中路368号,江苏省,扬州市,邗江区,65ffed799629d94b2b201abd,教育培训,图书馆
宋夹城24小时自助图书馆,32.4167976776062,119.429758,扬州市邗江区长春路,江苏省,扬州市,邗江区,b784f2264e64b6158c55ec11,教育培训,图书馆
扬州市少年儿童图书馆(新城西区服务点),32.382333966372734,119.372981,江苏省扬州市邗江区绿杨路596号4楼,江苏省,扬州市,邗江区,85f6b7c1d664303a9ce3214a,教育培训,图书馆
扬州市图书馆(文汇街道梅香苑分馆),32.378570145810606,119.413929,兴城西路45号梅香苑内,江苏省,扬州市,邗江区,563ce1331b341998d23ce38a,教育培训,图书馆
扬州市图书馆春江社区分馆,32.379091191257004,119.425811,扬州市邗江区春江花园巷春江花园,江苏省,扬州市,邗江区,ae37b6bad29017a288fc06f8,教育培训,图书馆
扬州大学扬子津西校区-图书馆,32.34447916955664,119.409572,江苏省扬州市邗江区华扬西路196号,江苏省,扬州市,邗江区,3a4219473a1571b2f7e73b79,教育培训,图书馆
扬州新东方中学-图书馆,32.427046367544804,119.406946,扬州市邗江区司徒庙路扬州新东方中学,江苏省,扬州市,邗江区,5850ec19d03fb75d6f3e1b3b,教育培训,图书馆
江苏旅游职业学院-图书馆,32.304040239949686,119.418387,扬州市邗江区毓秀路江苏旅游职业学院(新校区),江苏省,扬州市,邗江区,d5ff0733172644d158f6be30,教育培训,图书馆
扬州市图书馆-24小时自助图书馆,32.3943568639331,119.378343,文昌西路466号,江苏省,扬州市,邗江区,5f4580ee9488d895c72ba137,教育培训,图书馆
南京邮电大学通达学院-图书馆,32.33349483231873,119.410072,江苏省扬州市邗江区润扬南路33号,江苏省,扬州市,邗江区,8c366e31f472320a5a3ac86a,教育培训,图书馆
江海学院-阅览室,32.32797403271985,119.440549,扬州市邗江区村西中心路江海职业技术学院,江苏省,扬州市,邗江区,4787d847f3fd56f86018090c,教育培训,其他
扬州大学广陵学院新校区图书馆,32.30902627255985,119.411295,邗江南路199号,江苏省,扬州市,邗江区,92a4a7653fbbb1de220220f5,教育培训,图书馆
气味图书馆(京华城),32.386469540517,119.380917,京华城路168号京华城2F层,江苏省,扬州市,邗江区,612d7f0589b896676da3cc0f,教育培训,图书馆
仪征市图书馆,32.27154996171928,119.178696,扬州市仪征市解放西路205号,江苏省,扬州市,仪征市,d24e48eb450c90b4afee7a4c,教育培训,图书馆
仪征市化纤图书馆,32.287327029848164,119.164741,江苏省扬州市仪征市真州镇仪征市化纤环东路23号图书馆,江苏省,扬州市,仪征市,6711aebf2fc63037b6147fec,教育培训,图书馆
扬州市少儿图书馆(朴席分馆),32.29608515847559,119.32476,扬州市仪征市友爱路扬州市经济开发区朴席镇人民政府西南侧约260米,江苏省,扬州市,仪征市,82a9ec829b321f9fc6effb5c,教育培训,图书馆
泗阳县图书馆,33.71939898121155,118.71096,市民东道36号,江苏省,宿迁市,泗阳县,0463b5c1fb5c3d08a104646a,教育培训,图书馆
泗阳县图书馆24小时自助图书馆,33.72491550313463,118.669809,江苏省宿迁市泗阳县西安路与长春西路交叉口西康健身中心内,江苏省,宿迁市,泗阳县,d5d5d2dbcbe841c35d0d02b8,教育培训,图书馆
大成图书馆,33.78287320051005,118.701608,宿迁市泗阳县江庄路与泗沭路交叉路口往西约90米,江苏省,宿迁市,泗阳县,baa995a4e56b3f87f4b91678,教育培训,图书馆
王集镇前圩村图书馆,33.899456500735155,118.82646,前圩村六组,江苏省,宿迁市,泗阳县,f380ae5cec0bfb91b2077da3,教育培训,图书馆
宿迁市图书馆,33.96025242556243,118.267751,江苏省宿迁市宿城区太湖路69号,江苏省,宿迁市,宿城区,7388dffd0c33afebd2ff23b1,教育培训,图书馆
泗阳县图书馆,33.71939898121155,118.71096,市民东道36号,江苏省,宿迁市,泗阳县,0463b5c1fb5c3d08a104646a,教育培训,图书馆
宿豫区图书馆,33.93732423536188,118.342484,江苏省宿迁市宿豫区书山路北(近法制文化广场),江苏省,宿迁市,宿豫区,5b0008868f7af447be4842c8,教育培训,图书馆
沭阳图书馆,34.08732919881918,118.775553,江苏省宿迁市沭阳县学院路5号,江苏省,宿迁市,沭阳县,ee6744074d022fa69868b49c,教育培训,图书馆
泗阳县图书馆24小时自助图书馆,33.72491550313463,118.669809,江苏省宿迁市泗阳县西安路与长春西路交叉口西康健身中心内,江苏省,宿迁市,泗阳县,d5d5d2dbcbe841c35d0d02b8,教育培训,图书馆
宿迁市宿城区图书馆,33.954696342595724,118.245191,宿迁市宿城区微山湖路宿迁中学东南侧约70米,江苏省,宿迁市,宿城区,f43f0c81f561a6ed7f29bdc1,教育培训,图书馆
宿迁学院-图书馆(古楚大道),33.93073437559627,118.30468,黄河南路399号宿迁学院,江苏省,宿迁市,宿城区,4eb3b5330ec7220b4302450d,教育培训,图书馆
宿迁市图书馆24小时自助图书馆,33.9592856556926,118.276917,宿迁市宿城区太湖路宿迁建设大厦东南侧约180米,江苏省,宿迁市,宿城区,d183ca0857b0d8973f9a5e00,教育培训,图书馆
南部新城图书馆,34.07611348463738,118.776937,宿迁市沭阳县清华路苏奥电子商务产业园西侧约110米,江苏省,宿迁市,沭阳县,0ef443d2373d164f32f71d60,教育培训,图书馆
宿迁市宿城区文体中心自助图书馆,33.954425727265445,118.24451,宿迁市宿城区微山湖路宿迁中学南侧约100米,江苏省,宿迁市,宿城区,ac75402e708c7a158936ee2b,教育培训,图书馆
宿豫区图书馆(当当分馆),33.954773678730014,118.354257,江苏省宿迁市宿豫区洪泽湖东路19号当当大厦,江苏省,宿迁市,宿豫区,b3ae076eb368cabfb426558e,教育培训,图书馆
幸福书吧,33.957501650489654,118.305632,宿迁市宿城区中山路府东大厦西侧约70米,江苏省,宿迁市,宿城区,7ea54c3501b94e32ad31e57f,教育培训,图书馆
大成图书馆,33.78287320051005,118.701608,宿迁市泗阳县江庄路与泗沭路交叉路口往西约90米,江苏省,宿迁市,泗阳县,baa995a4e56b3f87f4b91678,教育培训,图书馆
江苏省宿迁中学(太湖路)-图书馆,33.95640037548159,118.245067,宿迁市宿城区振兴大道宿迁中学,江苏省,宿迁市,宿城区,e0d37b9161bf6c269de32174,教育培训,图书馆
好孩子文具图书馆,33.946484378419264,118.344289,顺河镇黄浦江路010号(豫苑别墅东门),江苏省,宿迁市,宿豫区,b136b8d2aa53e6a3e607380f,教育培训,图书馆
淮海技师学院-图书馆,33.907306679370286,118.257609,工业园苏州路1号,江苏省,宿迁市,宿城区,9d8586f7115496792e473379,教育培训,图书馆
宿迁少儿图书馆培训中心,33.952860624253596,118.279933,人民大道70号,江苏省,宿迁市,宿城区,ba46c587467d2eadad080fa1,教育培训,培训机构
王集镇前圩村图书馆,33.899456500735155,118.82646,前圩村六组,江苏省,宿迁市,泗阳县,f380ae5cec0bfb91b2077da3,教育培训,图书馆
宿迁职业技术学院-一图书科技楼,34.021957309201554,118.296549,江苏省宿迁市宿豫区宿迁职业技术学院(发展大道东),江苏省,宿迁市,宿豫区,795d65a9e5d9096a4e5547c8,教育培训,其他
悠贝亲子图书馆,34.10869489450604,118.805273,宿迁市沭阳县康平路沭阳县第一实验小学(康平路)东北侧约40米,江苏省,宿迁市,沭阳县,fa958fced935b9daab059d08,教育培训,图书馆
宿迁市图书馆,33.96025242556243,118.267751,江苏省宿迁市宿城区太湖路69号,江苏省,宿迁市,宿城区,7388dffd0c33afebd2ff23b1,教育培训,图书馆
宿迁市宿城区图书馆,33.954696342595724,118.245191,宿迁市宿城区微山湖路宿迁中学东南侧约70米,江苏省,宿迁市,宿城区,f43f0c81f561a6ed7f29bdc1,教育培训,图书馆
宿迁学院-图书馆(古楚大道),33.93073437559627,118.30468,黄河南路399号宿迁学院,江苏省,宿迁市,宿城区,4eb3b5330ec7220b4302450d,教育培训,图书馆
宿迁市宿城区文体中心自助图书馆,33.954425727265445,118.24451,宿迁市宿城区微山湖路宿迁中学南侧约100米,江苏省,宿迁市,宿城区,ac75402e708c7a158936ee2b,教育培训,图书馆
幸福书吧,33.957501650489654,118.305632,宿迁市宿城区中山路府东大厦西侧约70米,江苏省,宿迁市,宿城区,7ea54c3501b94e32ad31e57f,教育培训,图书馆
宿迁市图书馆24小时自助图书馆,33.9592856556926,118.276917,宿迁市宿城区太湖路宿迁建设大厦东南侧约180米,江苏省,宿迁市,宿城区,d183ca0857b0d8973f9a5e00,教育培训,图书馆
江苏省宿迁中学(太湖路)-图书馆,33.95640037548159,118.245067,宿迁市宿城区振兴大道宿迁中学,江苏省,宿迁市,宿城区,e0d37b9161bf6c269de32174,教育培训,图书馆
淮海技师学院-图书馆,33.907306679370286,118.257609,工业园苏州路1号,江苏省,宿迁市,宿城区,9d8586f7115496792e473379,教育培训,图书馆
宿迁少儿图书馆培训中心,33.952860624253596,118.279933,人民大道70号,江苏省,宿迁市,宿城区,ba46c587467d2eadad080fa1,教育培训,培训机构
沭阳图书馆,34.08732919881918,118.775553,江苏省宿迁市沭阳县学院路5号,江苏省,宿迁市,沭阳县,ee6744074d022fa69868b49c,教育培训,图书馆
南部新城图书馆,34.07611348463738,118.776937,宿迁市沭阳县清华路苏奥电子商务产业园西侧约110米,江苏省,宿迁市,沭阳县,0ef443d2373d164f32f71d60,教育培训,图书馆
悠贝亲子图书馆,34.10869489450604,118.805273,宿迁市沭阳县康平路沭阳县第一实验小学(康平路)东北侧约40米,江苏省,宿迁市,沭阳县,fa958fced935b9daab059d08,教育培训,图书馆
扬中图书馆,32.24035265220309,119.82997,文化北路46号,江苏省,镇江市,扬中市,a7c56ee08217f4b3a2acc4a9,教育培训,图书馆
扬中市图书馆奥体中心图书室,32.223565638058254,119.809848,三茅街道迎宾大道1777号,江苏省,镇江市,扬中市,522b4179bb622f875c17c368,教育培训,图书馆
金山学院-图书馆,32.25948775667019,119.855368,江苏省镇江市扬中市金山路1号,江苏省,镇江市,扬中市,8a7f8b458cd8100284154176,教育培训,图书馆
润州图书馆,32.20175143388459,119.415917,润州路18号,江苏省,镇江市,润州区,9db840327951554fc16c141d,教育培训,图书馆
24小时自助图书馆,32.19848787108276,119.417837,镇江市润州区润州路润州广场,江苏省,镇江市,润州区,64356ea56aea19870c0a70e3,教育培训,图书馆
镇江市图书馆(玉润江南分馆),32.21543881953987,119.434556,镇江市润州区新河路伯先公园北侧约40米,江苏省,镇江市,润州区,3793fd7a247fa5d08f1a89ca,教育培训,图书馆
丹徒区图书馆,32.13509037389191,119.433828,宜城街道丹徒新城长山路281号,江苏省,镇江市,丹徒区,3f826ed3e025a746d0f49e81,教育培训,图书馆
镇江高校园区共享区图书馆,32.11864942071503,119.365528,镇江市丹徒区教慈路江苏大学(京江校区)东北侧约100米,江苏省,镇江市,丹徒区,815a22587a923f8b223bf2e6,教育培训,图书馆
镇江市图书馆,32.200142784529,119.461933,镇江市京口区解放路17号,江苏省,镇江市,京口区,4eb3b533fb65cf75420245b1,教育培训,图书馆
江苏大学-图书馆,32.200683159038356,119.517791,江苏省镇江市京口区学府路301号,江苏省,镇江市,京口区,f58abbe00144398522f01749,教育培训,图书馆
老图书馆,32.199025516079985,119.524372,江苏省镇江市京口区象山街道江苏大学图书馆新图书馆,江苏省,镇江市,京口区,68f9a7ed49310a20b13c81d0,教育培训,图书馆
江苏科技大学(梦溪校区)-图书馆,32.19856352227224,119.473969,江苏省镇江市京口区梦溪路2号,江苏省,镇江市,京口区,d7fd2ad357f6e82a0accddaa,教育培训,图书馆
江苏大学附属医院-图书馆,32.21468127341264,119.46285,镇江市京口区医政路江苏大学(北固校区),江苏省,镇江市,京口区,4510cdc18a818a8c4f6d4634,教育培训,图书馆
快法务公司市图书馆,32.200447740235155,119.462066,健康路街道解放路19号京星大厦南楼602快法务公司市图书馆,江苏省,镇江市,京口区,7f21800f745e30a5a10464da,教育培训,图书馆
江苏大学(梦溪校区)-图书馆,32.205232214877284,119.467139,镇江市京口区梳儿巷江苏大学(梦溪校区),江苏省,镇江市,京口区,67bb996374510009b45f1e83,教育培训,图书馆
江苏大学图书馆科技信息研究所,32.19911654564026,119.524381,学府路301号江苏大学图书馆科技信息研究所,江苏省,镇江市,京口区,82513676d29613d1b320a882,教育培训,科研机构
绿山墙亲子阅读馆,32.20981281186176,119.463085,江苏省镇江市京口区第一楼街3号楼312,江苏省,镇江市,京口区,228cd3cf59f3f0cedeee8b38,教育培训,其他
丹阳市图书馆,31.988549574236906,119.572648,西环路21号,江苏省,镇江市,丹阳市,c9273853224c40a61894c61d,教育培训,图书馆
江苏省丹阳高级中学-省丹中图书馆,31.998131550044814,119.570248,云阳镇新民西路138号,江苏省,镇江市,丹阳市,e032d846bf77b0a483a00caa,教育培训,图书馆
丹阳市图书馆24小时自助图书馆,32.01039125562208,119.611517,镇江市丹阳市兰陵路丹阳市人民政府西南侧约40米,江苏省,镇江市,丹阳市,86cc617ae93ca38beb1e9763,教育培训,图书馆
句容图书馆,31.955118963178723,119.193975,崇明东路南200米,江苏省,镇江市,句容市,fbe467e700a0ed48970319ef,教育培训,图书馆
句容市图书馆凤凰城分馆,32.01462211659384,119.128273,江苏省镇江市句容市碧桂园凤凰城凤凰大道8号,江苏省,镇江市,句容市,7d837eeca5a8dba249fc8dd6,教育培训,图书馆
南京财经大学桥头校区-图书馆,32.168242945764156,119.239127,镇江市句容市南京财经大学(桥头校区),江苏省,镇江市,句容市,e5a88d16c126fe6015c8f695,教育培训,图书馆
三江图书馆,31.961540820430677,118.7589,江苏省南京市雨花台区铁心桥龙西路10号(三江学院内),江苏省,南京市,雨花台区,b9ec76b7c53a055f4e776ee1,教育培训,图书馆
殷富社区图书馆,31.90137081327308,118.642186,江苏省南京市雨花台区板桥街道辅机路182号绿洲综合楼,江苏省,南京市,雨花台区,f9dd9a4b6bf8be450bccddfc,教育培训,图书馆
金陵图书馆24,31.975038931464177,118.758137,乙一路与西春路交叉口东南150米,江苏省,南京市,雨花台区,783a7da7efc63c2400ff2d59,教育培训,图书馆
儿童图书馆,31.977250578785,118.777647,软件谷软件大道108号蓝筹谷1栋3楼,江苏省,南京市,雨花台区,763b98809a4ad7e42eb96d52,教育培训,图书馆
三江学院图书馆东校区分馆,31.96713606633139,118.781278,花神大道128号,江苏省,南京市,雨花台区,228d88962fefc1c1bbbd634b,教育培训,图书馆
雨花台中学南区-图书馆,31.989410857697727,118.785405,南京市雨花台区紫荆花路雨花台中学,江苏省,南京市,雨花台区,fea571c79cf8e269a11de9ef,教育培训,图书馆
江苏警官学院安德门校区图书馆,31.99366959705697,118.764891,雨花台区小行路16,江苏省,南京市,雨花台区,8b99566be66155b36e20b9c1,教育培训,图书馆
浦口区图书馆,32.06876507639067,118.633097,南京市浦口区江浦街道象山路4号浦口市民中心A栋1-2层,江苏省,南京市,浦口区,d984ce47cdb4b68b8705bfa9,教育培训,图书馆
江北图书馆,32.08503751120525,118.691643,江苏省南京市浦口区九袱洲路与石佛大道交叉口北200米,江苏省,南京市,浦口区,fa767344e7ef4d7fd72ce2da,教育培训,图书馆
南京工业大学浦口校区-逸夫图书馆,32.08444247051421,118.647672,浦口区浦珠南路30号,江苏省,南京市,浦口区,6108521195fd57a1c51b75fc,教育培训,图书馆
浦口区24小时自助图书馆,32.06886296395309,118.633378,城运路东150米,江苏省,南京市,浦口区,5b07fbf27ff090a61fe9993e,教育培训,图书馆
南京信息工程大学-图书馆,32.20493059736806,118.719989,江苏省南京市浦口区宁六路219号南京信息工程大学,江苏省,南京市,浦口区,c165340512ab3804aa175aa3,教育培训,图书馆
思源图书馆,32.18050627996045,118.713564,江苏省南京市浦口区沿江镇学府路8号,江苏省,南京市,浦口区,9ee392b837373341bbbd63ff,教育培训,图书馆
江浦街道同心众创空间24小时自助图书馆,32.060527234924876,118.649655,南京市浦口区新浦路同心佳园,江苏省,南京市,浦口区,3d9fba58efaed50528b97c91,教育培训,图书馆
南京工业大学江浦校区-文科图书馆,32.074560521319604,118.64949,浦珠南路30号,江苏省,南京市,浦口区,e5688d25713706311fe99909,教育培训,图书馆
南京农业大学(浦口校区)-图书馆,32.13408182910509,118.707242,点将台路40号南京农业大学浦口校区,江苏省,南京市,浦口区,b292b3aa0c7ad52bbf4842b4,教育培训,图书馆
东南大学成贤学院图书馆,32.15776940196468,118.71059,江苏省南京市浦口区东大路6号东南大学成贤学院内,江苏省,南京市,浦口区,d126796627afaa192cb908ba,教育培训,图书馆
南京审计大学(浦口校区)-图书馆,32.06507271648889,118.614433,江苏省南京市浦口区江浦街道雨山西路86号,江苏省,南京市,浦口区,a39b614ddf05ee4d970319ff,教育培训,图书馆
江苏警官学院图书馆,32.09417666838445,118.664211,沿山大道165号,江苏省,南京市,浦口区,b946c80a4b03adc9081cc702,教育培训,图书馆
蒲公英书馆,32.16389208807483,118.71478,高新开发区宜景路1号江北新区融媒体中心负一楼,江苏省,南京市,浦口区,d4b719c0bb16817b28201a09,教育培训,其他
悦知艺术,32.13009950884275,118.574784,南京市浦口区府西路傅云小区东北侧,江苏省,南京市,浦口区,4c3e993fe65d4390d518b789,教育培训,培训机构
一间书房,32.13340491689395,118.749938,南京市浦口区明发滨江大道1号明发外滩广场F2,江苏省,南京市,浦口区,9f3d0c507eeba24a0b69d960,教育培训,其他
南京工业大学江浦校区沉毅-南楼,32.076681065964415,118.649858,浦珠南路30号,江苏省,南京市,浦口区,256efe906f085af80bccddee,教育培训,其他
南京市江宁区图书馆,31.957786589179737,118.849934,土山路46号,江苏省,南京市,江宁区,108b1cead2c0d5ac3586f47b,教育培训,图书馆
江宁图书馆(高新园阅读分中心),31.91225678505778,118.900921,江苏省南京市江宁区大学城格致路1号江宁体育中心,江苏省,南京市,江宁区,822bef4a8d8818328bf15da9,教育培训,图书馆
江宁区图书馆大里阅读分中心,32.001329294037845,118.885973,南京市江宁区觅秀街南方时代广场(润发路店)北侧约30米,江苏省,南京市,江宁区,af3e48b85414d7c784330403,教育培训,图书馆
江宁区图书馆(禄口街道分馆),31.765740396596385,118.869564,南京市江宁区永欣南路海棠苑东北侧约70米,江苏省,南京市,江宁区,d43f2e1748f59d924f2fdfe1,教育培训,图书馆
东南大学(九龙湖校区)-李文正图书馆,31.88946323402119,118.82565,江苏省南京市江宁区吉印大道2号,江苏省,南京市,江宁区,b8454f1ef2fa461ca8059d20,教育培训,图书馆
江宁区图书馆(九龙湖阅读分中心),31.91318443446363,118.817235,南京市江宁区苏源大道江宁九龙湖国际企业总部园,江苏省,南京市,江宁区,bbe2bf855defd7c281a12e8a,教育培训,图书馆
江宁区图书馆24小时自助图书馆,32.047058742479365,118.930282,南京市江宁区丹霞街麒麟紫荆城晨光苑南侧约60米,江苏省,南京市,江宁区,231fbc25b4da8cb1a1acc404,教育培训,图书馆
南京航空航天大学将军路校区图书馆,31.940346813877817,118.802065,江苏省南京市将军大道29号南京航空航天大学将军路校区,江苏省,南京市,江宁区,f2c9f7ba4435f614c51e5110,教育培训,图书馆
南京工程学院(江宁校区)-文博苑·逸夫图书信息中心,31.9246735930355,118.886901,弘景大道1号,江苏省,南京市,江宁区,c7fb04bd0ac9d015fa0cad7a,教育培训,图书馆
南京晓庄学院(方山校区)-图书馆,31.897728939743217,118.907357,弘景大道3601号南京晓庄学院方山校区内,江苏省,南京市,江宁区,b24979b30f7b7702d7851f93,教育培训,图书馆
睦邻书房,31.949756607345176,118.792093,南京市江宁区将军大道托乐嘉花园南侧约30米,江苏省,南京市,江宁区,f527c3ff86a25ac99d9d68dd,教育培训,图书馆
河海大学(江宁校区)-逸夫图书馆,31.91564051202147,118.792377,佛城西路8号河海大学江宁校区内,江苏省,南京市,江宁区,1816533468c5bb7afa2d61b4,教育培训,图书馆
江宁区图书馆(东善桥分馆),31.865200781095446,118.782959,东虹花苑29幢,江苏省,南京市,江宁区,f6aeaf028734eb7d8b2fb56b,教育培训,图书馆
墨子·书法室·公益图书馆,31.916613229071192,118.905943,南京市江宁区格致路99号文鼎广场五栋F4层,江苏省,南京市,江宁区,3e4bfa6f9d75f66214b54b7f,教育培训,图书馆
南京传媒学院-图书馆,31.88570229638627,118.891986,南京市江宁区弘景大道3666号南京传媒学院,江苏省,南京市,江宁区,07115d391ee0956c6849f3f2,教育培训,图书馆
南京小多灵公益图书馆,31.92869732090675,118.848836,江苏省南京市江宁区武夷绿洲137幢103,江苏省,南京市,江宁区,9d16ad51497660ce9222e0b5,教育培训,图书馆
龙西社区多功能图书室,31.96352414972696,118.797328,南京市江宁区梅香路龙西新寓,江苏省,南京市,江宁区,dba22d3e3c5e461f9de321a0,教育培训,图书馆
金陵科技学院江宁校区-图书馆,31.905249361325744,118.906679,格致路100号金陵科技学院江宁校区图书馆,江苏省,南京市,江宁区,39c68b8f4db5976deddfca9d,教育培训,图书馆
南京医科大学(江宁校区)-图书馆,31.941131156643202,118.897611,江苏省南京市天元东路818南京医科大学江宁校区内,江苏省,南京市,江宁区,87248d969366dcce2906cea6,教育培训,图书馆
敏于行图书馆,31.882592345186865,118.828131,南京市江宁区东南大学路东南大学(九龙湖校区)南侧约40米,江苏省,南京市,江宁区,1c9544b99f24df44c9e33cde,教育培训,图书馆
秣陵街道秦淮社区公共阅览室,31.956200186136098,118.798433,南京市江宁区秦淮路中共秦淮社区总支部委员会(秦淮路),江苏省,南京市,江宁区,12a008f8d0fc6670b5147f0d,教育培训,图书馆
南京市江宁区图书馆-24小时自助借还服务,31.957609495422723,118.849745,土山路46号江宁图书大厦,江苏省,南京市,江宁区,d1816fd069e5caade812e42e,教育培训,图书馆
小南瓜英文图书馆(翠屏国际店),31.936652779122937,118.791363,将军大道20号翠屏国际城香樟苑7幢111,江苏省,南京市,江宁区,43cf8ccf1d9620c40aa8d4be,教育培训,图书馆
南京体育学院奥林匹克学院图书馆,31.841599544218777,118.570818,南京市江宁区翔凤路南京体育学院奥林匹克学院,江苏省,南京市,江宁区,e451a154f31492458a36eed1,教育培训,图书馆
龙乡双范商量书房,31.78343693401914,118.720829,江苏省南京市江宁区横溪街道龙乡双范,江苏省,南京市,江宁区,7fb3c7ff19f6b8d51ef74dc3,教育培训,图书馆
南京航空航天大学金城学院-图书馆,31.705587006751887,118.892013,航金大道88号,江苏省,南京市,江宁区,3092099dc09cae0deb56facb,教育培训,图书馆
南京正德职业技术学院-图书馆,31.940661291831578,118.790452,将军大道18正德职业技术学院内,江苏省,南京市,江宁区,e2c734e40b82575e15a19014,教育培训,图书馆
江苏海院图书馆,31.919672237916593,118.914562,格致路309号江苏海事职业技术学院,江苏省,南京市,江宁区,5bbe5d423752dbd1f8f0cb81,教育培训,图书馆
南京交通职业技术学院-图书馆,31.915538257871457,118.916382,秣陵街道江宁科学园龙眠大道629号,江苏省,南京市,江宁区,bffa6243a56039be38221c01,教育培训,图书馆
南京旅游职业学院-图书馆,31.93113777349979,118.897673,月华西路1号南京旅游职业学院内,江苏省,南京市,江宁区,cb4fd1464cadd03f9c9d68b5,教育培训,图书馆
金陵协和神学院图书馆,31.922480103947485,118.908207,南京市江宁区樵歌路江苏海事职业技术学院(江宁校区)西侧约110米,江苏省,南京市,江宁区,f57ba11be6c337692fb96d67,教育培训,图书馆
南京江宁诚明书院,31.96822413375707,118.862545,石羊路12号,江苏省,南京市,江宁区,588baac1c2752ff3afb22a1c,教育培训,培训机构
资料室(南京同仁医院),31.89820543976026,118.833052,吉印大道2007号南京同仁医院F3层,江苏省,南京市,江宁区,cd223a1eaa6f807fc256ac35,教育培训,图书馆
南京交通职业技术学院-明德楼,31.914096688079496,118.917405,秣陵街道玉树路88号文鼎雅苑14栋719南京交院南侧,江苏省,南京市,江宁区,36e03c8fbeb38786715e809e,教育培训,其他
三江学院东山校区-阅览室,31.973336037946467,118.830849,中水路58三江学院东三校区内,江苏省,南京市,江宁区,c73476fed7986ce9e311035f,教育培训,其他
悠贝亲子图书馆,31.930818393372558,118.824053,天元西路32号运动宝贝(江宁百家湖旗舰店)内,江苏省,南京市,江宁区,1f15aee753e7e23ced74f809,教育培训,图书馆
高淳区图书馆,31.32193564707656,118.895175,高淳区淳溪镇石臼湖南路7号2幢,江苏省,南京市,高淳区,f85019900b9124b600ff2d2b,教育培训,图书馆
高淳图书馆淳溪街道分馆,31.339633568239808,118.897136,南京市高淳区胥河路栖凤花园,江苏省,南京市,高淳区,95563064aa0e0ad5d7851fd1,教育培训,图书馆
蒋山书舍,31.24759940211389,118.934877,江苏省南京市高淳区,江苏省,南京市,高淳区,cc8c4b1d8211cced43afe674,教育培训,图书馆
垄上·隐舍书室,31.33985211539548,119.06834,东坝街道垄上村9号,江苏省,南京市,高淳区,22514ae2af6a78612cb96dfa,教育培训,培训机构
南京市江北新区图书馆,32.22545032217871,118.755598,江苏省南京市六合区新华路178号,江苏省,南京市,六合区,0f460058455e5719d8d891a4,教育培训,图书馆
六合图书馆,32.331128328800354,118.84169,江苏省南京市六合区王桥路155号,江苏省,南京市,六合区,c879fa01e81fce37c809f0b4,教育培训,图书馆
长江书院,32.20837906339638,118.9993,南京市六合区洲四线,江苏省,南京市,六合区,a39e453354df9b53f90cad37,教育培训,图书馆
南京科技职业学院(图书馆),32.23500217691308,118.753622,江苏省南京市六合区欣乐路188,江苏省,南京市,六合区,750ec165ba3916564d3a59a3,教育培训,其他
工会图书馆,32.24150749596366,118.772461,扬村三路96,江苏省,南京市,六合区,dbf4d6ee27db612a6fa3cce1,教育培训,图书馆
溧水图书馆,31.64987467503341,119.028041,永阳镇中山西路14号,江苏省,南京市,溧水区,b0d056f25eb51e7ecbc3dbbd,教育培训,图书馆
24小时自助图书馆(大东门街分馆),31.652975836557673,119.036933,南京市溧水区大东门商业步行街尚溧城,江苏省,南京市,溧水区,639e3a199a66705fadcb6650,教育培训,图书馆
溧水区少年儿童图书馆,31.653378243689662,119.032997,大东门街81号,江苏省,南京市,溧水区,19cdb6be9a0f32d1d13ce320,教育培训,图书馆
24小时自助图书馆,31.639668345890616,118.913924,江苏省南京市溧水区S243(影视大道),江苏省,南京市,溧水区,0639131bfb77f396f02d83d4,教育培训,图书馆
24小时自助图书馆,31.637012650512908,119.045878,江苏省南京市溧水区溧水体育公园,江苏省,南京市,溧水区,bcb90196446a88e7d13ce334,教育培训,图书馆
溧水区图书馆(幸庄分馆),31.621762710304857,119.051809,南京市溧水区金井路与秦淮大道交叉路口往西南约110米,江苏省,南京市,溧水区,1d7fc23abf6fca0e9e9d68da,教育培训,图书馆
城市书房,31.649738745190437,119.027982,永阳镇中山西路14号溧水图书馆1楼,江苏省,南京市,溧水区,806403c91828502be70738e6,教育培训,图书馆
南京视觉艺术学院-图书馆,31.750493356782737,118.932192,柘宁东路116,江苏省,南京市,溧水区,1b9b62b19727008f6f4760d5,教育培训,图书馆
江苏第二师范学院石湫校区-图书馆,31.628074363711754,118.908276,石湫街道新河西路6号,江苏省,南京市,溧水区,63c4b6bf26ec488eb35c6acc,教育培训,图书馆
24小时自助图书馆,31.57688363603484,119.185537,南京市溧水区S341白马镇农贸综合市场西南侧约260米,江苏省,南京市,溧水区,0ab204ae6b3576d0d42ce263,教育培训,图书馆
南京城市职业学院溧水校区图书馆,31.71890776476636,119.009811,江苏省南京市溧水区联塘线,江苏省,南京市,溧水区,783857042840480dc03644f3,教育培训,图书馆
溧水区图书馆(洪蓝分馆)24小时自助图书馆,31.617787902335966,118.999446,南京市溧水区凤凰井路华塘佳苑,江苏省,南京市,溧水区,870c665f984b1b553ce231e3,教育培训,图书馆
建邺区图书馆,31.986919641543505,118.725117,江苏省南京市建邺区雨润大街99号,江苏省,南京市,建邺区,1415588d4aa4a40afbdc8544,教育培训,图书馆
金陵图书馆,32.014594460488176,118.724142,南京市建邺区乐山路158号,江苏省,南京市,建邺区,06bcf6bbd3beb8280b1cc7de,教育培训,图书馆
金陵书苑,32.014721075860436,118.72362,江苏省南京市建邺区梦都大街183号金陵图书馆二楼,江苏省,南京市,建邺区,e11778cca9c00a0442ab9ad7,教育培训,图书馆
金陵图书馆城市街区自助图书馆,32.014919121893314,118.725706,江苏省南京市建邺区乐山路158,江苏省,南京市,建邺区,aa59aedf8ee6835bd8d891fc,教育培训,图书馆
金陵图书馆(莫愁湖街道分馆),32.03096820854173,118.761849,南湖东路2号,江苏省,南京市,建邺区,eaffbc685653f86f21f017b4,教育培训,图书馆
24小时自助图书馆,32.02761024420309,118.755577,南京市建邺区湖西街品阁东南侧约150米,江苏省,南京市,建邺区,ed0b9bbb326e48d7f60e777e,教育培训,图书馆
莲花南苑社区阅览室,31.96478777348143,118.720932,南京市建邺区平良大街莲花新城-南苑,江苏省,南京市,建邺区,94c28436a008fd542dfaa741,教育培训,图书馆
ThinkYard书吧(金奥美学生活馆店),32.000979249771305,118.731856,奥体大街125号金奥购物中心4层27号,江苏省,南京市,建邺区,e8a1562009491f838bdb73f4,教育培训,图书馆
南京高等职业技术学校-图书馆,32.00874018847732,118.748519,黄山路58南京高等职业技术学校内,江苏省,南京市,建邺区,f1f5cac5c346989837b06cb0,教育培训,图书馆
建邺区图书馆成人馆,31.98688382728402,118.72513,南京市建邺区雨润大街99号图书馆二楼,江苏省,南京市,建邺区,62681c4f06fd97f5f0193797,教育培训,培训机构
秦淮区图书馆,32.01966984792884,118.793922,江苏省南京市秦淮区钞库街21号,江苏省,南京市,秦淮区,64d9cbdd2587c8f535b06c55,教育培训,图书馆
南京晓书馆,32.01793645432242,118.776461,江苏省南京市秦淮区凤游寺52号悦动新门西16栋,江苏省,南京市,秦淮区,c049625aafe1d1c9100daa3b,教育培训,图书馆
南京三中图书馆,32.030262391887575,118.800264,江苏省南京市秦淮区白下路193号,江苏省,南京市,秦淮区,5a4d4633c4004d1de7e96545,教育培训,图书馆
秦汉胡同国学书院(熙南里分馆),32.02736517312417,118.788292,江苏省南京市秦淮区中山南路396号,江苏省,南京市,秦淮区,ea1023242d6d1220250bd001,教育培训,培训机构
南京图书馆,32.04402218960236,118.802104,南京市玄武区梅园新村街道大行宫社区中山东路189号,江苏省,南京市,玄武区,cde9e2c7b946c1ade81e971a,教育培训,图书馆
南京老图书馆,32.053248930636684,118.802097,江苏省南京市玄武区成贤街66-5,江苏省,南京市,玄武区,afac929041adb7d04c776e55,教育培训,图书馆
图书馆,32.080683910131064,118.820846,南京市玄武区龙蟠路159号南京林业大学内,江苏省,南京市,玄武区,cd34e04e9039f5f29ee321be,教育培训,图书馆
周恩来图书馆,32.044360677959276,118.808205,梅园新村18号,江苏省,南京市,玄武区,cb4fd1468f7c15419d9d68ec,教育培训,图书馆
金陵图书馆24小时自助图书馆,32.046629976708374,118.79421,江苏省南京市玄武区长江路101号,江苏省,南京市,玄武区,a9f902842eb0db426e20b998,教育培训,图书馆
金隆图书馆红山街道分馆,32.10523051722823,118.841945,南京市玄武区广贤路雯锦雅苑东侧约150米,江苏省,南京市,玄武区,bc3c7f4d987e0b483ce231c9,教育培训,图书馆
南京林业大学新图书馆,32.07938642863638,118.824101,江苏省南京市玄武区龙蟠路159号,江苏省,南京市,玄武区,a5ef680f6af005d7b9df8fed,教育培训,图书馆
东南大学-图书馆(中央大道),32.056481624286896,118.80006,江苏省南京市玄武区四牌楼2号,江苏省,南京市,玄武区,748dc262ae78315c0f0a7049,教育培训,图书馆
南京农业大学(卫岗校区)-图书馆,32.03553345828855,118.851224,南京市玄武区卫岗1号南京农业大学,江苏省,南京市,玄武区,e116be542bb30f7bc91b954a,教育培训,图书馆
图书馆,32.062374361525,118.801432,古鸡鸣寺路1号古鸡鸣寺内,江苏省,南京市,玄武区,4c96ba6b405c9ca91288242b,教育培训,图书馆
南京体育学院-图书馆,32.04300739196268,118.874861,灵谷寺路8号,江苏省,南京市,玄武区,812c5991ba5103d57ab55c46,教育培训,图书馆
中文图书借阅(南京图书馆),32.04354898293118,118.802188,中山东路189号南京图书馆F2层,江苏省,南京市,玄武区,920ac0ecc862673dc41e5159,教育培训,图书馆
南京图书馆-24小时自助图书馆,32.04377790434234,118.802619,江苏省南京市玄武区中山东路189号南京图书馆东门负1楼,江苏省,南京市,玄武区,18eb257d07bed53933621200,教育培训,图书馆
南京市玄武区少年儿童图书馆,32.052743912587395,118.803565,玄武区太平北路120-2号(近宏图三胞),江苏省,南京市,玄武区,d86fddc31e2cf7d422f017d1,教育培训,图书馆
南京博物院-图书馆,32.04349659746424,118.832084,南京市玄武区中山东路321号南京博物院内,江苏省,南京市,玄武区,5fce299c02f1090e6ca3cc46,教育培训,图书馆
南京林业大学-教学八楼图书馆,32.07965208198352,118.824135,南京市玄武区创新路南京林业大学,江苏省,南京市,玄武区,6b640499bd60086bbbbd63ae,教育培训,图书馆
图书馆,32.04550354732927,118.815424,南京市玄武区黄埔路东部战区总医院,江苏省,南京市,玄武区,80e115309aff84a3b05c6a6e,教育培训,图书馆
图书馆,32.06062672190743,118.811641,南京市玄武区九华山路九华山公园西南侧约180米,江苏省,南京市,玄武区,f6e9c8919e9b85acad080ffa,教育培训,图书馆
总统府图书馆,32.047166479707585,118.803275,南京市玄武区长江路292号总统府内,江苏省,南京市,玄武区,2051822d42eab7e92b201a38,教育培训,图书馆
南京共享图书馆书服到家线下借还取书点(玄武湖解放门点),32.06459685925039,118.804208,南京市玄武区环湖路南京市人民政府北侧约240米,江苏省,南京市,玄武区,0fc8d1e606efe757a20464e5,教育培训,图书馆
南京图书馆古籍部,32.04433178830625,118.802659,江苏省南京市玄武区中山东路189东门4楼,江苏省,南京市,玄武区,55fa2c0b43569b2e1ce9990f,教育培训,图书馆
东南大学四牌楼校区-交通学院图书分馆,32.05722228856053,118.796384,进香河路35东南大学四牌楼校区西区综合楼东楼1楼,江苏省,南京市,玄武区,5593e38c1f093cdc8bfc06b3,教育培训,图书馆
亲近母语学堂樱洲书房,32.075028760474176,118.799939,南京市玄武区玄武巷1号玄武湖公园樱洲岛西北角(进玄武门直行300米左转400米即到),江苏省,南京市,玄武区,cc681c29be9503c440e1928b,教育培训,培训机构
德语资料区(南京图书馆),32.04351572581997,118.802286,中山东路189号南京图书馆F4层,江苏省,南京市,玄武区,a7fa5e40ccb49eae0782c2f8,教育培训,其他
培训教室(南京图书馆),32.043791583886076,118.801642,江苏省南京市玄武区中山东路189号南京图书馆B1层,江苏省,南京市,玄武区,e75279fd8a638e8db13c816c,教育培训,培训机构
南京林业大学休闲阅览室,32.0813293466449,118.821134,南京市玄武区梁希路南京林业大学,江苏省,南京市,玄武区,38ed4e7fd5c1bbb4cd04efdc,教育培训,其他
南京图书馆-东侧入口,32.04451348182423,118.802797,中山东路189号东门,江苏省,南京市,玄武区,0450594f7fdf617dd72ce277,教育培训,图书馆
栖霞区图书馆,32.130472233529176,118.88967,江苏省南京市栖霞区尧辰路与新城路交叉口西南200米,江苏省,南京市,栖霞区,2130b65b62795e6d2102200e,教育培训,图书馆
南京图书馆(钟山学院分馆),32.04785422175005,118.896854,马群街169号钟山学院内,江苏省,南京市,栖霞区,7c7cafffd5e3a12232870a69,教育培训,图书馆
南京大学(仙林校区)-杜厦图书馆,32.11598308383408,118.967261,栖霞区仙林大道163号南京大学仙林校区内,江苏省,南京市,栖霞区,cb4fd1464cabd03f9c9d68bb,教育培训,图书馆
敬文图书馆,32.10498247386223,118.951702,仙林大道138南京中医药大学内,江苏省,南京市,栖霞区,2101fff831b80f6826d2bb4f,教育培训,图书馆
南京师范大学(仙林校区)-敬文图书馆,32.10580918391439,118.91757,江苏省南京市栖霞区文苑路1号,江苏省,南京市,栖霞区,81e7edacd5b2b8d6861541a0,教育培训,图书馆
青年图书馆,32.11672051381677,118.838172,南京市栖霞区迈化路弘阳家居(迈皋桥店)西侧,江苏省,南京市,栖霞区,c00bd9f6f386c21261685868,教育培训,图书馆
南京邮电大学(仙林校区)-图书馆,32.114124050797386,118.938184,文苑路9号南京邮电大学仙林校区,江苏省,南京市,栖霞区,1fdc798f81288f75c909f08a,教育培训,图书馆
摄山星城小区-图书馆,32.143471384214834,119.010998,南京市栖霞区摄山路南京市摄山星城小学西南侧约80米,江苏省,南京市,栖霞区,ec97dd8833ff874fc17da2c8,教育培训,图书馆
迈皋桥街道图书馆,32.117598216926254,118.867568,南京市栖霞区华银路南京师范大学附属中学丁家庄初级中学,江苏省,南京市,栖霞区,133f7541aedc49fe725e802b,教育培训,图书馆
南京信息职业技术学院-图书馆,32.13101804224551,118.947751,文澜路99号南京信息职业技术学院内,江苏省,南京市,栖霞区,abb010e8205996079d82ea10,教育培训,图书馆
1318(杜厦图书馆),32.116773716043944,118.96721,仙林大道163号杜厦图书馆F1层,江苏省,南京市,栖霞区,6dcd3ddc7174fa8cb25c6ab2,教育培训,图书馆
栖阅时光·城市书房,32.12091668974464,118.856777,江苏省南京市栖霞区凤和西园,江苏省,南京市,栖霞区,188c1a5d46409b6579b55cf4,教育培训,图书馆
南京审计大学金审学院图书馆,32.09146723574507,118.923238,江苏省南京市栖霞区仙林大道100号,江苏省,南京市,栖霞区,defede9861cfbb063517dc37,教育培训,图书馆
栖霞区图书馆朗读亭,32.10466645678974,118.933477,学津路仙林金鹰湖滨天地B区一楼GTAKAYA旁,江苏省,南京市,栖霞区,084d401e1c7cbcb035b06c69,教育培训,图书馆
5204(杜厦图书馆),32.11586081766529,118.966149,仙林大道163号杜厦图书馆F5层,江苏省,南京市,栖霞区,2b94bfc8356dfac1210220e7,教育培训,图书馆
1213(杜厦图书馆),32.11623522701551,118.966096,仙林大道163号杜厦图书馆F1层,江苏省,南京市,栖霞区,0280147d8b83319003ff2d7c,教育培训,图书馆
南京财经大学图书馆,32.11068891518069,118.930582,文苑路3号南京财经大学(仙林校区)图书馆,江苏省,南京市,栖霞区,e56bf5e3e1229e3a0782c213,教育培训,图书馆
南京理工大学紫金学院-图书馆,32.12769675129737,118.940074,文澜路89号南京理工大学紫金学院图书馆,江苏省,南京市,栖霞区,75d0881a68c5af303b04b1be,教育培训,图书馆
南京师范大学仙林校区-生地图书馆,32.117119783661174,118.916425,南京市栖霞区学林路与文鼎路交叉路口往东约50米(南京师范大学),江苏省,南京市,栖霞区,59c4f6faf942a190f32d8385,教育培训,图书馆
南京师范大学-社科图书馆,32.10394861475656,118.919119,文苑路1号,江苏省,南京市,栖霞区,8434c99e4fb8fc7788b98859,教育培训,图书馆
研3304(杜厦图书馆),32.116552723163984,118.966051,仙林大道163号杜厦图书馆F4层,江苏省,南京市,栖霞区,e8bb493975432e404f3a596d,教育培训,图书馆
南京城市职业学院图书馆,32.13033217508421,118.829735,燕子矶街道和燕路462号,江苏省,南京市,栖霞区,28d3de157929a0f657bffff9,教育培训,图书馆
1108(杜厦图书馆),32.11670346142767,118.966677,仙林大道163号杜厦图书馆F1层,江苏省,南京市,栖霞区,04383b64a07984ce3310af33,教育培训,图书馆
状元k书馆(栖霞馆),32.07168054426918,118.91641,石狮路3号银城KinmaQ+社区4号楼负一层,江苏省,南京市,栖霞区,fc631b662b57d67372210b2c,教育培训,其他
大厅(杜厦图书馆),32.1162510653264,118.966881,仙林大道163号杜厦图书馆F2层,江苏省,南京市,栖霞区,10f9a6afc9ce964f0f0a70b5,教育培训,图书馆
文献传递(杜厦图书馆),32.116036843362416,118.966871,仙林大道163号杜厦图书馆F2层,江苏省,南京市,栖霞区,31b05dcd3d1f1c24fea77810,教育培训,图书馆
1301(杜厦图书馆),32.11601978209613,118.966867,仙林大道163号杜厦图书馆F1层,江苏省,南京市,栖霞区,de35c0ef646aed71c9fa5fc8,教育培训,图书馆
内展厅(杜厦图书馆),32.11592039489384,118.966695,仙林大道163号杜厦图书馆F1层,江苏省,南京市,栖霞区,a2e78cfe45261ac23586f4bf,教育培训,图书馆
1322(杜厦图书馆),32.11675135132962,118.967035,仙林大道163号杜厦图书馆F1层,江苏省,南京市,栖霞区,a2c97f06006f23e9b13c810b,教育培训,图书馆
数字图书馆建设部/C210(杜厦图书馆),32.11641294818322,118.967238,仙林大道163号杜厦图书馆F2层,江苏省,南京市,栖霞区,6d3f572a0b33cbf81e1d11ea,教育培训,图书馆
2109(杜厦图书馆),32.11670695571533,118.966713,仙林大道163号杜厦图书馆F2层,江苏省,南京市,栖霞区,aeaf7987bf7cb95495ca0703,教育培训,图书馆
参考咨询部/2305(杜厦图书馆),32.11599060850188,118.9673,仙林大道163号杜厦图书馆F2层,江苏省,南京市,栖霞区,8ecf15b72e08c4f343afe6ce,教育培训,其他
爱心书屋(杜厦图书馆),32.1167405083913,118.966973,仙林大道163号杜厦图书馆F3层,江苏省,南京市,栖霞区,a9ce91cd8cc05743ad31e50b,购物,商铺
鼓楼区图书馆,32.08041230998971,118.744723,江苏省南京市鼓楼区二板桥486号,江苏省,南京市,鼓楼区,cd3356be88624ac19d82ea19,教育培训,图书馆
逸夫图书馆,32.06428329191875,118.760659,南京市鼓楼区虎踞北路46号,江苏省,南京市,鼓楼区,87cab5ad9935032696f08c4e,教育培训,图书馆
河海大学-图书馆,32.05711192306754,118.764524,西康路1号河海大学,江苏省,南京市,鼓楼区,d0b8923f7758a39eb5f42f44,教育培训,图书馆
金域书院,32.10677634100581,118.778526,江苏省南京市幕府西路33号金域中央21栋102室,江苏省,南京市,鼓楼区,391aaa73667bbb03a8f729d1,教育培训,图书馆
南京工业大学(虹桥校区)-图书馆,32.0760028740815,118.774871,中山北路200号,江苏省,南京市,鼓楼区,0a894f7bfe623421d8d891b9,教育培训,图书馆
金陵图书馆(华彩荟南京店),32.06285837223605,118.745472,南京市鼓楼区江东北路333号华彩荟F1,江苏省,南京市,鼓楼区,b56f0186b87520f6cf06a40d,教育培训,图书馆
南京大学鼓楼校区北园-图书馆,32.056588477291186,118.787321,江苏省南京市鼓楼区汉口路22号,江苏省,南京市,鼓楼区,22e11407183676c9d5b74ec7,教育培训,图书馆
南京财经大学(福建路校区)-图书馆,32.086758226564015,118.767422,铁路北街128号,江苏省,南京市,鼓楼区,161a0ed23b2e4e2d5dd4fea1,教育培训,图书馆
江苏开大图书馆楼,32.065933438571776,118.74511,南京市鼓楼区南京定淮门长江隧道清江西苑南侧约220米,江苏省,南京市,鼓楼区,879d29a5c1b01d205cbe86f8,教育培训,图书馆
南京邮电大学-图书馆(模范马路),32.081785141982664,118.777747,新模范马路66号,江苏省,南京市,鼓楼区,9f97b1c5fc2be607b64f54dc,教育培训,图书馆
南京师范大学(随园校区)-图书馆,32.05534685363201,118.772868,江苏省南京市鼓楼区宁海路122号南京师范大学随园校区(近五台山体育馆北门),江苏省,南京市,鼓楼区,5e86f1c260087187c6effb7c,教育培训,图书馆
子午书巷图书馆,32.04970263643691,118.78433,华侨路街道上海路32号,江苏省,南京市,鼓楼区,edf1b0e395029d354c2fdf92,教育培训,图书馆
九三学社江苏省书院,32.07548024946464,118.74378,江苏省南京市鼓楼区淮滨路3号,江苏省,南京市,鼓楼区,2101d02eb135b8dcdbecedc8,教育培训,图书馆
东南大学丁家桥校区-图书馆,32.07727280663186,118.783104,丁家桥87号东南大学丁家桥校区,江苏省,南京市,鼓楼区,680fb70341e364e28bb98817,教育培训,图书馆
happykids美言美语图书馆,32.06391592077326,118.787736,江苏省南京市鼓楼区湖南路街道中山北路28号江苏商厦三楼,江苏省,南京市,鼓楼区,14324e219abab2e738e4a657,教育培训,图书馆
美原英文图书馆,32.04513941193628,118.783984,鼓楼区汉中路120-1号青华大厦B2904室,江苏省,南京市,鼓楼区,91e9a1302990f33bad04577c,教育培训,图书馆
南京医科大学-图书馆,32.046095786562304,118.781976,汉中路140号南京医科大学,江苏省,南京市,鼓楼区,7121d80b7154230733169b49,教育培训,图书馆
中国药科大学(玄武门校区)-图书馆,32.07394913595082,118.785064,童家巷24号中国药科大学玄武门校区,江苏省,南京市,鼓楼区,8fa14fc325218713f6eafca1,教育培训,图书馆
慈氏图书馆,32.059190341503694,118.783615,江苏省南京市鼓楼区南京大学苏富特大厦,江苏省,南京市,鼓楼区,cb23a5aea3f03baeb64f5410,教育培训,图书馆
中央门街道工人新村社区-图书室,32.08201282135658,118.785686,鼓楼区工人新村82,江苏省,南京市,鼓楼区,5c01749d9e7ccc3aabf7297a,教育培训,图书馆
南大图书馆,32.056216777808054,118.787574,江苏省南京市鼓楼区汉口路22号南大图书馆,江苏省,南京市,鼓楼区,343993087841e5659e9d687a,教育培训,图书馆
清江花园图书馆,32.07017113461808,118.761447,江苏省南京市鼓楼区热河南路街道定淮门大街2号清江花园图书馆,江苏省,南京市,鼓楼区,24a4f7fb7cc3d6021d580070,教育培训,图书馆
南京医科大学第二附属医院-图书馆,32.08298131761685,118.752247,江苏省南京市鼓楼区姜家园121号南京医科大学第二附属医院医技楼4F,江苏省,南京市,鼓楼区,ec0cb1e5980fd61895ca070c,教育培训,图书馆
南京三十九中图书馆,32.09344463774302,118.764824,江苏省南京市鼓楼区新民路128号南京三十九中图书馆,江苏省,南京市,鼓楼区,37af4e4f98533d039d95dea9,教育培训,图书馆
江苏第二师范学院-图书馆,32.06025539810969,118.761256,江苏省南京市鼓楼区北京西路77号江苏第二师范学院内,江苏省,南京市,鼓楼区,c7eca12b847b994ae015f9a1,教育培训,图书馆
南京大学鼓楼校区-116(图书馆),32.05616836490257,118.787328,汉口路22号图书馆F1层,江苏省,南京市,鼓楼区,9227c8ee3342f7214054d728,教育培训,图书馆
江苏城市职业学院图书馆-西楼,32.07032305401352,118.761145,古平岗35-1,江苏省,南京市,鼓楼区,0ea687ab1fa598989e9d6837,教育培训,图书馆
南京大学鼓楼校区-09(图书馆),32.05622769095631,118.78758,汉口路22号图书馆F1层,江苏省,南京市,鼓楼区,bc9060ffa02a78ac9b68b4a5,教育培训,图书馆
南京大学鼓楼校区-102(图书馆),32.05675737691026,118.78726,汉口路22号图书馆F1层,江苏省,南京市,鼓楼区,b644cc7f2db5f0c054bfff1b,教育培训,图书馆
安仁会馆·安仁中医图书馆,32.052863327223704,118.782883,南京市鼓楼区广州路140号随园大厦15层G座,江苏省,南京市,鼓楼区,29e5839ad1b1b7e2740269de,教育培训,图书馆
馆长室(图书馆),32.0562740449623,118.788183,汉口路22号图书馆F2层,江苏省,南京市,鼓楼区,820d1e7527f95930373a71a7,教育培训,图书馆
南京大学鼓楼校区-307(图书馆),32.05629154349471,118.787316,汉口路22号图书馆F3层,江苏省,南京市,鼓楼区,661b66bc10c6282888f15daf,教育培训,图书馆
样本图书阅览室(图书馆),32.056216777808054,118.787574,汉口路22号图书馆F4层,江苏省,南京市,鼓楼区,153dfe24c557ef74601c6772,教育培训,图书馆
南京大学鼓楼校区-117(图书馆),32.05617744295451,118.787391,汉口路22号图书馆F1层,江苏省,南京市,鼓楼区,f14c49d76a90151aeb56fa57,教育培训,图书馆
南京大学鼓楼校区-224(图书馆),32.05623310470334,118.787898,汉口路22号图书馆F2层,江苏省,南京市,鼓楼区,a1d31fb10e6cae68ce04effc,教育培训,图书馆
南艺图书馆,32.07010090498929,118.761617,江苏省南京市鼓楼区虎踞北路15号南艺图书馆,江苏省,南京市,鼓楼区,8ac04ca905c430833110af8c,教育培训,图书馆
南京大学鼓楼校区-编辑部(图书馆),32.05615396441044,118.78763,汉口路22号图书馆F1层,江苏省,南京市,鼓楼区,7832995fe6b857599868b463,教育培训,图书馆
值班台(图书馆),32.05658729900921,118.787265,汉口路22号图书馆F1层,江苏省,南京市,鼓楼区,8471a19c521af5bdcf06a412,教育培训,图书馆
江苏城市职业学院-图书馆,32.07044620970803,118.761675,江苏省南京市鼓楼区古平岗35-1,江苏省,南京市,鼓楼区,0a15c7ec8e102381ec74f8a1,教育培训,图书馆
约读书房(山西路校区),32.06954780724472,118.777863,江苏省南京市鼓楼区山西路68号兴源商务中心3楼,江苏省,南京市,鼓楼区,468abc8fadee18a930621296,教育培训,其他
科技查新(图书馆),32.056779136070574,118.787413,汉口路22号图书馆F1层,江苏省,南京市,鼓楼区,c8a642dc7f82f8c3c3364412,教育培训,图书馆
采访部(图书馆),32.05623505123922,118.788112,汉口路22号图书馆F1层,江苏省,南京市,鼓楼区,cadebecae4780024d81318a1,教育培训,图书馆
南京师范大学随园校区-对外汉语教学与留学生教育资料中心,32.05630787725587,118.776725,宁海路122号南京师范大学随园校区,江苏省,南京市,鼓楼区,9e11683c031418920482c222,教育培训,图书馆
中国社会科学研究评价中心(图书馆),32.056153123761526,118.787619,汉口路22号图书馆F5层,江苏省,南京市,鼓楼区,bf9e65f2dc9e5cc3a8f729ae,教育培训,科研机构
南京大学鼓楼校区-办公室(图书馆),32.056168874742625,118.788054,汉口路22号图书馆F2层,江苏省,南京市,鼓楼区,1dc0ad89ae1bc099cf04efae,教育培训,其他
411(图书馆),32.05617307754551,118.787416,汉口路22号图书馆F4层,江苏省,南京市,鼓楼区,1e20216c32376ce56fc02cf2,教育培训,其他
南京艺术学院设计学院(图书分馆),32.0625339968628,118.759848,北京西路74号,江苏省,南京市,鼓楼区,1ce965e64f1aa69bf9dc858c,教育培训,高等院校
南京财经大学(福建路校区)-图一楼,32.087041698752245,118.767338,南京市鼓楼区洪庙巷南京财经大学(福建路校区),江苏省,南京市,鼓楼区,1913475ed14e06c8601c6780,教育培训,其他
乐派派玩具图书馆,32.04601978392516,118.7818,江苏省南京市鼓楼区华侨路街道汉中路6号国药大厦大众书局,江苏省,南京市,鼓楼区,13c2164d1f0142e5b3077d79,教育培训,图书馆
开发区图书馆,32.90085808288504,119.826203,泰州市兴化市向阳路江苏省兴化开发区西侧约220米,江苏省,泰州市,兴化市,62454f0634b3bed3ab059d02,教育培训,图书馆
安信图书馆,33.010043435476774,120.244685,江苏省泰州市兴化市人民路89号,江苏省,泰州市,兴化市,10f1a5e1e98a19c5d12dd647,教育培训,图书馆
尚书房,32.92675490709038,119.849595,泰州市兴化市昭阳路齿轮厂小区南侧约100米,江苏省,泰州市,兴化市,4e0875ef8c8a556dcd04ef1c,教育培训,培训机构
兴化图书馆(长安中路),32.947872173547786,119.851145,长安中路592号,江苏省,泰州市,兴化市,14076dee27996df702294f0c,教育培训,图书馆
弘书馆,32.93322627507474,119.84378,泰州市兴化市丰收路丁香花园东南侧约70米,江苏省,泰州市,兴化市,b9752532e96b1a04ae080f6c,教育培训,图书馆
图书馆,32.508310665196426,120.159333,罗塘街道南大街246号,江苏省,泰州市,姜堰区,6b0bc12c990eb7c93f9a5e2c,教育培训,图书馆
城市共享书房,32.50815901268016,120.159494,泰州市姜堰区六角池街泰州市第二人民医院西侧约90米,江苏省,泰州市,姜堰区,26fd79cc0f643f6949fc8dc3,教育培训,图书馆
城市共享书房,32.512232791473636,120.132337,泰州市姜堰区上海路泰州市姜堰区政府西侧约70米,江苏省,泰州市,姜堰区,c36e328ee35c7b7149fc8d56,教育培训,图书馆
泰州图书馆,32.448218202217724,119.930487,鼓楼南路295号,江苏省,泰州市,海陵区,e5587ebbdd3a0350ab059d44,教育培训,图书馆
海陵图书馆,32.4907837663231,119.932249,泰州市海陵区税务桥东街2号,江苏省,泰州市,海陵区,230ed03153be4e9ebadf8f8e,教育培训,图书馆
泰州市图书馆24小时自助馆,32.44834224935258,119.930567,鼓楼南路295号泰州市图书馆,江苏省,泰州市,海陵区,cfd11fc321fa55f900ff2da1,教育培训,图书馆
泰州职业技术学院新校区图书馆,32.378663265015845,119.897868,天星路8号,江苏省,泰州市,海陵区,e7436514f0857d6ba1d23097,教育培训,图书馆
泰州图书馆(稻河分馆),32.49941495171516,119.921237,泰州市海陵区工人路泰州市沈毅中学东南侧约170米,江苏省,泰州市,海陵区,edfd7713545d0599acee7a1f,教育培训,图书馆
泰州书房,32.49813634149605,119.921351,江苏省泰州市海陵区东进西路6号,江苏省,泰州市,海陵区,5f750b77cef44302acb22a8b,教育培训,图书馆
南京理工大学泰州科技学院-图书馆,32.46978706013312,119.947493,江苏省泰州市海陵区济川东路91号,江苏省,泰州市,海陵区,645912979d80a253246e98af,教育培训,图书馆
泰州市人民医院-图书馆,32.487312307501426,119.924923,迎春路210号泰州市人民医院北院住院部大楼17层,江苏省,泰州市,海陵区,d15fd908326e929577026978,教育培训,图书馆
华诚图书馆,32.378177149989575,119.898388,泰州市海陵区医药学院路6号,江苏省,泰州市,海陵区,3b004f60432b686846e27431,教育培训,图书馆
江苏农牧科技职业学院图书馆,32.460078203219545,119.947773,凤凰东路8号,江苏省,泰州市,海陵区,86c5fceb567937e421022088,教育培训,图书馆
彩云居新图书馆,32.44825127752743,119.930881,江苏省泰州市海陵区鼓楼南路286号,江苏省,泰州市,海陵区,027821ab7b3e7d8cc4f50dd5,教育培训,图书馆
泰州技师学院新区-图书馆,32.48225366574314,119.864543,龙轩路9号,江苏省,泰州市,海陵区,8928b68cdaf4c227d23ce34d,教育培训,图书馆
靖江市图书馆,32.01873348624848,120.277663,骥江东路160号,江苏省,泰州市,靖江市,f449c899f50fd230b04c4942,教育培训,图书馆
容湖书房,31.983474529417325,120.285057,泰州市靖江市阳光大道马洲公园,江苏省,泰州市,靖江市,34ce5dc12a8a69b16c476043,教育培训,图书馆
常州大学怀德学院图书馆,32.045342583850505,120.390386,江苏省泰州市靖江市常州大学怀德学院,江苏省,泰州市,靖江市,9f811c58b4df150bb45f1e68,教育培训,图书馆
东兴图书馆,31.98184698472566,120.164834,江苏省泰州市靖江市东兴镇政府,江苏省,泰州市,靖江市,9dcf5967b15c1fed364aae17,教育培训,图书馆
黄桥图书馆,32.243314564737204,120.23866,福慧禅寺(珠巷东),江苏省,泰州市,泰兴市,74d9aa87cfca5e7d0b1cc7cf,教育培训,图书馆
泰州市高港区图书馆,32.31783380510681,119.889601,泰州市高港区府东路泰州市口岸中心小学北侧约60米,江苏省,泰州市,高港区,34e48508358d479fd8d89170,教育培训,图书馆
城市书房(蔡滩社区),32.316620176288936,119.884019,泰州市高港区金港南路银杏苑东南侧约70米,江苏省,泰州市,高港区,20e1a64adc015ef1d81318f1,教育培训,图书馆
城市书房,32.32986353429086,119.888192,江苏省泰州市高港区S231辅路,江苏省,泰州市,高港区,70539a120c70d3a2c61e51c3,教育培训,图书馆
溧阳市图书馆,31.41201330317485,119.491671,冮苏省溧阳市溧城镇育才路55号,江苏省,常州市,溧阳市,d991e1169b4f62281e389481,教育培训,图书馆
溧阳市图书馆安顺分馆,31.41388013498127,119.499189,江苏省常州市溧阳市安顺路1号,江苏省,常州市,溧阳市,dbacce19ec4a7bb44207c1b1,教育培训,图书馆
汇香坊(No:1986店),31.425329490117203,119.487872,天目路8号金鹰国际购物中心B1,江苏省,常州市,溧阳市,37a3e312ec0ae3f786420e3f,教育培训,图书馆
上兴镇博学图书馆,31.53005395165397,119.27505,上兴镇综合文化服务中心一楼,江苏省,常州市,溧阳市,ea312953ff5ddb3a57bfffb1,教育培训,图书馆
中国茗俗茶文化博览馆,31.455606183124246,119.442653,中关村创智园1号楼,江苏省,常州市,溧阳市,aaa6006ccefc9840e9f853ec,教育培训,其他
常州市图书馆,31.807358679860375,119.978676,江苏省常州市新北区锦绣路2号常州文化广场,江苏省,常州市,新北区,e38cb891cc23045d0482c2d1,教育培训,图书馆
常州工学院图书馆(巫山路校区),31.81683003987163,119.99974,江苏省常州市新北区巫山路1号常州工学院新北校区内,江苏省,常州市,新北区,7e3fe5dd06b620e750e5c517,教育培训,图书馆
河海大学(常州校区)-图书馆,31.82060002047631,119.986607,河海大学常州校区内,江苏省,常州市,新北区,cd9d05dd2285d1b685420eca,教育培训,图书馆
府琛花园阅览室,31.818959422136547,119.981341,常州市新北区安莉芳路太阳花园南侧约130米,江苏省,常州市,新北区,0739f4de62483e25f82213c0,教育培训,其他
常州图书馆(三井分馆),31.82136275328341,119.95836,江苏省常州市新北区秦岭路1-1号三井街道文体活动中心2楼,江苏省,常州市,新北区,a49325613649b5c29c09f787,教育培训,图书馆
东书房(万达广场新北店),31.820038333750297,119.976576,常州市新北区通江中路88号万达广场F6,江苏省,常州市,新北区,b6b5e13b9aeabf4c03ec01da,教育培训,培训机构
天宁区图书馆,31.757543432512023,119.99046,天宁区安信颐和公寓1-1,江苏省,常州市,天宁区,0efd9d9d657c799f6b49f3c2,教育培训,图书馆
二十四中学图书馆,31.776995289842677,119.974111,罗汉路9号,江苏省,常州市,天宁区,7cdef3ef0f917037b31e3664,教育培训,图书馆
气味图书馆(九洲新世界广场店),31.76725090698708,119.956442,常州市天宁区兰陵北路999号九洲新世界广场F2,江苏省,常州市,天宁区,dae810eab74557a425e0a05f,教育培训,图书馆
崇文馆爱阅读,31.769399157269692,119.987291,常州市天宁区武青路东坡雅居,江苏省,常州市,天宁区,1b01ea5bfc96d0252bb97c42,教育培训,其他
常州图书馆兰陵分馆,31.763982575576264,119.962255,常州市天宁区双浦路兰陵小学东侧,江苏省,常州市,天宁区,47402fe840a60d3d95ca07cf,教育培训,图书馆
郑陆24小时智能自助图书馆,31.81994066594011,120.085248,江苏省常州市天宁区舜杰路3号,江苏省,常州市,天宁区,41d30819f5feac2ad2f49eec,教育培训,图书馆
秋白书苑,31.802920512839037,119.90405,常州市钟楼区茶花路钟楼区人民政府西南侧约250米,江苏省,常州市,钟楼区,7ac09eb25fef61b5085cb3da,教育培训,图书馆
常州市荆川小学-钟楼区图书馆,31.764901795130836,119.926306,荆川路86号常州市荆川小学,江苏省,常州市,钟楼区,ee095d8c90742fd3e21103ac,教育培训,图书馆
爱阅英文图书馆,31.78604128038901,119.96303,江苏省常州市钟楼区京城豪苑267号商铺,江苏省,常州市,钟楼区,1d9108cd81f3ff685b109313,教育培训,图书馆
常州图书馆上书房分馆,31.770514663029548,119.929561,江苏省常州市钟楼区清潭西路上书房内,江苏省,常州市,钟楼区,582a67c5733cfd4358f6beaa,教育培训,图书馆
美的旭辉天赋书院,31.7942012240297,119.900015,常州市钟楼区宝龙广场星巴克旁,江苏省,常州市,钟楼区,6c4973f38121c471631809c2,教育培训,图书馆
常州图书馆城市书房,31.795191110342802,119.917895,常州市钟楼区龙星路新城·香悦半岛东北侧约40米,江苏省,常州市,钟楼区,902446d966851e5161685827,教育培训,图书馆
北港街道文化共享中心,31.803114213475588,119.904229,北港街道凯尔枫尚东门商铺15-1、15-3号,江苏省,常州市,钟楼区,12145448c1131bb435b06c38,教育培训,图书馆
乐想童年,31.780408210339857,119.960492,江苏省常州市钟楼区莱蒙北区8-315号,江苏省,常州市,钟楼区,16af10fe115fb3c6f6eafcf8,教育培训,图书馆
金坛图书馆,31.72313741057438,119.595449,清风路2号,江苏省,常州市,金坛区,1b9e01ab6c033d8714c8f6ae,教育培训,图书馆
文清图书馆,31.736196773033388,119.569298,常州市金坛区龙山东路与龙山路交叉路口往东约190米,江苏省,常州市,金坛区,d16ad25837d475bce8e58251,教育培训,图书馆
武进图书馆,31.698526912936895,119.945901,常州市武进区延政中大道65号,江苏省,常州市,武进区,5b25f446e312d59711293591,教育培训,图书馆
常州大学-图书馆,31.68539024113922,119.963349,江苏省常州市武进区湖塘镇滆湖路21号,江苏省,常州市,武进区,09185c5605dcc520f0193791,教育培训,图书馆
江苏理工学院-图书馆(行知路),31.752486616406504,119.925708,江苏省常州市武进区中吴大道1801江苏理工学院,江苏省,常州市,武进区,1cea15a9030eb0c406fef586,教育培训,图书馆
南夏墅图书馆,31.633324836316085,119.947793,常州市武进区后街与南塘路交叉路口往东北约90米,江苏省,常州市,武进区,41d8db062af9460103ec013a,教育培训,图书馆
阳湖书房,31.698755439441683,119.952531,常州市武进区延政中大道金色南都国际大酒店南侧约240米,江苏省,常州市,武进区,0e3e7fc02f7e7a68c6effb42,教育培训,图书馆
常州图书馆中国南车戚墅堰公司分馆,31.728624637907956,120.062889,江苏省常州市武进区戚厂工房一区66幢4,江苏省,常州市,武进区,2d846e5660a27960a8f729bb,教育培训,图书馆
洛阳镇图书馆,31.642586445146264,120.07549,常州市武进区永安里路武进区洛阳初级中学,江苏省,常州市,武进区,184476ef3b0a84c7018972c9,教育培训,图书馆
常州信息职业技术学院-图书馆,31.680418165826396,119.96157,武进经济开发区鸣新路111号,江苏省,常州市,武进区,8c31b7b7231663ad220262d5,教育培训,图书馆
湖畔小站,31.69274932577693,119.869748,江苏省常州市武进区凤苑路127号,江苏省,常州市,武进区,59f18267af76a08b3517dce9,教育培训,图书馆
南车戚墅堰机车有限公司图书馆,31.728645514585455,120.062815,常州市武进区常戚路三区综合市场北侧约180米,江苏省,常州市,武进区,641653680d0943bcc91b95c4,教育培训,图书馆
社区图书室,31.60742721343983,120.067435,上马路15号,江苏省,常州市,武进区,0b95228e6ce77d6bf7231039,教育培训,图书馆
卢西村大道阅览室,31.688218508658345,119.905962,常州市武进区卢南街武进牛塘文汇小学南侧约180米,江苏省,常州市,武进区,bad9579f4236f03ddbd89152,教育培训,图书馆
前黄镇寨桥图书馆阅览室,31.58048258527716,119.904269,振兴路23,江苏省,常州市,武进区,b692718f7f4ae5cc9900507e,教育培训,图书馆
江苏电大武进学院南校区-肇俊图书馆,31.629107089952846,119.949926,常州市武进区南夏墅东街南夏墅育英新市民小学东北侧约140米,江苏省,常州市,武进区,9b853aca34f05556ad04570c,教育培训,图书馆
约读书房(南夏墅校区),31.6332131968747,119.944983,常州市武进区后街武进人民医院(高新区院区)东侧约180米,江苏省,常州市,武进区,69e8b0ee3aa911449cec2b91,教育培训,培训机构
博学书苑,31.603839535716986,120.004633,常州市武进区礼政路政平农贸市场东侧约90米,江苏省,常州市,武进区,e0e67294b848e0c7f8dc8529,其他,其他
无锡市滨湖区图书馆,31.527983096748265,120.291062,江苏省无锡市滨湖区金城西路500号,江苏省,无锡市,滨湖区,6e5289bf32d8650109b93a20,教育培训,图书馆
江南大学-图书馆,31.48427994741467,120.279678,江苏省无锡市滨湖区蠡湖大道1800号江南大学,江苏省,无锡市,滨湖区,061581500df246795fbe8662,教育培训,图书馆
册之丘,31.48432990838954,120.312438,江苏省无锡市滨湖区立信大道与吴都路交叉口,江苏省,无锡市,滨湖区,c34836026014abeeb817e794,教育培训,图书馆
无锡商业职业技术学院九龙校区-图书馆,31.563300308199498,120.179207,钱胡路809号,江苏省,无锡市,滨湖区,0dc3d82db089691274e5b6bd,教育培训,图书馆
无锡职业技术学院-图书馆,31.497934292276483,120.27826,高浪西路1600号无锡职业技术学院,江苏省,无锡市,滨湖区,5ce2637d8c573c2fae31e542,教育培训,图书馆
无锡市图书馆(标准分馆),31.53993848268179,120.275884,江苏省无锡市滨湖区中南西路500号无锡市标准化研究中心内,江苏省,无锡市,滨湖区,722e0135d80a9b0d3717dc39,教育培训,图书馆
无锡市图书馆(万科社区分馆),31.499826612136758,120.291903,无锡市滨湖区生达路无锡翰锦酒店南侧约170米,江苏省,无锡市,滨湖区,7c40bbf18214f7469de3215d,教育培训,图书馆
幼儿公益图书馆,31.564632028818995,120.279604,无锡市滨湖区甜爱路中城誉品,江苏省,无锡市,滨湖区,ca4c1f92c6b4d91f2f473350,教育培训,图书馆
南泉图书馆,31.435456602381574,120.269911,南苑宾馆旁,江苏省,无锡市,滨湖区,a2cbaf96c91b8d37d22dd684,教育培训,图书馆
资料室,31.548031418710718,120.290742,湖滨路651号锦绣大厦6层,江苏省,无锡市,滨湖区,ca1b7c0607cd7c1ce81e97ac,教育培训,图书馆
无锡市佛学图书馆,31.426525188637424,120.10217,无锡市滨湖区马山镇古竹路灵山胜境内,江苏省,无锡市,滨湖区,120b73eb6d4a3a784c3a598e,教育培训,图书馆
无锡山水丽景酒店-书吧,31.51079024605353,120.25094,山水东路19号无锡山水丽景酒店,江苏省,无锡市,滨湖区,b1bdf3f812ef85970a1cc70d,教育培训,图书馆
善生阅读馆(三号馆),31.495103277160176,120.303153,无锡市滨湖区南蒋路与信成道交叉路口往北约110米,江苏省,无锡市,滨湖区,4b735957c1daebe44e6d46d1,教育培训,其他
无锡市滨湖区图书馆,31.527983096748265,120.291062,江苏省无锡市滨湖区金城西路500号,江苏省,无锡市,滨湖区,6e5289bf32d8650109b93a20,教育培训,图书馆
江南大学-图书馆,31.48427994741467,120.279678,江苏省无锡市滨湖区蠡湖大道1800号江南大学,江苏省,无锡市,滨湖区,061581500df246795fbe8662,教育培训,图书馆
册之丘,31.48432990838954,120.312438,江苏省无锡市滨湖区立信大道与吴都路交叉口,江苏省,无锡市,滨湖区,c34836026014abeeb817e794,教育培训,图书馆
无锡商业职业技术学院九龙校区-图书馆,31.563300308199498,120.179207,钱胡路809号,江苏省,无锡市,滨湖区,0dc3d82db089691274e5b6bd,教育培训,图书馆
无锡职业技术学院-图书馆,31.497934292276483,120.27826,高浪西路1600号无锡职业技术学院,江苏省,无锡市,滨湖区,5ce2637d8c573c2fae31e542,教育培训,图书馆
无锡市图书馆(标准分馆),31.53993848268179,120.275884,江苏省无锡市滨湖区中南西路500号无锡市标准化研究中心内,江苏省,无锡市,滨湖区,722e0135d80a9b0d3717dc39,教育培训,图书馆
无锡市图书馆(万科社区分馆),31.499826612136758,120.291903,无锡市滨湖区生达路无锡翰锦酒店南侧约170米,江苏省,无锡市,滨湖区,7c40bbf18214f7469de3215d,教育培训,图书馆
幼儿公益图书馆,31.564632028818995,120.279604,无锡市滨湖区甜爱路中城誉品,江苏省,无锡市,滨湖区,ca4c1f92c6b4d91f2f473350,教育培训,图书馆
南泉图书馆,31.435456602381574,120.269911,南苑宾馆旁,江苏省,无锡市,滨湖区,a2cbaf96c91b8d37d22dd684,教育培训,图书馆
资料室,31.548031418710718,120.290742,湖滨路651号锦绣大厦6层,江苏省,无锡市,滨湖区,ca1b7c0607cd7c1ce81e97ac,教育培训,图书馆
无锡市佛学图书馆,31.426525188637424,120.10217,无锡市滨湖区马山镇古竹路灵山胜境内,江苏省,无锡市,滨湖区,120b73eb6d4a3a784c3a598e,教育培训,图书馆
无锡山水丽景酒店-书吧,31.51079024605353,120.25094,山水东路19号无锡山水丽景酒店,江苏省,无锡市,滨湖区,b1bdf3f812ef85970a1cc70d,教育培训,图书馆
善生阅读馆(三号馆),31.495103277160176,120.303153,无锡市滨湖区南蒋路与信成道交叉路口往北约110米,江苏省,无锡市,滨湖区,4b735957c1daebe44e6d46d1,教育培训,其他
无锡市滨湖区图书馆,31.527983096748265,120.291062,江苏省无锡市滨湖区金城西路500号,江苏省,无锡市,滨湖区,6e5289bf32d8650109b93a20,教育培训,图书馆
江南大学-图书馆,31.48427994741467,120.279678,江苏省无锡市滨湖区蠡湖大道1800号江南大学,江苏省,无锡市,滨湖区,061581500df246795fbe8662,教育培训,图书馆
册之丘,31.48432990838954,120.312438,江苏省无锡市滨湖区立信大道与吴都路交叉口,江苏省,无锡市,滨湖区,c34836026014abeeb817e794,教育培训,图书馆
无锡商业职业技术学院九龙校区-图书馆,31.563300308199498,120.179207,钱胡路809号,江苏省,无锡市,滨湖区,0dc3d82db089691274e5b6bd,教育培训,图书馆
无锡职业技术学院-图书馆,31.497934292276483,120.27826,高浪西路1600号无锡职业技术学院,江苏省,无锡市,滨湖区,5ce2637d8c573c2fae31e542,教育培训,图书馆
无锡市图书馆(标准分馆),31.53993848268179,120.275884,江苏省无锡市滨湖区中南西路500号无锡市标准化研究中心内,江苏省,无锡市,滨湖区,722e0135d80a9b0d3717dc39,教育培训,图书馆
无锡市图书馆(万科社区分馆),31.499826612136758,120.291903,无锡市滨湖区生达路无锡翰锦酒店南侧约170米,江苏省,无锡市,滨湖区,7c40bbf18214f7469de3215d,教育培训,图书馆
幼儿公益图书馆,31.564632028818995,120.279604,无锡市滨湖区甜爱路中城誉品,江苏省,无锡市,滨湖区,ca4c1f92c6b4d91f2f473350,教育培训,图书馆
南泉图书馆,31.435456602381574,120.269911,南苑宾馆旁,江苏省,无锡市,滨湖区,a2cbaf96c91b8d37d22dd684,教育培训,图书馆
资料室,31.548031418710718,120.290742,湖滨路651号锦绣大厦6层,江苏省,无锡市,滨湖区,ca1b7c0607cd7c1ce81e97ac,教育培训,图书馆
无锡市佛学图书馆,31.426525188637424,120.10217,无锡市滨湖区马山镇古竹路灵山胜境内,江苏省,无锡市,滨湖区,120b73eb6d4a3a784c3a598e,教育培训,图书馆
无锡山水丽景酒店-书吧,31.51079024605353,120.25094,山水东路19号无锡山水丽景酒店,江苏省,无锡市,滨湖区,b1bdf3f812ef85970a1cc70d,教育培训,图书馆
善生阅读馆(三号馆),31.495103277160176,120.303153,无锡市滨湖区南蒋路与信成道交叉路口往北约110米,江苏省,无锡市,滨湖区,4b735957c1daebe44e6d46d1,教育培训,其他
宜兴市尔园文艺图书馆,31.364844337499218,119.821198,江苏省无锡市宜兴市宜兴徐悲鸿纪念馆(世纪大桥东150米),江苏省,无锡市,宜兴市,408fabe73a44a0cb1f38941f,教育培训,图书馆
无锡工艺职业技术学院-图书馆,31.342012784861968,119.841267,宜城街道荆邑南路99号,江苏省,无锡市,宜兴市,b6166d580821896800ec0102,教育培训,图书馆
图书馆,31.353377873610352,119.821316,无锡市宜兴市教育西路宜兴市实验中学(北校区),江苏省,无锡市,宜兴市,0ef8558e183d7e580f0a7059,教育培训,图书馆
能力风暴机器人活动中心(图书馆店),31.35972190648022,119.860543,江苏省无锡市宜兴市东汣大道文化中心商业街9-10号,江苏省,无锡市,宜兴市,b5c154b4b303f28f8e772797,教育培训,培训机构
无锡市图书馆,31.5494601504089,120.31234,无锡市梁溪区钟书路1号,江苏省,无锡市,梁溪区,cf05fffca02052a8a7c7566b,教育培训,图书馆
江阴市图书馆,31.922578096281946,120.304232,江苏省无锡市江阴市澄江中路128号天华文化中心,江苏省,无锡市,江阴市,0226d4bfbe19de6d43ab9af7,教育培训,图书馆
新吴区图书馆,31.55155184431978,120.381743,江苏省无锡市新吴区行创四路111号民生大厦5楼,江苏省,无锡市,新吴区,c5a27e7d136988fb4557262c,教育培训,图书馆
梁溪区图书馆,31.587433229708267,120.324744,江苏省无锡市梁溪区人民东路328号,江苏省,无锡市,梁溪区,4a926d1b0fa1e07482a12e73,教育培训,图书馆
惠山区图书馆,31.67932455986905,120.303537,江苏省无锡市惠山区政和大道187号,江苏省,无锡市,惠山区,48eb005824ada2ad2fe67b3f,教育培训,图书馆
无锡市滨湖区图书馆,31.527983096748265,120.291062,江苏省无锡市滨湖区金城西路500号,江苏省,无锡市,滨湖区,6e5289bf32d8650109b93a20,教育培训,图书馆
梁溪区文化馆图书馆分馆,31.607658523184867,120.29691,江苏省无锡市梁溪区民丰路200号锋尚文创中心A幢3楼,江苏省,无锡市,梁溪区,8e89b83302489158fa42b29e,教育培训,图书馆
无锡图书馆24小时自助图书馆,31.549878976575013,120.312072,钟书路1号图书馆一楼,江苏省,无锡市,梁溪区,01cf25893ae15525b320a8a2,教育培训,图书馆
江南大学-图书馆,31.48427994741467,120.279678,江苏省无锡市滨湖区蠡湖大道1800号江南大学,江苏省,无锡市,滨湖区,061581500df246795fbe8662,教育培训,图书馆
无锡市图书馆(标准分馆),31.53993848268179,120.275884,江苏省无锡市滨湖区中南西路500号无锡市标准化研究中心内,江苏省,无锡市,滨湖区,722e0135d80a9b0d3717dc39,教育培训,图书馆
无锡图书中心(物产大酒店东北),31.57669580348722,120.302279,江苏省无锡市梁溪区人民中路185号,江苏省,无锡市,梁溪区,f4460918703eab73b11e3650,教育培训,图书馆
无锡高新区(新吴区)图书馆软件园分馆,31.490213325579717,120.378335,江苏省无锡市新吴区震泽路18号无锡国家软件园水瓶座2楼,江苏省,无锡市,新吴区,44e000400361dff9100daa54,教育培训,图书馆
洛社图书馆,31.646481058176228,120.194041,无锡市惠山区人民中路144号,江苏省,无锡市,惠山区,f3afcffa79f4527de215f9e2,教育培训,图书馆
册之丘,31.48432990838954,120.312438,江苏省无锡市滨湖区立信大道与吴都路交叉口,江苏省,无锡市,滨湖区,c34836026014abeeb817e794,教育培训,图书馆
无锡新区图书馆创业中心分馆,31.48170233199468,120.382142,江苏省无锡市新吴区新安街道清源路东南大学530大厦C幢(喜士多超市对面),江苏省,无锡市,新吴区,de72e7d7f444e3ab5abbbcdf,教育培训,图书馆
图书馆,31.57332213935221,120.503225,无锡市锡山区德安街与厚乐路交叉路口往南约100米,江苏省,无锡市,锡山区,2f7d68da49fe085c4f3a59a7,教育培训,图书馆
鸿山图书馆,31.495717285769153,120.486875,新吴区鸿运街113正西方向57米,江苏省,无锡市,新吴区,6bce7ac6a63390f130169b70,教育培训,图书馆
江阴少儿图书馆,31.922713935969302,120.305776,澄江中路128号天华文化中心,江苏省,无锡市,江阴市,cf3f28d0220fa6eed72ce2d0,教育培训,图书馆
无锡市图书馆分馆(乐都汇店),31.590559779580207,120.319933,无锡市梁溪区广瑞路399号乐都汇F2,江苏省,无锡市,梁溪区,c091d3d11af67c3a1df74d3a,教育培训,图书馆
无锡市图书馆(万科社区分馆),31.499826612136758,120.291903,无锡市滨湖区生达路无锡翰锦酒店南侧约170米,江苏省,无锡市,滨湖区,7c40bbf18214f7469de3215d,教育培训,图书馆
长安街道图书馆,31.67931837740512,120.327886,江苏省无锡市惠山区智慧路2号梦享城商业广场3楼,江苏省,无锡市,惠山区,68c71af9e6463fbe132935b4,教育培训,图书馆
无锡图书馆(上马墩分馆),31.582326429200386,120.332224,上马墩塔影二村56-1号二楼,江苏省,无锡市,梁溪区,e401ca69ab914adc30621267,教育培训,图书馆
瞿秋白图书馆,31.56393137468249,120.352592,无锡市新吴区叙丰路无锡市江溪小学,江苏省,无锡市,新吴区,aa71a2571222b4f1fbdc8576,教育培训,图书馆
图书馆,31.474181297998364,120.457186,江苏省无锡市新吴区薛典路硕放文化中心三楼,江苏省,无锡市,新吴区,3a496725a62b4c0014c8f634,教育培训,图书馆
南书房24小时图书馆(梁溪店),31.56311095368001,120.318311,江苏省无锡市梁溪区南长街206号,江苏省,无锡市,梁溪区,1575d8d61dadf47cbd4842b6,教育培训,图书馆
东南大学无锡分校图书馆,31.484109526674477,120.382396,无锡市新吴区硅谷大道东南大学(无锡分校),江苏省,无锡市,新吴区,06629b6d702e6fe94207c1c9,教育培训,图书馆
新吴区图书馆少儿分馆,31.56583551356706,120.374761,江苏省无锡市新吴区江溪路青少年活动中心2楼,江苏省,无锡市,新吴区,a9d85741c6346e0a03ff2d71,教育培训,图书馆
安吉尔公益图书馆,31.549810490224054,120.43073,无锡市新吴区泰伯大道香梅人家,江苏省,无锡市,新吴区,8835b4868c91e164c16c1415,教育培训,图书馆
无锡商业职业技术学院九龙校区-图书馆,31.563300308199498,120.179207,钱胡路809号,江苏省,无锡市,滨湖区,0dc3d82db089691274e5b6bd,教育培训,图书馆
江阴长江世纪图书馆,31.90850844181591,120.246865,无锡市江阴市通惠路五星公园(文富北路)西侧约70米,江苏省,无锡市,江阴市,44a24df8ae18348b6b49f307,教育培训,图书馆
吴韵书香24小时自助图书驿站,31.47798261502396,120.394417,无锡市新吴区清源路新安花苑-二区西北侧约70米,江苏省,无锡市,新吴区,e5cbc97b2afed1452b201a64,教育培训,图书馆
江阴市图书馆南闸分馆,31.851382055760865,120.261018,江苏省无锡市江阴市白玉路259-1,江苏省,无锡市,江阴市,6c3e60dfa1540e217069d3dc,教育培训,图书馆
善生阅读馆(二号馆),31.56736036953687,120.300998,江苏省无锡市梁溪区西水东城21-1-5,江苏省,无锡市,梁溪区,7aa341da1f860700a2a9346e,教育培训,图书馆
远望图书馆,31.922148005101562,120.276249,无锡市江阴市虹桥北路江阴市虹桥小学东北侧约80米,江苏省,无锡市,江阴市,f40a0c1df7cf861621026224,教育培训,图书馆
无锡职业技术学院-图书馆,31.497934292276483,120.27826,高浪西路1600号无锡职业技术学院,江苏省,无锡市,滨湖区,5ce2637d8c573c2fae31e542,教育培训,图书馆
无锡市梁溪区图书馆-自助图书馆,31.587401751403064,120.324887,江苏省无锡市梁溪区人民东路无锡市民信息资源管理中心,江苏省,无锡市,梁溪区,839f1b7c30b45316f7b916b8,教育培训,图书馆
北七房图书馆,31.718054387127502,120.241543,江苏省无锡市惠山区北洲路,江苏省,无锡市,惠山区,78dc620661a8285b86420e38,教育培训,图书馆
江溪街道万裕苑第一社区-乐购爱心图书室,31.56417485193061,120.388529,江苏省无锡市新吴区万裕苑(新光路南90米),江苏省,无锡市,新吴区,25b7790ba7f8e4d16240a975,教育培训,图书馆
云亭街道图书馆,31.866124383705753,120.346159,无锡市江阴市云台路云亭镇人民政府西北侧约200米,江苏省,无锡市,江阴市,8f15d07aa593db064afc8d41,教育培训,图书馆
鸿山镇图书馆,31.483968664295084,120.501702,无锡市新吴区后宅中路双象大酒店东侧约140米,江苏省,无锡市,新吴区,f00e57d1809e65ddb64f54d0,教育培训,图书馆
幼儿公益图书馆,31.564632028818995,120.279604,无锡市滨湖区甜爱路中城誉品,江苏省,无锡市,滨湖区,ca4c1f92c6b4d91f2f473350,教育培训,图书馆
无锡惠山寺佛教图书馆,31.581802540859798,120.275903,无锡市梁溪区惠山直街1号惠山寺内,江苏省,无锡市,梁溪区,9fcc8e70772f8dc76fa3cc6e,教育培训,图书馆
南泉图书馆,31.435456602381574,120.269911,南苑宾馆旁,江苏省,无锡市,滨湖区,a2cbaf96c91b8d37d22dd684,教育培训,图书馆
江阴图书馆少年宫分部,31.89272926136913,120.295892,江苏省无锡市江阴市绮山路弘扬·鹦鹉之城2层,江苏省,无锡市,江阴市,ae18bd246731cc723913fd38,教育培训,图书馆
宜兴市尔园文艺图书馆,31.364844337499218,119.821198,江苏省无锡市宜兴市宜兴徐悲鸿纪念馆(世纪大桥东150米),江苏省,无锡市,宜兴市,408fabe73a44a0cb1f38941f,教育培训,图书馆
24小时自助图书馆,31.79875106305167,120.233608,江苏省无锡市江阴市月城镇民生公园东(水秀路北),江苏省,无锡市,江阴市,543e604530962be4d12dd61f,教育培训,图书馆
江阴市月城镇图书馆,31.803461293957472,120.230638,无锡市江阴市周月线江阴市月城中学东侧约150米,江苏省,无锡市,江阴市,b48532dd8017e01943ab9a61,教育培训,图书馆
南长区图书馆古运河分馆,31.557835154073352,120.323804,无锡市梁溪区南长街N1955南下塘文化创意园南侧约80米,江苏省,无锡市,梁溪区,0c91666ba64dedf68f1a89ec,教育培训,图书馆
木子书香阅读馆,31.550021005380685,120.299648,无锡市梁溪区阳光横街无锡市江南中学(阳光校区)北侧约60米,江苏省,无锡市,梁溪区,8cc041ea99591b185e17c332,教育培训,图书馆
资料室,31.548031418710718,120.290742,湖滨路651号锦绣大厦6层,江苏省,无锡市,滨湖区,ca1b7c0607cd7c1ce81e97ac,教育培训,图书馆
江苏信息职业技术学院-图书馆,31.570947396143666,120.174997,江苏省无锡市惠山区钱藕路1号,江苏省,无锡市,惠山区,e9e0e357ac4e91e2eb1e9770,教育培训,图书馆
无锡工艺职业技术学院-图书馆,31.342012784861968,119.841267,宜城街道荆邑南路99号,江苏省,无锡市,宜兴市,b6166d580821896800ec0102,教育培训,图书馆
可可英文图书馆,31.9213725244986,120.302984,凤凰路30号凤凰大厦617室,江苏省,无锡市,江阴市,acef8f81c439cf68d1f49e0b,教育培训,图书馆
无锡市佛学图书馆,31.426525188637424,120.10217,无锡市滨湖区马山镇古竹路灵山胜境内,江苏省,无锡市,滨湖区,120b73eb6d4a3a784c3a598e,教育培训,图书馆
书趣屋,31.90266773380298,120.275952,无锡市江阴市剪金街34号禾家物业旁,江苏省,无锡市,江阴市,dcda7435700a42acab0dd848,教育培训,图书馆
无锡山水丽景酒店-书吧,31.51079024605353,120.25094,山水东路19号无锡山水丽景酒店,江苏省,无锡市,滨湖区,b1bdf3f812ef85970a1cc70d,教育培训,图书馆
能力风暴机器人活动中心(图书馆店),31.35972190648022,119.860543,江苏省无锡市宜兴市东汣大道文化中心商业街9-10号,江苏省,无锡市,宜兴市,b5c154b4b303f28f8e772797,教育培训,培训机构
图书馆,31.353377873610352,119.821316,无锡市宜兴市教育西路宜兴市实验中学(北校区),江苏省,无锡市,宜兴市,0ef8558e183d7e580f0a7059,教育培训,图书馆
善生阅读馆(三号馆),31.495103277160176,120.303153,无锡市滨湖区南蒋路与信成道交叉路口往北约110米,江苏省,无锡市,滨湖区,4b735957c1daebe44e6d46d1,教育培训,其他
清大学苑(陆桥店),31.79173097059791,120.46029,江苏省无锡市江阴市陆桥商城70号,江苏省,无锡市,江阴市,028c062bdbff0fdc16948e7a,教育培训,培训机构
月城村阅览室,31.809328079579444,120.242685,无锡市江阴市月城东路,江苏省,无锡市,江阴市,d5677f44afa60e610782c208,教育培训,其他
崇安大厦-电子阅览室,31.578038937652547,120.301165,解放西路369号崇安大厦10层,江苏省,无锡市,梁溪区,a1798c8f3e6f39ea9cec2bbc,教育培训,其他
亲亲悦读馆,31.602384918792485,120.350978,无锡市锡山区桐新路(中大诺卡小镇),江苏省,无锡市,锡山区,65f2c28a61a2c0ee97ec84c5,教育培训,培训机构
爱尔阅读馆,31.598458011907542,120.35635,无锡市锡山区柏庄路柏木南苑,江苏省,无锡市,锡山区,df342de88bf72efc5a109362,教育培训,培训机构
惠山区图书馆,31.67932455986905,120.303537,江苏省无锡市惠山区政和大道187号,江苏省,无锡市,惠山区,48eb005824ada2ad2fe67b3f,教育培训,图书馆
洛社图书馆,31.646481058176228,120.194041,无锡市惠山区人民中路144号,江苏省,无锡市,惠山区,f3afcffa79f4527de215f9e2,教育培训,图书馆
长安街道图书馆,31.67931837740512,120.327886,江苏省无锡市惠山区智慧路2号梦享城商业广场3楼,江苏省,无锡市,惠山区,68c71af9e6463fbe132935b4,教育培训,图书馆
北七房图书馆,31.718054387127502,120.241543,江苏省无锡市惠山区北洲路,江苏省,无锡市,惠山区,78dc620661a8285b86420e38,教育培训,图书馆
江苏信息职业技术学院-图书馆,31.570947396143666,120.174997,江苏省无锡市惠山区钱藕路1号,江苏省,无锡市,惠山区,e9e0e357ac4e91e2eb1e9770,教育培训,图书馆
江阴市图书馆,31.922578096281946,120.304232,江苏省无锡市江阴市澄江中路128号天华文化中心,江苏省,无锡市,江阴市,0226d4bfbe19de6d43ab9af7,教育培训,图书馆
江阴长江世纪图书馆,31.90850844181591,120.246865,无锡市江阴市通惠路五星公园(文富北路)西侧约70米,江苏省,无锡市,江阴市,44a24df8ae18348b6b49f307,教育培训,图书馆
江阴市图书馆南闸分馆,31.851382055760865,120.261018,江苏省无锡市江阴市白玉路259-1,江苏省,无锡市,江阴市,6c3e60dfa1540e217069d3dc,教育培训,图书馆
远望图书馆,31.922148005101562,120.276249,无锡市江阴市虹桥北路江阴市虹桥小学东北侧约80米,江苏省,无锡市,江阴市,f40a0c1df7cf861621026224,教育培训,图书馆
云亭街道图书馆,31.866124383705753,120.346159,无锡市江阴市云台路云亭镇人民政府西北侧约200米,江苏省,无锡市,江阴市,8f15d07aa593db064afc8d41,教育培训,图书馆
江阴图书馆少年宫分部,31.89272926136913,120.295892,江苏省无锡市江阴市绮山路弘扬·鹦鹉之城2层,江苏省,无锡市,江阴市,ae18bd246731cc723913fd38,教育培训,图书馆
24小时自助图书馆,31.79875106305167,120.233608,江苏省无锡市江阴市月城镇民生公园东(水秀路北),江苏省,无锡市,江阴市,543e604530962be4d12dd61f,教育培训,图书馆
江阴市月城镇图书馆,31.803461293957472,120.230638,无锡市江阴市周月线江阴市月城中学东侧约150米,江苏省,无锡市,江阴市,b48532dd8017e01943ab9a61,教育培训,图书馆
可可英文图书馆,31.9213725244986,120.302984,凤凰路30号凤凰大厦617室,江苏省,无锡市,江阴市,acef8f81c439cf68d1f49e0b,教育培训,图书馆
书趣屋,31.90266773380298,120.275952,无锡市江阴市剪金街34号禾家物业旁,江苏省,无锡市,江阴市,dcda7435700a42acab0dd848,教育培训,图书馆
清大学苑(陆桥店),31.79173097059791,120.46029,江苏省无锡市江阴市陆桥商城70号,江苏省,无锡市,江阴市,028c062bdbff0fdc16948e7a,教育培训,培训机构
月城村阅览室,31.809328079579444,120.242685,无锡市江阴市月城东路,江苏省,无锡市,江阴市,d5677f44afa60e610782c208,教育培训,其他
江阴少儿图书馆,31.922713935969302,120.305776,澄江中路128号天华文化中心,江苏省,无锡市,江阴市,cf3f28d0220fa6eed72ce2d0,教育培训,图书馆
太仓市图书馆,31.45902937735167,121.140352,江苏省苏州市太仓市上海东路100号,江苏省,苏州市,太仓市,ea07967b8da4f23facee7a53,教育培训,图书馆
浏河文化艺术中心(图书馆),31.513750340201504,121.284584,江苏省苏州市太仓市浏河镇东海路33号,江苏省,苏州市,太仓市,a3565d6b62054989c3364475,教育培训,图书馆
太仓图书馆,31.456745904925203,121.107463,苏州市太仓市人民北路太仓金陵花园酒店北侧约30米,江苏省,苏州市,太仓市,9a61c902fe98d0562cb96db3,教育培训,图书馆
沙溪镇图书分馆,31.567202095875132,121.072581,苏州市太仓市白云中路苏韵阁酒店北侧约220米,江苏省,苏州市,太仓市,3cafaa1b7dba421dc42ba12b,教育培训,图书馆
天镜湖24小时图书馆,31.427257182755927,121.136886,江苏省苏州市太仓市天镜湖,江苏省,苏州市,太仓市,c8a757fc9efc22c7a2a9348f,教育培训,图书馆
苏州健雄职业技术学院-图书馆,31.41512943992244,121.141201,苏州市太仓市健雄路苏州健雄职业技术学院,江苏省,苏州市,太仓市,15ee21f217c7b46eaecb665b,教育培训,图书馆
太仓图书馆城厢分馆,31.44948995211993,121.103373,江苏省苏州市太仓市城厢镇长春南路238号便民服务中心三楼,江苏省,苏州市,太仓市,4e56d29631431f014107c1c7,教育培训,图书馆
吴健雄图书馆,31.414871881385743,121.141412,苏州市太仓市健雄路苏州健雄职业技术学院,江苏省,苏州市,太仓市,888b405f4b12e807afee7a8e,教育培训,图书馆
汇金大厦市图书馆,31.461038170005914,121.140423,江苏省苏州市太仓市上海东路168号8幢汇金大厦市图书馆,江苏省,苏州市,太仓市,6f327315aec43cbb9d9d6839,教育培训,图书馆
沙溪古镇区-阅览室,31.568164135689575,121.069663,苏州市太仓市中市街与长寿南路交叉口东北50米沙溪古镇景区内,江苏省,苏州市,太仓市,745c891a2d3cbb313686f423,教育培训,图书馆
太仓市明德高级中学-图书楼,31.46116328595896,121.125369,苏州市太仓市东仓南路太仓市明德高级中学,江苏省,苏州市,太仓市,a7ea119b044e0a23b5f42f9e,教育培训,图书馆
太仓市少年儿童图书馆,31.45864684656379,121.140675,上海东路100号,江苏省,苏州市,太仓市,dc58f7e2b76d3420df1e5293,教育培训,图书馆
苏州第二图书馆,31.372919342032894,120.602537,苏州市相城区广济北路2383号,江苏省,苏州市,相城区,e4dc4eaf69cc37b971210b5e,教育培训,图书馆
昆山图书馆,31.38478729111899,120.976162,江苏省苏州市昆山前进中路353号瑞士大酒店旁边,江苏省,苏州市,昆山市,1bf85b2586d20ba6a1a9340f,教育培训,图书馆
苏州图书馆,31.30221481643944,120.630391,苏州市姑苏区人民路858号,江苏省,苏州市,姑苏区,e3451f20d02cbf3dafee7adc,教育培训,图书馆
常熟图书馆,31.647598755251725,120.746683,江苏省苏州市常熟市书院街27号,江苏省,苏州市,常熟市,d949470317efed749868b44a,教育培训,图书馆
吴江图书馆,31.152945586102224,120.648183,苏州市吴江区松陵镇中山南路1979号,江苏省,苏州市,吴江区,2fd2beab7b3938527adbd2d7,教育培训,图书馆
太仓市图书馆,31.45902937735167,121.140352,江苏省苏州市太仓市上海东路100号,江苏省,苏州市,太仓市,ea07967b8da4f23facee7a53,教育培训,图书馆
苏州市吴中区图书馆,31.26854921119935,120.637771,东苑路1号,江苏省,苏州市,吴中区,3fd8ea260e874eb14bcc4a5a,教育培训,图书馆
苏州图书馆(狮山分馆),31.29893238141961,120.566605,苏州市虎丘区金山路33号居委会2层,江苏省,苏州市,虎丘区,721d9c45a321250e27d2bb36,教育培训,图书馆
张家港图书馆,31.869637076202512,120.581839,江苏省苏州市张家港市杨舍镇老宅路193号,江苏省,苏州市,张家港市,6f91e20e79a9160717948e46,教育培训,图书馆
苏州高新区文体中心-图书馆,31.33961770174643,120.425894,江苏省苏州市虎丘区太湖大道999号,江苏省,苏州市,虎丘区,7e9a1290bc3ce95b52e5c53b,教育培训,图书馆
张家港市少年儿童图书馆(长安中路),31.867245201785998,120.547655,江苏省苏州市张家港市长安中路54号,江苏省,苏州市,张家港市,88487372f3dc30522cb17ec6,教育培训,图书馆
苏州图书馆(姑苏区分馆),31.311290632487502,120.582675,江苏省苏州市姑苏区西环路2115号姑苏区市民活动中心2楼,江苏省,苏州市,姑苏区,3810c8799729ad889d09f7ba,教育培训,图书馆
苏州独墅湖图书馆,31.2784872328193,120.728479,苏州市苏州工业园区翠薇街与仁爱路交叉路口往北约120米,江苏省,苏州市,苏州工业园区,304e8a2c24d5a2c6100daa1f,教育培训,图书馆
花桥文化体育活动中心花桥图书馆,31.300680652874977,121.074236,苏州市昆山市绿地大道与赵村路交叉路口往北约210米,江苏省,苏州市,昆山市,f4a9feab1af7fe0d128824ab,教育培训,图书馆
昆山高新区图书馆,31.400818321977475,120.940848,苏州市昆山市虹桥路1001号,江苏省,苏州市,昆山市,b70f5b3b94ddadd47dc8766f,教育培训,图书馆
苏州工业园区图书馆(凤凰分馆),31.309406619355855,120.784107,东长路88号2.5产业园D2栋,江苏省,苏州市,苏州工业园区,b6c526c230db6ac78936eee6,教育培训,图书馆
盛泽图书馆,30.909428010687225,120.616401,苏州市吴江区和田路潜龙渠公园西南侧约120米,江苏省,苏州市,吴江区,fd9ac7cf432741fd4d55477f,教育培训,图书馆
苏州图书馆惠丰分馆,31.371761262158913,120.526081,江苏省苏州市虎丘区惠昌路惠丰花园二区159幢文创家园,江苏省,苏州市,虎丘区,1ac832d77c5f67d2e81e9795,教育培训,图书馆
昆山市图书馆24小时自助图书馆(九方城分馆),31.408060520027487,120.966643,江苏省苏州市昆山市同心路九方城花园22栋1楼,江苏省,苏州市,昆山市,c32c9490afd4ec169f09f741,教育培训,图书馆
苏州图书馆科技城分馆,31.336297895595877,120.429661,江苏省苏州市虎丘区新区高新区科技城科创路生活新空间高科永泰健身房三楼,江苏省,苏州市,虎丘区,4745a76de6c8020cc2f1cf9f,教育培训,图书馆
木渎图书馆,31.261540877030992,120.517249,江苏省苏州市吴中区灵天路55号9-1号楼,江苏省,苏州市,吴中区,9c5111d9defcf1da7adbd26f,教育培训,图书馆
陆家图书馆,31.31606476867,121.042256,苏州市昆山市富荣路124号,江苏省,苏州市,昆山市,bbeaacaaef7ffef1db131818,教育培训,图书馆
吴中区图书馆24小时自助图书馆(花园社区分馆),31.24794302440648,120.691447,苏州市吴中区郭巷街道尹山湖景花园3期49栋,江苏省,苏州市,吴中区,d5dedea14939ec35f8f0cb79,教育培训,图书馆
苏州图书馆(横塘分馆),31.27543657342363,120.583505,滨河路52号青春大厦2层,江苏省,苏州市,虎丘区,52d1698bc5f4a156d3ff23e7,教育培训,图书馆
新娄图书馆,31.351053600166964,120.733874,葑亭大道金锦苑19幢,江苏省,苏州市,苏州工业园区,5090bab684037b05882fb5d8,教育培训,图书馆
苏州大学(天赐庄校区)-图书馆,31.306437811395085,120.647827,姑苏区干将东路333号,江苏省,苏州市,姑苏区,50e07bc3d2f145994354d786,教育培训,图书馆
苏州图书馆(华通花园分馆),31.374752178794644,120.473118,江苏省苏州市虎丘区华通花园4区居委会2楼,江苏省,苏州市,虎丘区,5e377ab7c730346fb320a8b5,教育培训,图书馆
昆山图书馆24小时自助图书馆(新江南分馆),31.388808718895863,120.902441,苏州市昆山市新江南旁,江苏省,苏州市,昆山市,a3ad4e4ab57acacd283a9f6b,教育培训,图书馆
图书馆,31.262300426282756,120.760189,苏州市苏州工业园区林泉街苏州工业园区职业技术学院,江苏省,苏州市,苏州工业园区,a4f286e58fc5f9dfb1077de0,教育培训,图书馆
昆山图书馆(森林公园馆),31.396088213059127,120.917275,苏州市昆山市马鞍山西路818号昆山市城市生态森林公园内,江苏省,苏州市,昆山市,64875171e472eeb52811d17a,教育培训,图书馆
苏州图书馆黄埭分馆,31.44548742067747,120.572018,苏州市相城区中市路玉莲花苑,江苏省,苏州市,相城区,436dbefa72edbbcc4f554797,教育培训,图书馆
苏州大学独墅湖校区北区-炳麟图书馆,31.275436724935325,120.736985,江苏省苏州市苏州工业园区工业园区仁爱路199苏州大学独墅湖校区,江苏省,苏州市,苏州工业园区,2a7a25eccfa7791e6c3e1b40,教育培训,图书馆
运河图书馆,31.262900192045315,120.628237,太湖西路199号颐和湾花园北门,江苏省,苏州市,吴中区,4604b6eedac4932afe0eb020,教育培训,图书馆
苏州文化艺术中心-图书馆,31.323260845940244,120.707698,苏州市苏州工业园区观枫街1号苏州文化艺术中心F1,江苏省,苏州市,苏州工业园区,53c89c9b699dbab3cbc3dba2,教育培训,图书馆
昆山市千灯镇图书馆,31.259147120384533,121.030606,苏州市昆山市文峰路千灯镇政府西北侧约50米,江苏省,苏州市,昆山市,55110aef539475a33010af2b,教育培训,图书馆
世美书房,31.29832440363527,121.097985,苏州市昆山市花园路花溪公园(花园路),江苏省,苏州市,昆山市,42fe569b2f852a0efe0eb061,教育培训,图书馆
苏州图书馆(里河分馆),31.293021083535375,120.65817,苏州市姑苏区杨枝塘路金枝苑西北侧约210米,江苏省,苏州市,姑苏区,f43556269ba9dd093904b134,教育培训,图书馆
苏州图书馆平江区苏锦分馆,31.33916896915374,120.627673,江苏省苏州市姑苏区平江路锦荷苑6栋一楼,江苏省,苏州市,姑苏区,5d7b4175fd6f997ec6effbca,教育培训,图书馆
昆山市图书馆24小时自助图书馆(青阳新城分馆),31.37229855734625,120.974154,江苏省苏州市昆山市柏庐路和朝阳路交汇处新城柏杨街125号新城天地南区北门东侧,江苏省,苏州市,昆山市,dbb3fc02da01511a9de32185,教育培训,图书馆
字里行间图书馆,31.276310403426486,121.08366,苏州市昆山市集善路万科魅力花园,江苏省,苏州市,昆山市,6733f2edf2d690e7d13ce336,教育培训,图书馆
24小时自助图书馆,31.598384226522974,120.804709,金门路与黄山路交叉口西200米,江苏省,苏州市,常熟市,d9115362a38058f5cb213d07,教育培训,图书馆
西交利物浦大学北校区-图书馆,31.27501973484628,120.744792,工业园区仁爱路111号,江苏省,苏州市,苏州工业园区,7b6dbda1df9e82c345e27414,教育培训,图书馆
苏州图书馆(虎丘书院分馆),31.337612233820607,120.59264,虎阜路31号,江苏省,苏州市,姑苏区,2d4f88d622ee9272b020a859,教育培训,图书馆
苏州少年儿童图书馆,31.372845980345375,120.60291,苏州市相城区广济北路与华元路交叉路口往西北约110米,江苏省,苏州市,相城区,1a3264581c3ff86d4354d7f2,教育培训,图书馆
静思书院,31.30125249976149,120.635674,姑苏区滚绣坊41号,江苏省,苏州市,姑苏区,c8b5cdeff3bbb67d130daa7b,教育培训,图书馆
苏州大学东校区-敬文图书馆,31.30564778036839,120.657533,江苏省苏州工业园区东环路50号,江苏省,苏州市,姑苏区,6913052370116108725e8050,教育培训,图书馆
苏州市职业大学-图书馆,31.22524173554481,120.598664,江苏省苏州市虎丘区致能大道106号,江苏省,苏州市,虎丘区,07f3c8b5938ec71e6240a97f,教育培训,图书馆
苏州图书馆(阳光城分馆),31.32458395828214,120.576809,留园街道西环路3135号阳光城花园60幢二楼,江苏省,苏州市,姑苏区,f5cd1df67c3ccf7e1b94c6e7,教育培训,图书馆
苏州图书馆(工人文化宫分馆),31.296148172416814,120.632161,人民路538号,江苏省,苏州市,姑苏区,3c76d3463ed96a6b4002452c,教育培训,图书馆
自助图书馆,31.64752978199007,120.746685,苏州市常熟市书院街石梅广场北侧约70米,江苏省,苏州市,常熟市,6c861ac7c5e78a1230169b8c,教育培训,图书馆
图书楼,31.308354493201083,121.076617,苏州市昆山市花集路昆山花桥国际商务城中等专业学校,江苏省,苏州市,昆山市,1b75840acdb5eb4ea20464b9,教育培训,图书馆
吴中区图书馆香山街道墅里分馆,31.23319241076637,120.403773,江苏省苏州市吴中区香山街道墅里社区青少年活动中心,江苏省,苏州市,吴中区,6ff5c3e8767349c6e81e97ec,教育培训,图书馆
苏州科技大学石湖校区图书馆,31.25201570263996,120.584543,江苏省苏州市虎丘区横塘镇学府路99号,江苏省,苏州市,虎丘区,b7acbcbdee79396276e5b6fd,教育培训,图书馆
野马渡文体中心-图书馆,31.405258904997485,120.990332,萧林东路3888号2楼,江苏省,苏州市,昆山市,95708570fa6b73a278f796f2,教育培训,图书馆
浏河文化艺术中心(图书馆),31.513750340201504,121.284584,江苏省苏州市太仓市浏河镇东海路33号,江苏省,苏州市,太仓市,a3565d6b62054989c3364475,教育培训,图书馆
苏州城市学院-图书馆,31.221157254079042,120.587707,江苏省苏州市吴中区吴越路,江苏省,苏州市,吴中区,c8b5cdef13be167e130daa7f,教育培训,图书馆
昆山市图书馆(枫景苑分馆),31.348612798682474,120.967194,苏州市昆山市雁荡山路枫景苑,江苏省,苏州市,昆山市,059df82cdb11f967b04c497b,教育培训,图书馆
张家港图书馆城北分馆,31.87403839973005,120.557083,苏州市张家港市公园路46号附近,江苏省,苏州市,张家港市,df5f77c046f6c59eb320a883,教育培训,图书馆
苏州科技大学天平学院-图书馆,31.2674633929858,120.562925,江苏省苏州市高新区长江路55号,江苏省,苏州市,吴中区,91c13f93ffb4838721f01779,教育培训,图书馆
24小时自助图书馆,31.379518257743765,121.085778,苏州市昆山市蓬文路格林豪泰快捷酒店(新星路店)东侧,江苏省,苏州市,昆山市,8cf24bd2b0e48b9d5fbe86c2,教育培训,图书馆
中国人民大学苏州校区-图书馆,31.27897599664253,120.739083,江苏省苏州市工业园区仁爱路158号,江苏省,苏州市,苏州工业园区,a5277fda611053322cb17e77,教育培训,图书馆
常熟市少年儿童图书馆,31.647087972111418,120.746325,苏州市常熟市书院街石梅广场北侧,江苏省,苏州市,常熟市,c23c6da2686dc56481a12ef6,教育培训,图书馆
文明益站24小时自助图书,31.464109464496225,120.983698,苏州市昆山市周新路,江苏省,苏州市,昆山市,acd17faee778138b7ec87610,教育培训,图书馆
太仓图书馆,31.456745904925203,121.107463,苏州市太仓市人民北路太仓金陵花园酒店北侧约30米,江苏省,苏州市,太仓市,9a61c902fe98d0562cb96db3,教育培训,图书馆
苏州工业园区24小时智能图书馆,31.278554119159384,120.728369,苏州市苏州工业园区仁爱路,江苏省,苏州市,苏州工业园区,961353e529fa621c0aa8d4f3,教育培训,图书馆
苏州图书馆(教师分馆),31.308436233182302,120.617816,江苏省苏州市姑苏区学士街389号2F,江苏省,苏州市,姑苏区,5a92f93c548d0908dc1e5290,教育培训,图书馆
苏州图书馆24小时自助图书馆,31.302917087791492,120.630074,苏州市姑苏区人民路三元宾馆东北侧约120米,江苏省,苏州市,姑苏区,fcfebef5e66d6754a9175a45,教育培训,图书馆
苏州市立医院北区图书馆,31.323159143997426,120.610406,广济路242号,江苏省,苏州市,姑苏区,ae1aeee3867a5739d92f2802,教育培训,图书馆
沧浪区图书馆,31.306718332616075,120.647875,江苏苏州市姑苏区图书馆,江苏省,苏州市,姑苏区,35adb0445bba2199b34c49e7,教育培训,图书馆
沙溪镇图书分馆,31.567202095875132,121.072581,苏州市太仓市白云中路苏韵阁酒店北侧约220米,江苏省,苏州市,太仓市,3cafaa1b7dba421dc42ba12b,教育培训,图书馆
张家港图书馆(塘桥分馆),31.82600414975448,120.643954,塘桥镇富民路121号,江苏省,苏州市,张家港市,16cf4488a06958ea4054d7cf,教育培训,图书馆
苏州信息职业技术学院-图书馆,31.13690582667295,120.639466,鲈乡南路200号,江苏省,苏州市,吴江区,e93761f6b194a372223bf279,教育培训,图书馆
清风图书馆,31.835731459445714,120.567247,苏州市张家港市沙锡路西溪花苑,江苏省,苏州市,张家港市,1c9d95185dbb8880cac3dbf5,教育培训,图书馆
苏州市木渎人民医院-图书室,31.255985910990972,120.521323,江苏省苏州市吴中区下沙塘39号7号楼3楼,江苏省,苏州市,吴中区,b93fefc2efac0bd976e5b66d,教育培训,图书馆
hubnovo图书馆,31.366195405479143,120.960743,江苏苏州市昆山市玉山镇昆城广场一号楼,江苏省,苏州市,昆山市,6987fb56c1a5d01ce856fab5,教育培训,图书馆
寒山寺佛教图书馆,31.312950731359123,120.575143,寒山寺景区枫桥大街86号,江苏省,苏州市,姑苏区,0a46dc0fcfbe6a2330621279,教育培训,图书馆
凤凰文化中心图书馆,31.776861078118518,120.634345,苏州市张家港市凤凰大道张家港市凤凰中心小学,江苏省,苏州市,张家港市,58ebe4b13db30c475f17c3f3,教育培训,图书馆
新昆山人文化俱乐部-图书馆,31.26910671219931,121.020063,江苏省苏州市昆山市千灯镇少卿中路9号,江苏省,苏州市,昆山市,c09143937e5a03e588db73a6,教育培训,图书馆
太仓市少年儿童图书馆,31.45864684656379,121.140675,上海东路100号,江苏省,苏州市,太仓市,dc58f7e2b76d3420df1e5293,教育培训,图书馆
苏州开放大学-敬德图书馆,31.306350783063245,120.592673,金阊街道干将西路1122号,江苏省,苏州市,姑苏区,a43db087a13197e025e0a02d,教育培训,图书馆
吴江图书馆24小时城市街区自助图书馆,31.152548862528317,120.648338,苏州市吴江区中山南路桃花苑东北侧约80米,江苏省,苏州市,吴江区,9153145b12ece1f38bf15dcd,教育培训,图书馆
永联图书馆,31.848735763529156,120.718864,苏州市张家港市嘉园路中国农业银行(南丰永联分理处)南侧约220米,江苏省,苏州市,张家港市,5e7ad5ee119430651d1d11f7,教育培训,图书馆
江苏科技大学张家港校区图书馆,31.895211120839,120.577357,长兴中路8号,江苏省,苏州市,张家港市,a6a9681a3f1a5480eb1e97f9,教育培训,图书馆
常熟图书馆(沙家浜镇分馆),31.548721047803234,120.861732,苏州市常熟市金桩路与渔阳路交叉路口往西约60米,江苏省,苏州市,常熟市,2db7df3a95b9b38edeee8b97,教育培训,图书馆
苏州经贸职业技术学院图书馆,31.25366831656335,120.574419,苏州市虎丘区学府路287号苏州经贸职业技术学院石湖校区,江苏省,苏州市,虎丘区,cc0849a01c54042e950319ad,教育培训,图书馆
吴江图书馆七都分馆,30.949002621553543,120.404703,苏州市吴江区元春路皇家丽景东北侧约50米,江苏省,苏州市,吴江区,284893ef0e21c49082288a8d,教育培训,图书馆
海阅原版书俱乐部(晋合360度生活广场店),31.31565771982351,120.727661,苏州市工业园区融安街18号晋合360度生活广场F1,江苏省,苏州市,苏州工业园区,fb7b8feb0e558b440782c28d,教育培训,图书馆
古里镇自助图书馆,31.60291887792718,120.904965,苏州市常熟市增福路常熟市白茆中学西北侧约220米,江苏省,苏州市,常熟市,e484060167d8ef38077ce848,教育培训,图书馆
常熟理工学院(东南校区)-图书馆,31.588990187434646,120.782125,常熟国家大学科技园湖山路99号,江苏省,苏州市,常熟市,b54e52668e93b1bfcae33c99,教育培训,图书馆
中国人民大学苏州校区图书馆A2,31.27878091347147,120.739162,苏州市苏州工业园区永珊路中国人民大学(苏州校区),江苏省,苏州市,苏州工业园区,1d77b755bb1315224afd3f9f,教育培训,图书馆
苏州图书馆(龙惠分馆),31.342356818605033,120.415887,江苏省苏州市虎丘区东渚镇龙惠花苑社区服务中心一楼,江苏省,苏州市,虎丘区,6793f99a473d0a8d5d0d0224,教育培训,图书馆
24小时自助图书馆(常熟图书馆尚湖分馆),31.612659015339997,120.641342,苏州市常熟市练塘南环路与营联路交叉路口往西约160米,江苏省,苏州市,常熟市,5273b778cf8c6f368c55ec4b,教育培训,图书馆
图书馆驿站,31.767779749759775,120.63485,苏州市张家港市凤恬路凤凰花苑北侧约30米,江苏省,苏州市,张家港市,1b82eea7199eb202d518b71b,教育培训,图书馆
苏州健雄职业技术学院-图书馆,31.41512943992244,121.141201,苏州市太仓市健雄路苏州健雄职业技术学院,江苏省,苏州市,太仓市,15ee21f217c7b46eaecb665b,教育培训,图书馆
太仓图书馆城厢分馆,31.44948995211993,121.103373,江苏省苏州市太仓市城厢镇长春南路238号便民服务中心三楼,江苏省,苏州市,太仓市,4e56d29631431f014107c1c7,教育培训,图书馆
琴川书房,31.673166982790626,120.786972,江苏省苏州市常熟市达海路39号,江苏省,苏州市,常熟市,701f3f6c3bf68831f40e77cd,教育培训,图书馆
棉花糖儿童图书馆(张家港购物公园店),31.872597882754143,120.520565,江苏省苏州市张家港市中国江苏苏州市张家港市杨舍镇购物公园西门欧陆风情街,江苏省,苏州市,张家港市,be17a916e97ba931a2d23029,教育培训,图书馆
苏州新科(昆山图书馆中心校区),31.38190919642539,120.977273,昆山市玉山镇珠江新村商业广场3号楼1楼,江苏省,苏州市,昆山市,90719f950853eb8bb817e731,教育培训,培训机构
书香小院,31.43596139873436,120.710169,江苏省苏州市相城区太平禅寺西南,江苏省,苏州市,相城区,eda1b4ba1fbdd8ce81a12eca,教育培训,图书馆
金光社区兵站家园图书馆,31.35586962978458,120.607433,江苏省苏州市姑苏区苏州图书馆城北分馆(广济北路东),江苏省,苏州市,姑苏区,559dc86cbcaee16eb8bd633e,教育培训,图书馆
太湖渔港村图书室,31.26794436943323,120.346188,苏州市吴中区渔港路,江苏省,苏州市,吴中区,bb6591f28f594f39bfa8224c,教育培训,图书馆
艾花田图书馆,31.30314497080185,120.629896,十梓街651号后石家湾21号,江苏省,苏州市,姑苏区,ab6cfad937d887ebab175a39,教育培训,图书馆
拇指宫殿儿童中英图书馆,31.327792137143692,120.633671,齐门路渔郎桥浜16号2-101,江苏省,苏州市,姑苏区,f8fd2ddf423c0afd581093c0,教育培训,图书馆
中国人民大学苏州校区图书馆A1,31.27896897653309,120.739081,苏州市苏州工业园区永珊路中国人民大学(苏州校区),江苏省,苏州市,苏州工业园区,a1a92d730655daae1811d50e,教育培训,其他
太仓市明德高级中学-图书楼,31.46116328595896,121.125369,苏州市太仓市东仓南路太仓市明德高级中学,江苏省,苏州市,太仓市,a7ea119b044e0a23b5f42f9e,教育培训,图书馆
智慧研究室(张家港图书馆),31.86962866577861,120.581341,人民东路5-2号张家港图书馆F4层,江苏省,苏州市,张家港市,885ec501aa6e3e6cd0ff23dc,教育培训,科研机构
昆山艺术宫停车场-出入口,31.38708843552174,121.051384,前进东路与夏西街交叉口北150米,江苏省,苏州市,昆山市,636c002bb61b1c3ef21937c3,出入口,停车场出入口
悠贝亲子图书馆万达馆(万达广场常熟店),31.68657364056487,120.739423,珠海路万达广场3楼(童学馆内),江苏省,苏州市,常熟市,4a74c0577a5d34d29d9d680f,教育培训,图书馆
苏州第二图书馆,31.372919342032894,120.602537,苏州市相城区广济北路2383号,江苏省,苏州市,相城区,e4dc4eaf69cc37b971210b5e,教育培训,图书馆
苏州图书馆元和分馆,31.35997204691356,120.633794,古元路西陆慕社区服务中心9层,江苏省,苏州市,相城区,37bdad47f496c57c6f3e1bdd,教育培训,图书馆
苏州图书馆(太平文创园分馆),31.435297826870276,120.696043,江苏省苏州市相城区金澄路86,江苏省,苏州市,相城区,46b75977954e24dcdbeced74,教育培训,图书馆
苏州图书馆黄埭分馆,31.44548742067747,120.572018,苏州市相城区中市路玉莲花苑,江苏省,苏州市,相城区,436dbefa72edbbcc4f554797,教育培训,图书馆
苏州图书馆(玉成分馆),31.386569352269863,120.617076,江苏省苏州市相城区玉成家园21号,江苏省,苏州市,相城区,4065573305ff968d08ccdd47,教育培训,图书馆
苏州少年儿童图书馆,31.372845980345375,120.60291,苏州市相城区广济北路与华元路交叉路口往西北约110米,江苏省,苏州市,相城区,1a3264581c3ff86d4354d7f2,教育培训,图书馆
苏州大学阳澄湖校区图书馆,31.38724656564771,120.685428,济学路8号,江苏省,苏州市,相城区,98993beb99742299b6147fd7,教育培训,图书馆
冯梦龙书院,31.46373338375285,120.52759,黄埭镇,江苏省,苏州市,相城区,7e6581cabe0d79c9f4231078,教育培训,图书馆
书香小院,31.43596139873436,120.710169,江苏省苏州市相城区太平禅寺西南,江苏省,苏州市,相城区,eda1b4ba1fbdd8ce81a12eca,教育培训,图书馆
常熟图书馆,31.647598755251725,120.746683,江苏省苏州市常熟市书院街27号,江苏省,苏州市,常熟市,d949470317efed749868b44a,教育培训,图书馆
常熟市图书馆(滨江分馆),31.74468180156322,120.932746,江苏省苏州市常熟市浒东滨江高尔夫俱乐部图书馆滨江分馆,江苏省,苏州市,常熟市,529d38191fd8ccf3f32d83ba,教育培训,图书馆
24小时自助图书馆,31.598384226522974,120.804709,金门路与黄山路交叉口西200米,江苏省,苏州市,常熟市,d9115362a38058f5cb213d07,教育培训,图书馆
自助图书馆,31.64752978199007,120.746685,苏州市常熟市书院街石梅广场北侧约70米,江苏省,苏州市,常熟市,6c861ac7c5e78a1230169b8c,教育培训,图书馆
常熟图书馆(尚湖分馆),31.659288807822797,120.64667,苏州市常熟市九三二村道与永安路交叉路口往东南约120米,江苏省,苏州市,常熟市,7e4bee3a6c2e5c06f50e772b,教育培训,图书馆
常熟图书馆(三峰分馆),31.68160357131483,120.716918,苏州市常熟市陈家坞路虞山国家森林公园北侧约270米,江苏省,苏州市,常熟市,0ed1cd4ec40e9a061f58008a,教育培训,图书馆
常熟理工学院(东湖校区)-逸夫图书馆,31.610611813167637,120.742878,南三环路99号,江苏省,苏州市,常熟市,a1418eb45f2fa17febe58216,教育培训,图书馆
常熟图书馆(沙家浜镇分馆),31.548721047803234,120.861732,苏州市常熟市金桩路与渔阳路交叉路口往西约60米,江苏省,苏州市,常熟市,2db7df3a95b9b38edeee8b97,教育培训,图书馆
古里镇自助图书馆,31.60291887792718,120.904965,苏州市常熟市增福路常熟市白茆中学西北侧约220米,江苏省,苏州市,常熟市,e484060167d8ef38077ce848,教育培训,图书馆
常熟理工学院(东南校区)-图书馆,31.588990187434646,120.782125,常熟国家大学科技园湖山路99号,江苏省,苏州市,常熟市,b54e52668e93b1bfcae33c99,教育培训,图书馆
24小时自助图书馆(常熟图书馆尚湖分馆),31.612659015339997,120.641342,苏州市常熟市练塘南环路与营联路交叉路口往西约160米,江苏省,苏州市,常熟市,5273b778cf8c6f368c55ec4b,教育培训,图书馆
琴川书房,31.673166982790626,120.786972,江苏省苏州市常熟市达海路39号,江苏省,苏州市,常熟市,701f3f6c3bf68831f40e77cd,教育培训,图书馆
常熟市少年儿童图书馆,31.647087972111418,120.746325,苏州市常熟市书院街石梅广场北侧,江苏省,苏州市,常熟市,c23c6da2686dc56481a12ef6,教育培训,图书馆
常熟理工学院(东湖校区)-图书馆报告厅,31.610492698808272,120.743653,江苏省苏州市常熟市仲雍路常熟理工学院(东湖校区),江苏省,苏州市,常熟市,33861c7eeb2593619122e047,教育培训,图书馆
安妮花阅读馆,31.679437125969574,120.762923,常熟市海虞镇黄河路22号汇丰时代广场3幢201室,江苏省,苏州市,常熟市,304a3742d4e6461116c905a3,教育培训,培训机构
悠贝亲子图书馆星光馆(星光天地店),31.66840892960594,120.782586,闽江东路9号星光天地3楼(童学馆内),江苏省,苏州市,常熟市,4e5ae501e047052b471a3219,教育培训,图书馆
悠贝亲子图书馆万达馆(万达广场常熟店),31.68657364056487,120.739423,珠海路万达广场3楼(童学馆内),江苏省,苏州市,常熟市,4a74c0577a5d34d29d9d680f,教育培训,图书馆
昆山图书馆,31.38478729111899,120.976162,江苏省苏州市昆山前进中路353号瑞士大酒店旁边,江苏省,苏州市,昆山市,1bf85b2586d20ba6a1a9340f,教育培训,图书馆
花桥文化体育活动中心花桥图书馆,31.300680652874977,121.074236,苏州市昆山市绿地大道与赵村路交叉路口往北约210米,江苏省,苏州市,昆山市,f4a9feab1af7fe0d128824ab,教育培训,图书馆
昆山高新区图书馆,31.400818321977475,120.940848,苏州市昆山市虹桥路1001号,江苏省,苏州市,昆山市,b70f5b3b94ddadd47dc8766f,教育培训,图书馆
陆家图书馆,31.31606476867,121.042256,苏州市昆山市富荣路124号,江苏省,苏州市,昆山市,bbeaacaaef7ffef1db131818,教育培训,图书馆
昆山市图书馆24小时自助图书馆(九方城分馆),31.408060520027487,120.966643,江苏省苏州市昆山市同心路九方城花园22栋1楼,江苏省,苏州市,昆山市,c32c9490afd4ec169f09f741,教育培训,图书馆
昆山市千灯镇图书馆,31.259147120384533,121.030606,苏州市昆山市文峰路千灯镇政府西北侧约50米,江苏省,苏州市,昆山市,55110aef539475a33010af2b,教育培训,图书馆
24小时自助图书馆,31.284785217011557,120.938997,苏州市昆山市新吴街森隆蓝波湾西北侧约250米,江苏省,苏州市,昆山市,a8ce8418b432ffd80289729a,教育培训,图书馆
昆山图书馆24小时自助图书馆(新江南分馆),31.388808718895863,120.902441,苏州市昆山市新江南旁,江苏省,苏州市,昆山市,a3ad4e4ab57acacd283a9f6b,教育培训,图书馆
昆山图书馆(森林公园馆),31.396088213059127,120.917275,苏州市昆山市马鞍山西路818号昆山市城市生态森林公园内,江苏省,苏州市,昆山市,64875171e472eeb52811d17a,教育培训,图书馆
世美书房,31.29832440363527,121.097985,苏州市昆山市花园路花溪公园(花园路),江苏省,苏州市,昆山市,42fe569b2f852a0efe0eb061,教育培训,图书馆
昆山市图书馆24小时自助图书馆(青阳新城分馆),31.37229855734625,120.974154,江苏省苏州市昆山市柏庐路和朝阳路交汇处新城柏杨街125号新城天地南区北门东侧,江苏省,苏州市,昆山市,dbb3fc02da01511a9de32185,教育培训,图书馆
字里行间图书馆,31.276310403426486,121.08366,苏州市昆山市集善路万科魅力花园,江苏省,苏州市,昆山市,6733f2edf2d690e7d13ce336,教育培训,图书馆
锦溪图书馆,31.174248430643587,120.913192,锦溪镇邵甸港路51号锦溪镇新文化体育中心1层,江苏省,苏州市,昆山市,33fd3aa702c5c3307adbd216,教育培训,图书馆
图书楼,31.308354493201083,121.076617,苏州市昆山市花集路昆山花桥国际商务城中等专业学校,江苏省,苏州市,昆山市,1b75840acdb5eb4ea20464b9,教育培训,图书馆
24小时自助图书馆,31.379518257743765,121.085778,苏州市昆山市蓬文路格林豪泰快捷酒店(新星路店)东侧,江苏省,苏州市,昆山市,8cf24bd2b0e48b9d5fbe86c2,教育培训,图书馆
野马渡文体中心-图书馆,31.405258904997485,120.990332,萧林东路3888号2楼,江苏省,苏州市,昆山市,95708570fa6b73a278f796f2,教育培训,图书馆
昆山市图书馆24小时自助图书馆(澞和苑分馆),31.374500615596638,120.953617,玉山镇澞和苑25幢一楼,江苏省,苏州市,昆山市,75ed31ec31a1757eddee8b39,教育培训,图书馆
昆山市图书馆(枫景苑分馆),31.348612798682474,120.967194,苏州市昆山市雁荡山路枫景苑,江苏省,苏州市,昆山市,059df82cdb11f967b04c497b,教育培训,图书馆
24小时自助图书馆(昆山市图书馆柏庐嘉禾分店),31.40811173590514,120.99584,白领国际公寓,江苏省,苏州市,昆山市,42ea2bc9abb185511329354d,教育培训,图书馆
24小时自助图书馆(南江社区分馆),31.33242114594413,120.972235,苏州市昆山市青淞路昆山市玉山镇新城域小学(东校区)西北侧约100米,江苏省,苏州市,昆山市,eb05183dfabb8220d42ce233,教育培训,图书馆
文明益站24小时自助图书,31.464109464496225,120.983698,苏州市昆山市周新路,江苏省,苏州市,昆山市,acd17faee778138b7ec87610,教育培训,图书馆
昆山开放大学-图书馆,31.33573034730077,120.875087,晨丰西路88号,江苏省,苏州市,昆山市,c2f57fdf70d1774c43ab9ae9,教育培训,图书馆
昆山图书馆(淀山湖分馆),31.184458117131552,121.034891,中市路312,江苏省,苏州市,昆山市,d4eb48e80defde6df03cbae4,教育培训,图书馆
hubnovo图书馆,31.366195405479143,120.960743,江苏苏州市昆山市玉山镇昆城广场一号楼,江苏省,苏州市,昆山市,6987fb56c1a5d01ce856fab5,教育培训,图书馆
新昆山人文化俱乐部-图书馆,31.26910671219931,121.020063,江苏省苏州市昆山市千灯镇少卿中路9号,江苏省,苏州市,昆山市,c09143937e5a03e588db73a6,教育培训,图书馆
昆山图书馆-少儿部,31.384451480869647,120.976633,前进中路353号,江苏省,苏州市,昆山市,ed97bc55038ad9cf28d7ab28,教育培训,图书馆
托普信息技术学院-图书馆,31.465512408242777,120.85227,巴城镇288号,江苏省,苏州市,昆山市,b1c556e8a946a50cb42655e4,教育培训,图书馆
苏州新科(昆山图书馆中心校区),31.38190919642539,120.977273,昆山市玉山镇珠江新村商业广场3号楼1楼,江苏省,苏州市,昆山市,90719f950853eb8bb817e731,教育培训,培训机构
昆山艺术宫停车场-出入口,31.38708843552174,121.051384,前进东路与夏西街交叉口北150米,江苏省,苏州市,昆山市,636c002bb61b1c3ef21937c3,出入口,停车场出入口
悠贝亲子图书馆中英文馆,31.28857860893503,121.109344,苏州市昆山市春天大道绿地21城南侧约210米,江苏省,苏州市,昆山市,066da31f0194a7219122e0bd,教育培训,图书馆
张家港图书馆,31.869637076202512,120.581839,江苏省苏州市张家港市杨舍镇老宅路193号,江苏省,苏州市,张家港市,6f91e20e79a9160717948e46,教育培训,图书馆
张家港市少年儿童图书馆(长安中路),31.867245201785998,120.547655,江苏省苏州市张家港市长安中路54号,江苏省,苏州市,张家港市,88487372f3dc30522cb17ec6,教育培训,图书馆
张家港市新时代文明实践中心文化分中心·图书馆,31.869501495292273,120.581753,江苏省苏州市张家港市老宅路193号,江苏省,苏州市,张家港市,cf591617964686ed8415419a,教育培训,图书馆
图书馆驿站(金港镇),31.957258936731183,120.435308,苏州市张家港市从善路张家港市中兴小学(中兴南路)北侧约200米,江苏省,苏州市,张家港市,152a791827152f71a8f7296d,教育培训,图书馆
凤凰文化中心图书馆,31.776861078118518,120.634345,苏州市张家港市凤凰大道张家港市凤凰中心小学,江苏省,苏州市,张家港市,58ebe4b13db30c475f17c3f3,教育培训,图书馆
张家港图书馆城北分馆,31.87403839973005,120.557083,苏州市张家港市公园路46号附近,江苏省,苏州市,张家港市,df5f77c046f6c59eb320a883,教育培训,图书馆
张家港图书馆(塘桥分馆),31.82600414975448,120.643954,塘桥镇富民路121号,江苏省,苏州市,张家港市,16cf4488a06958ea4054d7cf,教育培训,图书馆
清风图书馆,31.835731459445714,120.567247,苏州市张家港市沙锡路西溪花苑,江苏省,苏州市,张家港市,1c9d95185dbb8880cac3dbf5,教育培训,图书馆
图书馆驿站(张家港购物公园店),31.870830840539107,120.522922,沙洲西路368号张家港购物公园F1,江苏省,苏州市,张家港市,9d63393a6ef813ecc056acb4,教育培训,图书馆
永联图书馆,31.848735763529156,120.718864,苏州市张家港市嘉园路中国农业银行(南丰永联分理处)南侧约220米,江苏省,苏州市,张家港市,5e7ad5ee119430651d1d11f7,教育培训,图书馆
江苏科技大学张家港校区图书馆,31.895211120839,120.577357,长兴中路8号,江苏省,苏州市,张家港市,a6a9681a3f1a5480eb1e97f9,教育培训,图书馆
图书馆驿站,31.969920188056243,120.563843,苏州市张家港市府前路与星光路交叉路口往东约80米,江苏省,苏州市,张家港市,31a2e992799d408c81288a9d,教育培训,图书馆
山北村镇山小区图书馆驿站,31.94444053395823,120.417152,苏州市张家港市老张家港路与镇山路交叉路口往东北约250米,江苏省,苏州市,张家港市,5d5dddeb5fdc2091a0d230a1,教育培训,图书馆
图书馆驿站,31.767779749759775,120.63485,苏州市张家港市凤恬路凤凰花苑北侧约30米,江苏省,苏州市,张家港市,1b82eea7199eb202d518b71b,教育培训,图书馆
棉花糖儿童图书馆(张家港购物公园店),31.872597882754143,120.520565,江苏省苏州市张家港市中国江苏苏州市张家港市杨舍镇购物公园西门欧陆风情街,江苏省,苏州市,张家港市,be17a916e97ba931a2d23029,教育培训,图书馆
图书馆驿站(程墩花苑),31.748225087137225,120.679253,苏州市张家港市金阳路与人民路交叉路口往北约150米,江苏省,苏州市,张家港市,ebcea81f9793f45b32f71d68,教育培训,图书馆
过刊(张家港图书馆),31.86928995773514,120.581027,人民东路5-2号张家港图书馆F2层,江苏省,苏州市,张家港市,4782e4770a01cdf2616858c2,教育培训,图书馆
沙洲职业工学院图书馆,31.905446679215807,120.594972,苏州市张家港市福新路沙洲职业工学院,江苏省,苏州市,张家港市,9a3d3c627c195b2b246e98fd,教育培训,图书馆
公共文化驿站图书馆驿站,31.825953258259215,120.643713,苏州市张家港市富民路张家港市塘桥中心小学,江苏省,苏州市,张家港市,27f4c87c7d0b388b81a12ecb,购物,商铺
永联公共电子阅览室,31.848446387980793,120.718894,苏州市张家港市嘉园路中国农业银行(南丰永联分理处)南侧约250米,江苏省,苏州市,张家港市,6393a91caf92b231aecb66f2,教育培训,图书馆
图书馆驿站,31.759604648665302,120.638068,苏州市张家港市镇中街徐市小学东北侧约40米,江苏省,苏州市,张家港市,5a649e8e6ea7157fa5da39d3,其他,其他
图书馆驿站,31.922843887966028,120.473029,苏州市张家港市三新路金港镇三角滩社区卫生服务站东北侧约80米,江苏省,苏州市,张家港市,78ee35f584e6ff6cd81318d2,其他,其他
图书馆驿站(唐苑文化中心),31.857267453523598,120.650299,苏州市张家港市东渡路塘桥镇鹿苑综合市场东菜场北侧约150米,江苏省,苏州市,张家港市,deb1dc6eefd0607b7bf7967f,其他,其他
智慧研究室(张家港图书馆),31.86962866577861,120.581341,人民东路5-2号张家港图书馆F4层,江苏省,苏州市,张家港市,885ec501aa6e3e6cd0ff23dc,教育培训,科研机构
斑马阅读馆,31.89220684517281,120.617548,杨舍镇东盛家园东盛家园22幢,江苏省,苏州市,张家港市,957ac86a6f4bb5e76fa3ccae,教育培训,培训机构
南书房,31.87257458431234,120.580902,张家港市汇金商务中心B座15楼,江苏省,苏州市,张家港市,aa4afdc5be04e4901d58007a,教育培训,培训机构
悠贝亲子图书馆,31.86556928998786,120.555145,张家港市杨舍镇向阳弄宏泰广场二楼,江苏省,苏州市,张家港市,ae67dda600b3e83617b54b01,教育培训,图书馆
苏州图书馆(狮山分馆),31.29893238141961,120.566605,苏州市虎丘区金山路33号居委会2层,江苏省,苏州市,虎丘区,721d9c45a321250e27d2bb36,教育培训,图书馆
苏州高新区文体中心-图书馆,31.33961770174643,120.425894,江苏省苏州市虎丘区太湖大道999号,江苏省,苏州市,虎丘区,7e9a1290bc3ce95b52e5c53b,教育培训,图书馆
苏州图书馆科技城分馆,31.336297895595877,120.429661,江苏省苏州市虎丘区新区高新区科技城科创路生活新空间高科永泰健身房三楼,江苏省,苏州市,虎丘区,4745a76de6c8020cc2f1cf9f,教育培训,图书馆
苏州图书馆(华通花园分馆),31.374752178794644,120.473118,江苏省苏州市虎丘区华通花园4区居委会2楼,江苏省,苏州市,虎丘区,5e377ab7c730346fb320a8b5,教育培训,图书馆
苏州市图书馆(浒墅关分馆),31.37796094006349,120.535716,新浒花园浒墅关镇教育文体中心1层,江苏省,苏州市,虎丘区,13e6eac6d6142d6ac6effbeb,教育培训,图书馆
苏州图书馆(新升分馆),31.28085392401529,120.546587,狮山街道新升社区服务中心1楼,江苏省,苏州市,虎丘区,98fd3446b5f441e8b2077d31,教育培训,图书馆
苏州图书馆(横塘分馆),31.27543657342363,120.583505,滨河路52号青春大厦2层,江苏省,苏州市,虎丘区,52d1698bc5f4a156d3ff23e7,教育培训,图书馆
苏州图书馆惠丰分馆,31.371761262158913,120.526081,江苏省苏州市虎丘区惠昌路惠丰花园二区159幢文创家园,江苏省,苏州市,虎丘区,1ac832d77c5f67d2e81e9795,教育培训,图书馆
苏州图书馆(金色分馆),31.287726921125643,120.538939,苏州市虎丘区玉山路金色小学西北侧约30米,江苏省,苏州市,虎丘区,9dafab045562e7d002ff2d00,教育培训,图书馆
马涧图书馆,31.317470455600045,120.508262,江苏省苏州市虎丘区朝红路168号马涧市民服务中心B座3楼,江苏省,苏州市,虎丘区,da701b41c4d056af4e776ea9,教育培训,图书馆
苏州市职业大学-图书馆,31.22524173554481,120.598664,江苏省苏州市虎丘区致能大道106号,江苏省,苏州市,虎丘区,07f3c8b5938ec71e6240a97f,教育培训,图书馆
苏州科技大学石湖校区图书馆,31.25201570263996,120.584543,江苏省苏州市虎丘区横塘镇学府路99号,江苏省,苏州市,虎丘区,b7acbcbdee79396276e5b6fd,教育培训,图书馆
苏州市高新区少儿图书馆,31.371710648624052,120.511377,苏州市虎丘区兴贤路浒墅关文体中心一楼,江苏省,苏州市,虎丘区,314a2011fcb9928128201a74,教育培训,图书馆
苏州图书馆(龙惠分馆),31.342356818605033,120.415887,江苏省苏州市虎丘区东渚镇龙惠花苑社区服务中心一楼,江苏省,苏州市,虎丘区,6793f99a473d0a8d5d0d0224,教育培训,图书馆
苏州经贸职业技术学院图书馆,31.25366831656335,120.574419,苏州市虎丘区学府路287号苏州经贸职业技术学院石湖校区,江苏省,苏州市,虎丘区,cc0849a01c54042e950319ad,教育培训,图书馆
高博软件技术学院-图书馆,31.32411905114639,120.425447,新区青山路5号,江苏省,苏州市,虎丘区,13d498f2b674fbfb9e9d680f,教育培训,图书馆
苏州市吴中区图书馆,31.26854921119935,120.637771,东苑路1号,江苏省,苏州市,吴中区,3fd8ea260e874eb14bcc4a5a,教育培训,图书馆
木渎图书馆,31.261540877030992,120.517249,江苏省苏州市吴中区灵天路55号9-1号楼,江苏省,苏州市,吴中区,9c5111d9defcf1da7adbd26f,教育培训,图书馆
吴中区图书馆24小时自助图书馆(花园社区分馆),31.24794302440648,120.691447,苏州市吴中区郭巷街道尹山湖景花园3期49栋,江苏省,苏州市,吴中区,d5dedea14939ec35f8f0cb79,教育培训,图书馆
吴中区图书馆24小时自助图书馆吴中高新区分馆,31.243353279458567,120.623687,江苏省苏州市吴中区澄湖路233号,江苏省,苏州市,吴中区,d7ab3f44eb38835e2a02e193,教育培训,图书馆
运河图书馆,31.262900192045315,120.628237,太湖西路199号颐和湾花园北门,江苏省,苏州市,吴中区,4604b6eedac4932afe0eb020,教育培训,图书馆
吴中区图书馆香山街道墅里分馆,31.23319241076637,120.403773,江苏省苏州市吴中区香山街道墅里社区青少年活动中心,江苏省,苏州市,吴中区,6ff5c3e8767349c6e81e97ec,教育培训,图书馆
苏州城市学院-图书馆,31.221157254079042,120.587707,江苏省苏州市吴中区吴越路,江苏省,苏州市,吴中区,c8b5cdef13be167e130daa7f,教育培训,图书馆
苏州科技大学天平学院-图书馆,31.2674633929858,120.562925,江苏省苏州市高新区长江路55号,江苏省,苏州市,吴中区,91c13f93ffb4838721f01779,教育培训,图书馆
东湖港北阅览室,31.23099856912122,120.634733,经济开发区越湖路59号,江苏省,苏州市,吴中区,7400afa635ae73874251c064,教育培训,图书馆
木渎沈巷工友图书室,31.26647652664584,120.546889,江苏省苏州市吴中区木渎镇沈巷村河东120号二楼西,江苏省,苏州市,吴中区,7983926a52afabb9f7eafcb0,教育培训,图书馆
苏州市木渎人民医院-图书室,31.255985910990972,120.521323,江苏省苏州市吴中区下沙塘39号7号楼3楼,江苏省,苏州市,吴中区,b93fefc2efac0bd976e5b66d,教育培训,图书馆
太湖渔港村图书室,31.26794436943323,120.346188,苏州市吴中区渔港路,江苏省,苏州市,吴中区,bb6591f28f594f39bfa8224c,教育培训,图书馆
徐州图书馆,34.23423973773627,117.185915,江苏省徐州市泉山区泰山路66号,江苏省,徐州市,泉山区,be1ea5ef117ee6a614948e4b,教育培训,图书馆
泉山区图书馆,34.22296541533361,117.172519,金山南路小南湖东,江苏省,徐州市,泉山区,c54061430bda232f5b3ac8f0,教育培训,图书馆
中国矿业大学文昌校区-图书馆,34.220762175532236,117.205278,江苏省徐州市泉山区金山东路1,江苏省,徐州市,泉山区,e889a744f1132cc88605bfdb,教育培训,图书馆
江苏建筑职业技术学院图书馆,34.203990110138335,117.180205,学苑路26江苏建筑职业技术学院内,江苏省,徐州市,泉山区,435d7aea307261485abbbcdb,教育培训,图书馆
徐州生物工程职业技术学院-图书馆,34.26332170973432,117.140102,徐州市泉山区环东路徐州生物工程职业技术学院,江苏省,徐州市,泉山区,63e633bd2ba02caa4251c02f,教育培训,图书馆
小果壳图书馆,34.214812390524,117.190704,徐州市泉山区徐峡线风华园西南侧约90米,江苏省,徐州市,泉山区,c63db520de7026b0acee7a7d,教育培训,图书馆
中国石化管道储运有限公司-图书馆,34.212938393704704,117.206986,江苏省徐州市泉山区三环南路徐州市第三十六中学附近,江苏省,徐州市,泉山区,22065bc4152384a7badf8ffc,教育培训,图书馆
徐州市星光小学碧水湾分校-图书馆,34.21312990998461,117.181371,江苏省徐州市泉山区金山街道泉新路碧水湾小区(C区),江苏省,徐州市,泉山区,babb475fa4cd9e09f82213a6,教育培训,图书馆
江苏省徐州技师学院-综合楼图书馆,34.27791806805475,117.114902,徐州市泉山区黄河北路江苏省徐州技师学院,江苏省,徐州市,泉山区,8be7c8cd248a2c4b3586f44f,教育培训,图书馆
小松鼠英文原版分级阅读馆,34.212451069687575,117.199347,城南大道6号今典大厦306室,江苏省,徐州市,泉山区,5e8f0292b608de33f60e774a,教育培训,培训机构
徐州市铜山区图书馆,34.184906627682835,117.182069,长江西路26号附近,江苏省,徐州市,铜山区,d6df91c15d68c76af7b916e5,教育培训,图书馆
中国矿业大学-图书馆,34.21678357763584,117.150941,江苏省徐州市大学路1号中国矿业大学南湖校区内,江苏省,徐州市,铜山区,fd5caf6f936bcd5cdaeced36,教育培训,图书馆
江苏师范大学-敬文图书馆,34.2002857497729,117.192028,江苏省徐州市铜山区上海路101江苏师范大学泉山校区内,江苏省,徐州市,铜山区,91c13f93562dfafa21f017e5,教育培训,图书馆
小七图书馆,34.192210002702474,117.188589,徐州市铜山区南京路东二街文华美景东侧约150米,江苏省,徐州市,铜山区,8d95677d0265cf8dae31e515,教育培训,图书馆
时光印记让爱成书,34.17078689595075,117.187932,徐州市铜山区北京南路二堡惠民农贸市场南侧约60米,江苏省,徐州市,铜山区,c1acd08531e0ec3ff7231037,教育培训,培训机构
中国煤炭职业技术教育学会-图书工作研究会,34.20256531691971,117.186283,学苑路26江苏建筑职业技术学院内,江苏省,徐州市,铜山区,600b222de2d5b98e22026285,教育培训,科研机构
鼓楼图书馆,34.31102155783276,117.149866,鼓楼区文化创意产业园,江苏省,徐州市,鼓楼区,e0c21a0643d59c9871455b86,教育培训,图书馆
徐州经济开发区公共图书阅览室,34.2894307077007,117.257666,怡园商务楼2层204-206室,江苏省,徐州市,鼓楼区,2217878b9568204d59bbbc0d,教育培训,图书馆
徐州工业职业技术学院-图书馆,34.29983693833218,117.150972,襄王南路1号,江苏省,徐州市,鼓楼区,6113ef77e2ca32698e7727da,教育培训,图书馆
徐州幼儿师范高等专科学校-图书楼,34.29327367911868,117.254046,洞山路17,江苏省,徐州市,鼓楼区,409807900a1b9b2e4afd3f94,教育培训,图书馆
丰县图书馆,34.695709881987625,116.60605,徐州市丰县人民路17号,江苏省,徐州市,丰县,ffd6d4035b7d458f17b54bd6,教育培训,图书馆
逸夫图书馆,34.192792308684325,117.306717,大龙湖街道富春路1号,江苏省,徐州市,云龙区,427a2ee8c6e797b43010af6d,教育培训,图书馆
徐州城市书房,34.25143142674368,117.194991,徐州市云龙区和平路江苏师范大学(云龙校区)西北侧约90米,江苏省,徐州市,云龙区,2c1f1fc29124a662f723102d,教育培训,图书馆
徐州医科大学-图书馆,34.265162028627806,117.265987,徐州市云龙区云苑路徐州医科大学,江苏省,徐州市,云龙区,f1fddd707101d3c78505bf13,教育培训,图书馆
江苏师范大学图书馆,34.2488615219097,117.196639,江苏省徐州市云龙区和平路52号江苏师范大学内,江苏省,徐州市,云龙区,54b448e0146be84a1d1d1159,教育培训,图书馆
三乐儿童图书馆(万达百货店),34.255191445397706,117.254053,黄山街道云龙万达广场8号入口3080室,江苏省,徐州市,云龙区,9287c636d7d56afdc71e51c3,教育培训,图书馆
徐州诗歌图书馆,34.25143307554498,117.195048,徐州市云龙区和平路江苏师范大学(云龙校区)西北侧约90米,江苏省,徐州市,云龙区,7fb6efe3c3d981199c95debc,教育培训,图书馆
邳州图书馆,34.33070888929774,117.963678,恒山南路1号,江苏省,徐州市,邳州市,5ffb181663f46e5f6f476020,教育培训,图书馆
爱能阅读图书绘本馆,34.3267635998274,117.981077,徐州市邳州市福州路邳州市福州路小学西南侧,江苏省,徐州市,邳州市,22e30d9ba647393a901fc9c5,教育培训,图书馆
图书馆幼儿园,34.312669745476335,117.966586,江苏省徐州市邳州市运河街道青年东路10号宏大财富中心F1,江苏省,徐州市,邳州市,fd7454b1f57f07172fb96d70,教育培训,幼儿园
徐州图书馆,34.23423973773627,117.185915,江苏省徐州市泉山区泰山路66号,江苏省,徐州市,泉山区,be1ea5ef117ee6a614948e4b,教育培训,图书馆
沛县新图书馆,34.75640033592056,116.940231,江苏省徐州市沛县沛城镇韩信路8号沛县文化中心,江苏省,徐州市,沛县,df7fb2336889a77e03ec0152,教育培训,图书馆
睢宁县图书馆,33.91779355025342,117.948699,徐州市睢宁县花径西路睢宁碧桂园东南侧约130米,江苏省,徐州市,睢宁县,ae18a379e4c1746682288a8a,教育培训,图书馆
邳州图书馆,34.33070888929774,117.963678,恒山南路1号,江苏省,徐州市,邳州市,5ffb181663f46e5f6f476020,教育培训,图书馆
鼓楼图书馆,34.31102155783276,117.149866,鼓楼区文化创意产业园,江苏省,徐州市,鼓楼区,e0c21a0643d59c9871455b86,教育培训,图书馆
徐州市铜山区图书馆,34.184906627682835,117.182069,长江西路26号附近,江苏省,徐州市,铜山区,d6df91c15d68c76af7b916e5,教育培训,图书馆
泉山区图书馆,34.22296541533361,117.172519,金山南路小南湖东,江苏省,徐州市,泉山区,c54061430bda232f5b3ac8f0,教育培训,图书馆
逸夫图书馆,34.192792308684325,117.306717,大龙湖街道富春路1号,江苏省,徐州市,云龙区,427a2ee8c6e797b43010af6d,教育培训,图书馆
丰县图书馆,34.695709881987625,116.60605,徐州市丰县人民路17号,江苏省,徐州市,丰县,ffd6d4035b7d458f17b54bd6,教育培训,图书馆
中国矿业大学-图书馆,34.21678357763584,117.150941,江苏省徐州市大学路1号中国矿业大学南湖校区内,江苏省,徐州市,铜山区,fd5caf6f936bcd5cdaeced36,教育培训,图书馆
徐州城市书房,34.25143142674368,117.194991,徐州市云龙区和平路江苏师范大学(云龙校区)西北侧约90米,江苏省,徐州市,云龙区,2c1f1fc29124a662f723102d,教育培训,图书馆
徐州经济开发区公共图书阅览室,34.2894307077007,117.257666,怡园商务楼2层204-206室,江苏省,徐州市,鼓楼区,2217878b9568204d59bbbc0d,教育培训,图书馆
徐州市贾汪区图书馆,34.43717826141743,117.467445,群众文化活动中心东1楼正西方向60米,江苏省,徐州市,贾汪区,762c68a6f5b82ffbb1077df4,教育培训,图书馆
江苏师范大学-敬文图书馆,34.2002857497729,117.192028,江苏省徐州市铜山区上海路101江苏师范大学泉山校区内,江苏省,徐州市,铜山区,91c13f93562dfafa21f017e5,教育培训,图书馆
萤火虫图书馆,33.921590192632756,117.962804,徐州市睢宁县文学北路睢宁县体育中心,江苏省,徐州市,睢宁县,6f162b9633e02be0bda24055,教育培训,图书馆
中国矿业大学文昌校区-图书馆,34.220762175532236,117.205278,江苏省徐州市泉山区金山东路1,江苏省,徐州市,泉山区,e889a744f1132cc88605bfdb,教育培训,图书馆
徐州医科大学-图书馆,34.265162028627806,117.265987,徐州市云龙区云苑路徐州医科大学,江苏省,徐州市,云龙区,f1fddd707101d3c78505bf13,教育培训,图书馆
江苏师范大学图书馆,34.2488615219097,117.196639,江苏省徐州市云龙区和平路52号江苏师范大学内,江苏省,徐州市,云龙区,54b448e0146be84a1d1d1159,教育培训,图书馆
江苏建筑职业技术学院图书馆,34.203990110138335,117.180205,学苑路26江苏建筑职业技术学院内,江苏省,徐州市,泉山区,435d7aea307261485abbbcdb,教育培训,图书馆
徐州工业职业技术学院-图书馆,34.29983693833218,117.150972,襄王南路1号,江苏省,徐州市,鼓楼区,6113ef77e2ca32698e7727da,教育培训,图书馆
三乐儿童图书馆(万达百货店),34.255191445397706,117.254053,黄山街道云龙万达广场8号入口3080室,江苏省,徐州市,云龙区,9287c636d7d56afdc71e51c3,教育培训,图书馆
小七图书馆,34.192210002702474,117.188589,徐州市铜山区南京路东二街文华美景东侧约150米,江苏省,徐州市,铜山区,8d95677d0265cf8dae31e515,教育培训,图书馆
徐州诗歌图书馆,34.25143307554498,117.195048,徐州市云龙区和平路江苏师范大学(云龙校区)西北侧约90米,江苏省,徐州市,云龙区,7fb6efe3c3d981199c95debc,教育培训,图书馆
小鹰展翅图书馆,34.73133334804296,116.947453,徐州市沛县正阳路农机小区南侧约230米,江苏省,徐州市,沛县,346149f138d908742bb97c32,教育培训,图书馆
徐州幼儿师范高等专科学校-图书楼,34.29327367911868,117.254046,洞山路17,江苏省,徐州市,鼓楼区,409807900a1b9b2e4afd3f94,教育培训,图书馆
徐州生物工程职业技术学院-图书馆,34.26332170973432,117.140102,徐州市泉山区环东路徐州生物工程职业技术学院,江苏省,徐州市,泉山区,63e633bd2ba02caa4251c02f,教育培训,图书馆
小果壳图书馆,34.214812390524,117.190704,徐州市泉山区徐峡线风华园西南侧约90米,江苏省,徐州市,泉山区,c63db520de7026b0acee7a7d,教育培训,图书馆
中国石化管道储运有限公司-图书馆,34.212938393704704,117.206986,江苏省徐州市泉山区三环南路徐州市第三十六中学附近,江苏省,徐州市,泉山区,22065bc4152384a7badf8ffc,教育培训,图书馆
大屯煤电公司图书馆,34.81413766885175,116.911537,徐州市沛县上海路江苏沛县大屯矿区第二中学西侧约130米,江苏省,徐州市,沛县,b56cc376929a29d07dc876f5,教育培训,图书馆
爱能阅读图书绘本馆,34.3267635998274,117.981077,徐州市邳州市福州路邳州市福州路小学西南侧,江苏省,徐州市,邳州市,22e30d9ba647393a901fc9c5,教育培训,图书馆
鸿图书馆,34.835497333387345,116.846981,徐州市沛县沛公大道安国镇人民政府西侧约30米,江苏省,徐州市,沛县,20606df15d4c516f1d580040,教育培训,图书馆
猫小猫图书馆,33.970865328223866,117.889856,徐州市睢宁县祥庆路庆安镇中心小学东南侧约200米,江苏省,徐州市,睢宁县,9d12b74d5d25d12797ec847b,教育培训,图书馆
大耳朵图书馆,34.59583754422143,117.067159,徐州市沛县X201沛县魏庙中学东北侧,江苏省,徐州市,沛县,967f819ec82d6a8a871541b0,教育培训,图书馆
徐州市星光小学碧水湾分校-图书馆,34.21312990998461,117.181371,江苏省徐州市泉山区金山街道泉新路碧水湾小区(C区),江苏省,徐州市,泉山区,babb475fa4cd9e09f82213a6,教育培训,图书馆
江苏省徐州技师学院-综合楼图书馆,34.27791806805475,117.114902,徐州市泉山区黄河北路江苏省徐州技师学院,江苏省,徐州市,泉山区,8be7c8cd248a2c4b3586f44f,教育培训,图书馆
约读书房,34.73211472710728,116.947474,徐州市沛县正阳路农机小区南侧约140米,江苏省,徐州市,沛县,0c88060b83b7190a00ec01a5,教育培训,其他
小松鼠英文原版分级阅读馆,34.212451069687575,117.199347,城南大道6号今典大厦306室,江苏省,徐州市,泉山区,5e8f0292b608de33f60e774a,教育培训,培训机构
时光印记让爱成书,34.17078689595075,117.187932,徐州市铜山区北京南路二堡惠民农贸市场南侧约60米,江苏省,徐州市,铜山区,c1acd08531e0ec3ff7231037,教育培训,培训机构
中国煤炭职业技术教育学会-图书工作研究会,34.20256531691971,117.186283,学苑路26江苏建筑职业技术学院内,江苏省,徐州市,铜山区,600b222de2d5b98e22026285,教育培训,科研机构
图书馆幼儿园,34.312669745476335,117.966586,江苏省徐州市邳州市运河街道青年东路10号宏大财富中心F1,江苏省,徐州市,邳州市,fd7454b1f57f07172fb96d70,教育培训,幼儿园
睢宁县图书馆,33.91779355025342,117.948699,徐州市睢宁县花径西路睢宁碧桂园东南侧约130米,江苏省,徐州市,睢宁县,ae18a379e4c1746682288a8a,教育培训,图书馆
萤火虫图书馆,33.921590192632756,117.962804,徐州市睢宁县文学北路睢宁县体育中心,江苏省,徐州市,睢宁县,6f162b9633e02be0bda24055,教育培训,图书馆
猫小猫图书馆,33.970865328223866,117.889856,徐州市睢宁县祥庆路庆安镇中心小学东南侧约200米,江苏省,徐州市,睢宁县,9d12b74d5d25d12797ec847b,教育培训,图书馆
沛县新图书馆,34.75640033592056,116.940231,江苏省徐州市沛县沛城镇韩信路8号沛县文化中心,江苏省,徐州市,沛县,df7fb2336889a77e03ec0152,教育培训,图书馆
小鹰展翅图书馆,34.73133334804296,116.947453,徐州市沛县正阳路农机小区南侧约230米,江苏省,徐州市,沛县,346149f138d908742bb97c32,教育培训,图书馆
鸿图书馆,34.835497333387345,116.846981,徐州市沛县沛公大道安国镇人民政府西侧约30米,江苏省,徐州市,沛县,20606df15d4c516f1d580040,教育培训,图书馆
大耳朵图书馆,34.59583754422143,117.067159,徐州市沛县X201沛县魏庙中学东北侧,江苏省,徐州市,沛县,967f819ec82d6a8a871541b0,教育培训,图书馆
约读书房,34.73211472710728,116.947474,徐州市沛县正阳路农机小区南侧约140米,江苏省,徐州市,沛县,0c88060b83b7190a00ec01a5,教育培训,其他
大屯煤电公司图书馆,34.81413766885175,116.911537,徐州市沛县上海路江苏沛县大屯矿区第二中学西侧约130米,江苏省,徐州市,沛县,b56cc376929a29d07dc876f5,教育培训,图书馆
